<?xml version="1.0" encoding="UTF-8"?>
<gpx xmlns="http://www.topografix.com/GPX/1/1" xmlns:xsi="http://www.w3.org/2001/XMLSchema-instance" xsi:schemaLocation="http://www.topografix.com/GPX/1/1 http://www.topografix.com/GPX/1/1/gpx.xsd" version="1.1" creator="https://www.komoot.de">
  <metadata>
    <name>Loop around Nideggen via Castle</name>
    <author>
      <link href="https://www.komoot.de">
        <text>komoot</text>
        <type>text/html</type>
      </link>
    </author>
  </metadata>
  <wpt lat="50.68973" lon="6.46579">
    <name>Nideggen-Brück</name>
    <sym>Flag, Blue</sym>
  </wpt>
  <wpt lat="50.688533" lon="6.477234">
    <name>Burg Nideggen</name>
    <sym>Flag, Blue</sym>
  </wpt>
  <wpt lat="50.688444" lon="6.47632">
    <name>Blick auf das Rurtal von der Burg Nideggen</name>
    <sym>Flag, Blue</sym>
  </wpt>
  <wpt lat="50.68811" lon="6.476439">
    <name>Felsenpfad unterhalb der Burg Nideggen</name>
    <sym>Flag, Blue</sym>
  </wpt>
  <wpt lat="50.685928" lon="6.479005">
    <name>Blick auf die Burg Nideggen</name>
    <sym>Flag, Blue</sym>
  </wpt>
  <wpt lat="50.685352" lon="6.478212">
    <name>Buntsandsteinfelsen im Klettergebiet Effels</name>
    <sym>Flag, Blue</sym>
  </wpt>
  <wpt lat="50.684661" lon="6.477704">
    <name>Blick auf die Burg Nideggen vom Effels</name>
    <sym>Flag, Blue</sym>
  </wpt>
  <wpt lat="50.677544" lon="6.506725">
    <name>Bildstock Klemensstock und Aussichtspunkt</name>
    <sym>Flag, Blue</sym>
  </wpt>
  <wpt lat="50.67069" lon="6.483951">
    <name>Mittelberg</name>
    <sym>Flag, Blue</sym>
  </wpt>
  <wpt lat="50.671924" lon="6.478809">
    <name>Fachwerkhäuser in Abenden</name>
    <sym>Shopping Center</sym>
  </wpt>
  <wpt lat="50.676976" lon="6.479712">
    <name>Buntsandsteinfelsen oberhalb von Abenden</name>
    <sym>Flag, Blue</sym>
  </wpt>
  <wpt lat="50.679989" lon="6.476113">
    <name>Buntsandsteinfelsen im Rurtal</name>
    <sym>Flag, Blue</sym>
  </wpt>
  <trk>
    <name>Loop around Nideggen via Castle</name>
    <type>hike</type>
    <trkseg>
      <trkpt lat="50.689711" lon="6.465782">
        <ele>189.851576</ele>
        <time>2026-08-23T19:15:19.141000Z</time>
      </trkpt>
      <trkpt lat="50.689777" lon="6.465386">
        <ele>189.851576</ele>
        <time>2026-08-23T19:15:45.338000Z</time>
      </trkpt>
      <trkpt lat="50.689799" lon="6.465395">
        <ele>189.851576</ele>
        <time>2026-08-23T19:15:47.695000Z</time>
      </trkpt>
      <trkpt lat="50.689838" lon="6.465166">
        <ele>189.851576</ele>
        <time>2026-08-23T19:16:03.008000Z</time>
      </trkpt>
      <trkpt lat="50.68991" lon="6.465195">
        <ele>189.851576</ele>
        <time>2026-08-23T19:16:10.833000Z</time>
      </trkpt>
      <trkpt lat="50.68986" lon="6.465503">
        <ele>189.851576</ele>
        <time>2026-08-23T19:16:31.640000Z</time>
      </trkpt>
      <trkpt lat="50.689899" lon="6.465518">
        <ele>189.851576</ele>
        <time>2026-08-23T19:16:35.947000Z</time>
      </trkpt>
      <trkpt lat="50.68984" lon="6.465988">
        <ele>189.345981</ele>
        <time>2026-08-23T19:17:07.938000Z</time>
      </trkpt>
      <trkpt lat="50.689809" lon="6.466059">
        <ele>189.164822</ele>
        <time>2026-08-23T19:17:13.780000Z</time>
      </trkpt>
      <trkpt lat="50.689802" lon="6.466433">
        <ele>188.37874</ele>
        <time>2026-08-23T19:17:39.020000Z</time>
      </trkpt>
      <trkpt lat="50.689837" lon="6.466506">
        <ele>188.186405</ele>
        <time>2026-08-23T19:17:45.333000Z</time>
      </trkpt>
      <trkpt lat="50.689754" lon="6.467221">
        <ele>186.659247</ele>
        <time>2026-08-23T19:18:35.060000Z</time>
      </trkpt>
      <trkpt lat="50.689797" lon="6.467358">
        <ele>186.338035</ele>
        <time>2026-08-23T19:18:45.522000Z</time>
      </trkpt>
      <trkpt lat="50.68986" lon="6.467378">
        <ele>186.124928</ele>
        <time>2026-08-23T19:18:52.515000Z</time>
      </trkpt>
      <trkpt lat="50.68966" lon="6.468728">
        <ele>184.327762</ele>
        <time>2026-08-23T19:20:27.619000Z</time>
      </trkpt>
      <trkpt lat="50.689667" lon="6.468883">
        <ele>184.541135</ele>
        <time>2026-08-23T19:20:37.808000Z</time>
      </trkpt>
      <trkpt lat="50.689725" lon="6.468931">
        <ele>184.683077</ele>
        <time>2026-08-23T19:20:44.554000Z</time>
      </trkpt>
      <trkpt lat="50.689741" lon="6.46898">
        <ele>184.758771</ele>
        <time>2026-08-23T19:20:48.080000Z</time>
      </trkpt>
      <trkpt lat="50.689727" lon="6.469089">
        <ele>184.911486</ele>
        <time>2026-08-23T19:20:55.180000Z</time>
      </trkpt>
      <trkpt lat="50.689806" lon="6.469229">
        <ele>185.168923</ele>
        <time>2026-08-23T19:21:07.087000Z</time>
      </trkpt>
      <trkpt lat="50.689959" lon="6.469532">
        <ele>185.700967</ele>
        <time>2026-08-23T19:21:32.822000Z</time>
      </trkpt>
      <trkpt lat="50.69007" lon="6.469727">
        <ele>186.060932</ele>
        <time>2026-08-23T19:21:51.526000Z</time>
      </trkpt>
      <trkpt lat="50.690406" lon="6.470368">
        <ele>187.203316</ele>
        <time>2026-08-23T19:22:53.665000Z</time>
      </trkpt>
      <trkpt lat="50.690473" lon="6.470494">
        <ele>187.429194</ele>
        <time>2026-08-23T19:23:06.050000Z</time>
      </trkpt>
      <trkpt lat="50.690613" lon="6.470766">
        <ele>188.29412</ele>
        <time>2026-08-23T19:23:32.639000Z</time>
      </trkpt>
      <trkpt lat="50.690549" lon="6.47085">
        <ele>189.027758</ele>
        <time>2026-08-23T19:23:42.797000Z</time>
      </trkpt>
      <trkpt lat="50.690569" lon="6.471083">
        <ele>190.340691</ele>
        <time>2026-08-23T19:24:01.055000Z</time>
      </trkpt>
      <trkpt lat="50.690642" lon="6.471248">
        <ele>191.46447</ele>
        <time>2026-08-23T19:24:17.125000Z</time>
      </trkpt>
      <trkpt lat="50.690728" lon="6.471563">
        <ele>193.379774</ele>
        <time>2026-08-23T19:24:44.425000Z</time>
      </trkpt>
      <trkpt lat="50.690702" lon="6.471609">
        <ele>193.724005</ele>
        <time>2026-08-23T19:24:49.414000Z</time>
      </trkpt>
      <trkpt lat="50.690628" lon="6.471428">
        <ele>194.92688</ele>
        <time>2026-08-23T19:25:06.824000Z</time>
      </trkpt>
      <trkpt lat="50.690344" lon="6.471269">
        <ele>197.582903</ele>
        <time>2026-08-23T19:25:46.841000Z</time>
      </trkpt>
      <trkpt lat="50.690116" lon="6.471273">
        <ele>199.592669</ele>
        <time>2026-08-23T19:26:18.202000Z</time>
      </trkpt>
      <trkpt lat="50.69006" lon="6.471359">
        <ele>200.281325</ele>
        <time>2026-08-23T19:26:28.902000Z</time>
      </trkpt>
      <trkpt lat="50.689959" lon="6.471953">
        <ele>203.804423</ele>
        <time>2026-08-23T19:27:20.421000Z</time>
      </trkpt>
      <trkpt lat="50.689926" lon="6.472049">
        <ele>205.121087</ele>
        <time>2026-08-23T19:27:29.475000Z</time>
      </trkpt>
      <trkpt lat="50.689952" lon="6.472096">
        <ele>205.873276</ele>
        <time>2026-08-23T19:27:34.719000Z</time>
      </trkpt>
      <trkpt lat="50.690121" lon="6.471935">
        <ele>209.629406</ele>
        <time>2026-08-23T19:28:01.797000Z</time>
      </trkpt>
      <trkpt lat="50.690201" lon="6.471987">
        <ele>211.275711</ele>
        <time>2026-08-23T19:28:13.945000Z</time>
      </trkpt>
      <trkpt lat="50.690241" lon="6.472077">
        <ele>212.601018</ele>
        <time>2026-08-23T19:28:24.236000Z</time>
      </trkpt>
      <trkpt lat="50.690228" lon="6.47233">
        <ele>215.66092</ele>
        <time>2026-08-23T19:28:49.141000Z</time>
      </trkpt>
      <trkpt lat="50.690202" lon="6.47247">
        <ele>217.419628</ele>
        <time>2026-08-23T19:29:04.057000Z</time>
      </trkpt>
      <trkpt lat="50.690164" lon="6.472536">
        <ele>218.494744</ele>
        <time>2026-08-23T19:29:13.898000Z</time>
      </trkpt>
      <trkpt lat="50.690043" lon="6.472334">
        <ele>221.846018</ele>
        <time>2026-08-23T19:29:47.309000Z</time>
      </trkpt>
      <trkpt lat="50.689993" lon="6.472344">
        <ele>222.805056</ele>
        <time>2026-08-23T19:29:57.732000Z</time>
      </trkpt>
      <trkpt lat="50.689944" lon="6.472399">
        <ele>223.949161</ele>
        <time>2026-08-23T19:30:10.060000Z</time>
      </trkpt>
      <trkpt lat="50.689921" lon="6.472542">
        <ele>225.727711</ele>
        <time>2026-08-23T19:30:30.679000Z</time>
      </trkpt>
      <trkpt lat="50.689972" lon="6.47254">
        <ele>226.698471</ele>
        <time>2026-08-23T19:30:41.833000Z</time>
      </trkpt>
      <trkpt lat="50.689831" lon="6.473037">
        <ele>233.263122</ele>
        <time>2026-08-23T19:32:22.418000Z</time>
      </trkpt>
      <trkpt lat="50.689726" lon="6.47331">
        <ele>237.113165</ele>
        <time>2026-08-23T19:33:23.499000Z</time>
      </trkpt>
      <trkpt lat="50.689719" lon="6.473434">
        <ele>238.871112</ele>
        <time>2026-08-23T19:33:46.134000Z</time>
      </trkpt>
      <trkpt lat="50.689617" lon="6.473831">
        <ele>245.808409</ele>
        <time>2026-08-23T19:35:10.138000Z</time>
      </trkpt>
      <trkpt lat="50.689654" lon="6.473906">
        <ele>247.347709</ele>
        <time>2026-08-23T19:35:25.725000Z</time>
      </trkpt>
      <trkpt lat="50.689782" lon="6.474601">
        <ele>259.067956</ele>
        <time>2026-08-23T19:37:29.335000Z</time>
      </trkpt>
      <trkpt lat="50.689855" lon="6.474783">
        <ele>262.556153</ele>
        <time>2026-08-23T19:38:05.729000Z</time>
      </trkpt>
      <trkpt lat="50.689955" lon="6.474802">
        <ele>265.130682</ele>
        <time>2026-08-23T19:38:32.396000Z</time>
      </trkpt>
      <trkpt lat="50.690005" lon="6.474851">
        <ele>266.635</ele>
        <time>2026-08-23T19:38:47.036000Z</time>
      </trkpt>
      <trkpt lat="50.690016" lon="6.474938">
        <ele>268.071588</ele>
        <time>2026-08-23T19:39:01.614000Z</time>
      </trkpt>
      <trkpt lat="50.689972" lon="6.475186">
        <ele>272.242007</ele>
        <time>2026-08-23T19:39:40.981000Z</time>
      </trkpt>
      <trkpt lat="50.689848" lon="6.475599">
        <ele>279.642851</ele>
        <time>2026-08-23T19:40:41.240000Z</time>
      </trkpt>
      <trkpt lat="50.689738" lon="6.476093">
        <ele>285.692529</ele>
        <time>2026-08-23T19:41:37.445000Z</time>
      </trkpt>
      <trkpt lat="50.689733" lon="6.476415">
        <ele>287.949436</ele>
        <time>2026-08-23T19:42:06.791000Z</time>
      </trkpt>
      <trkpt lat="50.689864" lon="6.477147">
        <ele>293.279218</ele>
        <time>2026-08-23T19:43:14.278000Z</time>
      </trkpt>
      <trkpt lat="50.689987" lon="6.477569">
        <ele>296.534069</ele>
        <time>2026-08-23T19:43:52.705000Z</time>
      </trkpt>
      <trkpt lat="50.690119" lon="6.477793">
        <ele>298.677651</ele>
        <time>2026-08-23T19:44:17.362000Z</time>
      </trkpt>
      <trkpt lat="50.690143" lon="6.478008">
        <ele>300.207334</ele>
        <time>2026-08-23T19:44:34.984000Z</time>
      </trkpt>
      <trkpt lat="50.690073" lon="6.477967">
        <ele>301.033137</ele>
        <time>2026-08-23T19:44:44.343000Z</time>
      </trkpt>
      <trkpt lat="50.689986" lon="6.477915">
        <ele>302.062057</ele>
        <time>2026-08-23T19:44:56.190000Z</time>
      </trkpt>
      <trkpt lat="50.689851" lon="6.477944">
        <ele>303.568962</ele>
        <time>2026-08-23T19:45:13.510000Z</time>
      </trkpt>
      <trkpt lat="50.68951" lon="6.477855">
        <ele>303.811729</ele>
        <time>2026-08-23T19:45:56.470000Z</time>
      </trkpt>
      <trkpt lat="50.689624" lon="6.478276">
        <ele>303.880804</ele>
        <time>2026-08-23T19:46:31.212000Z</time>
      </trkpt>
      <trkpt lat="50.689616" lon="6.478357">
        <ele>303.893173</ele>
        <time>2026-08-23T19:46:37.376000Z</time>
      </trkpt>
      <trkpt lat="50.689322" lon="6.477885">
        <ele>303.993039</ele>
        <time>2026-08-23T19:47:21.367000Z</time>
      </trkpt>
      <trkpt lat="50.68922" lon="6.477742">
        <ele>304.025527</ele>
        <time>2026-08-23T19:47:35.881000Z</time>
      </trkpt>
      <trkpt lat="50.689064" lon="6.477906">
        <ele>304.070164</ele>
        <time>2026-08-23T19:47:56Z</time>
      </trkpt>
      <trkpt lat="50.688952" lon="6.478044">
        <ele>304.104</ele>
        <time>2026-08-23T19:48:11.913000Z</time>
      </trkpt>
      <trkpt lat="50.688909" lon="6.478173">
        <ele>304.125993</ele>
        <time>2026-08-23T19:48:22.514000Z</time>
      </trkpt>
      <trkpt lat="50.688655" lon="6.477557">
        <ele>303.240789</ele>
        <time>2026-08-23T19:49:18.275000Z</time>
      </trkpt>
      <trkpt lat="50.688632" lon="6.477501">
        <ele>303.118174</ele>
        <time>2026-08-23T19:49:23.729000Z</time>
      </trkpt>
      <trkpt lat="50.688612" lon="6.477412">
        <ele>302.944678</ele>
        <time>2026-08-23T19:49:30.847000Z</time>
      </trkpt>
      <trkpt lat="50.688536" lon="6.477307">
        <ele>302.651778</ele>
        <time>2026-08-23T19:49:42.925000Z</time>
      </trkpt>
      <trkpt lat="50.688539" lon="6.477235">
        <ele>302.519211</ele>
        <time>2026-08-23T19:49:48.204000Z</time>
      </trkpt>
      <trkpt lat="50.68854" lon="6.477202">
        <ele>302.458512</ele>
        <time>2026-08-23T19:49:50.436000Z</time>
      </trkpt>
      <trkpt lat="50.688569" lon="6.477131">
        <ele>302.303308</ele>
        <time>2026-08-23T19:49:56.637000Z</time>
      </trkpt>
      <trkpt lat="50.688558" lon="6.47702">
        <ele>302.096894</ele>
        <time>2026-08-23T19:50:04.924000Z</time>
      </trkpt>
      <trkpt lat="50.688514" lon="6.477027">
        <ele>301.968648</ele>
        <time>2026-08-23T19:50:09.680000Z</time>
      </trkpt>
      <trkpt lat="50.688445" lon="6.476362">
        <ele>300.7306</ele>
        <time>2026-08-23T19:50:56.121000Z</time>
      </trkpt>
      <trkpt lat="50.688495" lon="6.476328">
        <ele>300.572718</ele>
        <time>2026-08-23T19:51:01.732000Z</time>
      </trkpt>
      <trkpt lat="50.688493" lon="6.476312">
        <ele>300.542755</ele>
        <time>2026-08-23T19:51:02.840000Z</time>
      </trkpt>
      <trkpt lat="50.688442" lon="6.476308">
        <ele>300.394673</ele>
        <time>2026-08-23T19:51:08.389000Z</time>
      </trkpt>
      <trkpt lat="50.688493" lon="6.476312">
        <ele>300.246591</ele>
        <time>2026-08-23T19:51:14.256000Z</time>
      </trkpt>
      <trkpt lat="50.688495" lon="6.476328">
        <ele>300.216629</ele>
        <time>2026-08-23T19:51:15.424000Z</time>
      </trkpt>
      <trkpt lat="50.688445" lon="6.476362">
        <ele>300.058746</ele>
        <time>2026-08-23T19:51:20.959000Z</time>
      </trkpt>
      <trkpt lat="50.688514" lon="6.477027">
        <ele>299.022434</ele>
        <time>2026-08-23T19:52:10.028000Z</time>
      </trkpt>
      <trkpt lat="50.688558" lon="6.47702">
        <ele>299.101913</ele>
        <time>2026-08-23T19:52:14.999000Z</time>
      </trkpt>
      <trkpt lat="50.688569" lon="6.477131">
        <ele>299.229835</ele>
        <time>2026-08-23T19:52:24.123000Z</time>
      </trkpt>
      <trkpt lat="50.68854" lon="6.477202">
        <ele>299.326021</ele>
        <time>2026-08-23T19:52:30.899000Z</time>
      </trkpt>
      <trkpt lat="50.688539" lon="6.477235">
        <ele>299.363638</ele>
        <time>2026-08-23T19:52:33.253000Z</time>
      </trkpt>
      <trkpt lat="50.688536" lon="6.477307">
        <ele>299.445795</ele>
        <time>2026-08-23T19:52:39.005000Z</time>
      </trkpt>
      <trkpt lat="50.688612" lon="6.477412">
        <ele>299.627315</ele>
        <time>2026-08-23T19:52:52.248000Z</time>
      </trkpt>
      <trkpt lat="50.688632" lon="6.477501">
        <ele>299.734837</ele>
        <time>2026-08-23T19:52:59.991000Z</time>
      </trkpt>
      <trkpt lat="50.688655" lon="6.477557">
        <ele>299.810826</ele>
        <time>2026-08-23T19:53:06.624000Z</time>
      </trkpt>
      <trkpt lat="50.688909" lon="6.478173">
        <ele>300.647677</ele>
        <time>2026-08-23T19:54:07.338000Z</time>
      </trkpt>
      <trkpt lat="50.688952" lon="6.478044">
        <ele>300.813646</ele>
        <time>2026-08-23T19:54:18.472000Z</time>
      </trkpt>
      <trkpt lat="50.689064" lon="6.477906">
        <ele>301.069</ele>
        <time>2026-08-23T19:54:34.654000Z</time>
      </trkpt>
      <trkpt lat="50.68922" lon="6.477742">
        <ele>301.405859</ele>
        <time>2026-08-23T19:54:53.882000Z</time>
      </trkpt>
      <trkpt lat="50.689174" lon="6.476879">
        <ele>300.601607</ele>
        <time>2026-08-23T19:55:55.375000Z</time>
      </trkpt>
      <trkpt lat="50.689042" lon="6.476676">
        <ele>298.163412</ele>
        <time>2026-08-23T19:56:18.866000Z</time>
      </trkpt>
      <trkpt lat="50.689049" lon="6.476521">
        <ele>296.860963</ele>
        <time>2026-08-23T19:56:31.811000Z</time>
      </trkpt>
      <trkpt lat="50.688965" lon="6.476374">
        <ele>295.201712</ele>
        <time>2026-08-23T19:56:49.066000Z</time>
      </trkpt>
      <trkpt lat="50.688964" lon="6.476154">
        <ele>293.357703</ele>
        <time>2026-08-23T19:57:08.950000Z</time>
      </trkpt>
      <trkpt lat="50.689092" lon="6.475697">
        <ele>289.169652</ele>
        <time>2026-08-23T19:57:53.704000Z</time>
      </trkpt>
      <trkpt lat="50.688989" lon="6.475602">
        <ele>287.591374</ele>
        <time>2026-08-23T19:58:10.721000Z</time>
      </trkpt>
      <trkpt lat="50.688861" lon="6.475545">
        <ele>285.831824</ele>
        <time>2026-08-23T19:58:29.544000Z</time>
      </trkpt>
      <trkpt lat="50.688686" lon="6.475597">
        <ele>283.475895</ele>
        <time>2026-08-23T19:58:53.146000Z</time>
      </trkpt>
      <trkpt lat="50.688595" lon="6.475468">
        <ele>281.857705</ele>
        <time>2026-08-23T19:59:08.640000Z</time>
      </trkpt>
      <trkpt lat="50.688452" lon="6.475598">
        <ele>279.674459</ele>
        <time>2026-08-23T19:59:28.785000Z</time>
      </trkpt>
      <trkpt lat="50.68836" lon="6.475934">
        <ele>278.190289</ele>
        <time>2026-08-23T19:59:55.725000Z</time>
      </trkpt>
      <trkpt lat="50.688313" lon="6.476067">
        <ele>278.052691</ele>
        <time>2026-08-23T20:00:06.732000Z</time>
      </trkpt>
      <trkpt lat="50.688207" lon="6.476245">
        <ele>277.831971</ele>
        <time>2026-08-23T20:00:23.782000Z</time>
      </trkpt>
      <trkpt lat="50.688208" lon="6.476365">
        <ele>277.723539</ele>
        <time>2026-08-23T20:00:31.762000Z</time>
      </trkpt>
      <trkpt lat="50.688132" lon="6.476477">
        <ele>277.575256</ele>
        <time>2026-08-23T20:00:42.386000Z</time>
      </trkpt>
      <trkpt lat="50.688123" lon="6.476491">
        <ele>277.557236</ele>
        <time>2026-08-23T20:00:43.741000Z</time>
      </trkpt>
      <trkpt lat="50.688101" lon="6.476618">
        <ele>277.438277</ele>
        <time>2026-08-23T20:00:52.350000Z</time>
      </trkpt>
      <trkpt lat="50.688114" lon="6.476792">
        <ele>277.279975</ele>
        <time>2026-08-23T20:01:03.669000Z</time>
      </trkpt>
      <trkpt lat="50.688181" lon="6.477174">
        <ele>276.921849</ele>
        <time>2026-08-23T20:01:30.967000Z</time>
      </trkpt>
      <trkpt lat="50.688203" lon="6.47765">
        <ele>276.490631</ele>
        <time>2026-08-23T20:02:03.181000Z</time>
      </trkpt>
      <trkpt lat="50.688104" lon="6.478124">
        <ele>276.039691</ele>
        <time>2026-08-23T20:02:38.102000Z</time>
      </trkpt>
      <trkpt lat="50.68801" lon="6.478421">
        <ele>275.969105</ele>
        <time>2026-08-23T20:03:01.741000Z</time>
      </trkpt>
      <trkpt lat="50.688007" lon="6.478526">
        <ele>276.157743</ele>
        <time>2026-08-23T20:03:08.921000Z</time>
      </trkpt>
      <trkpt lat="50.688077" lon="6.478697">
        <ele>276.523133</ele>
        <time>2026-08-23T20:03:22.244000Z</time>
      </trkpt>
      <trkpt lat="50.688068" lon="6.478795">
        <ele>276.700855</ele>
        <time>2026-08-23T20:03:28.651000Z</time>
      </trkpt>
      <trkpt lat="50.687986" lon="6.478833">
        <ele>276.942953</ele>
        <time>2026-08-23T20:03:37.403000Z</time>
      </trkpt>
      <trkpt lat="50.687902" lon="6.478713">
        <ele>277.263902</ele>
        <time>2026-08-23T20:03:48.836000Z</time>
      </trkpt>
      <trkpt lat="50.687849" lon="6.478685">
        <ele>277.42223</ele>
        <time>2026-08-23T20:03:54.469000Z</time>
      </trkpt>
      <trkpt lat="50.687831" lon="6.478696">
        <ele>277.47691</ele>
        <time>2026-08-23T20:03:56.483000Z</time>
      </trkpt>
      <trkpt lat="50.687828" lon="6.478759">
        <ele>277.590297</ele>
        <time>2026-08-23T20:04:00.572000Z</time>
      </trkpt>
      <trkpt lat="50.688009" lon="6.47949">
        <ele>278.998888</ele>
        <time>2026-08-23T20:04:50.736000Z</time>
      </trkpt>
      <trkpt lat="50.68834" lon="6.480377">
        <ele>280.84644</ele>
        <time>2026-08-23T20:06:04.756000Z</time>
      </trkpt>
      <trkpt lat="50.688361" lon="6.480501">
        <ele>281.423481</ele>
        <time>2026-08-23T20:06:15.210000Z</time>
      </trkpt>
      <trkpt lat="50.688338" lon="6.480698">
        <ele>282.53847</ele>
        <time>2026-08-23T20:06:32.105000Z</time>
      </trkpt>
      <trkpt lat="50.688186" lon="6.480798">
        <ele>283.985262</ele>
        <time>2026-08-23T20:06:54.171000Z</time>
      </trkpt>
      <trkpt lat="50.688153" lon="6.480994">
        <ele>285.114093</ele>
        <time>2026-08-23T20:07:11.648000Z</time>
      </trkpt>
      <trkpt lat="50.68804" lon="6.481366">
        <ele>287.410404</ele>
        <time>2026-08-23T20:07:47.450000Z</time>
      </trkpt>
      <trkpt lat="50.687984" lon="6.481685">
        <ele>289.252912</ele>
        <time>2026-08-23T20:08:16.074000Z</time>
      </trkpt>
      <trkpt lat="50.688006" lon="6.481999">
        <ele>291.011341</ele>
        <time>2026-08-23T20:08:42.539000Z</time>
      </trkpt>
      <trkpt lat="50.687968" lon="6.482194">
        <ele>292.146928</ele>
        <time>2026-08-23T20:08:59.086000Z</time>
      </trkpt>
      <trkpt lat="50.68787" lon="6.482603">
        <ele>294.580869</ele>
        <time>2026-08-23T20:09:34.824000Z</time>
      </trkpt>
      <trkpt lat="50.687808" lon="6.482697">
        <ele>295.336168</ele>
        <time>2026-08-23T20:09:45.648000Z</time>
      </trkpt>
      <trkpt lat="50.687724" lon="6.482766">
        <ele>296.168128</ele>
        <time>2026-08-23T20:09:58.032000Z</time>
      </trkpt>
      <trkpt lat="50.687556" lon="6.482672">
        <ele>296.9357</ele>
        <time>2026-08-23T20:10:21.922000Z</time>
      </trkpt>
      <trkpt lat="50.687509" lon="6.482639">
        <ele>297.033823</ele>
        <time>2026-08-23T20:10:28.786000Z</time>
      </trkpt>
      <trkpt lat="50.687483" lon="6.48262">
        <ele>297.088476</ele>
        <time>2026-08-23T20:10:32.862000Z</time>
      </trkpt>
      <trkpt lat="50.68741" lon="6.482562">
        <ele>297.24437</ele>
        <time>2026-08-23T20:10:43.826000Z</time>
      </trkpt>
      <trkpt lat="50.687322" lon="6.482387">
        <ele>297.514379</ele>
        <time>2026-08-23T20:11:01.664000Z</time>
      </trkpt>
      <trkpt lat="50.687278" lon="6.482059">
        <ele>297.919558</ele>
        <time>2026-08-23T20:11:25.799000Z</time>
      </trkpt>
      <trkpt lat="50.687157" lon="6.481753">
        <ele>298.355481</ele>
        <time>2026-08-23T20:11:50.338000Z</time>
      </trkpt>
      <trkpt lat="50.687105" lon="6.481705">
        <ele>298.470388</ele>
        <time>2026-08-23T20:11:56.460000Z</time>
      </trkpt>
      <trkpt lat="50.687004" lon="6.481737">
        <ele>298.66689</ele>
        <time>2026-08-23T20:12:07.416000Z</time>
      </trkpt>
      <trkpt lat="50.686773" lon="6.481978">
        <ele>299.195083</ele>
        <time>2026-08-23T20:12:35.502000Z</time>
      </trkpt>
      <trkpt lat="50.686546" lon="6.481562">
        <ele>299.858595</ele>
        <time>2026-08-23T20:13:12.097000Z</time>
      </trkpt>
      <trkpt lat="50.68639" lon="6.481433">
        <ele>299.903104</ele>
        <time>2026-08-23T20:13:30.948000Z</time>
      </trkpt>
      <trkpt lat="50.686246" lon="6.48125">
        <ele>298.172103</ele>
        <time>2026-08-23T20:13:51.183000Z</time>
      </trkpt>
      <trkpt lat="50.686158" lon="6.480999">
        <ele>296.470359</ele>
        <time>2026-08-23T20:14:11.405000Z</time>
      </trkpt>
      <trkpt lat="50.686125" lon="6.480696">
        <ele>294.64655</ele>
        <time>2026-08-23T20:14:34.251000Z</time>
      </trkpt>
      <trkpt lat="50.686132" lon="6.480052">
        <ele>290.825675</ele>
        <time>2026-08-23T20:15:24.250000Z</time>
      </trkpt>
      <trkpt lat="50.6861" lon="6.479511">
        <ele>287.602418</ele>
        <time>2026-08-23T20:16:06.160000Z</time>
      </trkpt>
      <trkpt lat="50.686057" lon="6.479197">
        <ele>285.696702</ele>
        <time>2026-08-23T20:16:31.571000Z</time>
      </trkpt>
      <trkpt lat="50.685965" lon="6.478968">
        <ele>284.088145</ele>
        <time>2026-08-23T20:16:53.376000Z</time>
      </trkpt>
      <trkpt lat="50.685953" lon="6.478938">
        <ele>283.877679</ele>
        <time>2026-08-23T20:16:56.246000Z</time>
      </trkpt>
      <trkpt lat="50.68583" lon="6.478797">
        <ele>282.876126</ele>
        <time>2026-08-23T20:17:15.331000Z</time>
      </trkpt>
      <trkpt lat="50.68563" lon="6.478751">
        <ele>281.922806</ele>
        <time>2026-08-23T20:17:40.273000Z</time>
      </trkpt>
      <trkpt lat="50.685507" lon="6.478619">
        <ele>281.221236</ele>
        <time>2026-08-23T20:17:58.224000Z</time>
      </trkpt>
      <trkpt lat="50.685352" lon="6.478212">
        <ele>279.802118</ele>
        <time>2026-08-23T20:18:33.578000Z</time>
      </trkpt>
      <trkpt lat="50.685323" lon="6.478135">
        <ele>279.534421</ele>
        <time>2026-08-23T20:18:39.990000Z</time>
      </trkpt>
      <trkpt lat="50.685227" lon="6.477959">
        <ele>278.840389</ele>
        <time>2026-08-23T20:18:56.237000Z</time>
      </trkpt>
      <trkpt lat="50.684729" lon="6.477515">
        <ele>276.142569</ele>
        <time>2026-08-23T20:19:54.359000Z</time>
      </trkpt>
      <trkpt lat="50.684643" lon="6.477438">
        <ele>275.676201</ele>
        <time>2026-08-23T20:20:04.919000Z</time>
      </trkpt>
      <trkpt lat="50.684543" lon="6.477455">
        <ele>275.201794</ele>
        <time>2026-08-23T20:20:15.774000Z</time>
      </trkpt>
      <trkpt lat="50.684493" lon="6.47757">
        <ele>274.857907</ele>
        <time>2026-08-23T20:20:25.392000Z</time>
      </trkpt>
      <trkpt lat="50.684487" lon="6.478207">
        <ele>276.86101</ele>
        <time>2026-08-23T20:21:10.574000Z</time>
      </trkpt>
      <trkpt lat="50.684348" lon="6.478554">
        <ele>278.151831</ele>
        <time>2026-08-23T20:21:40.389000Z</time>
      </trkpt>
      <trkpt lat="50.684286" lon="6.47865">
        <ele>278.582852</ele>
        <time>2026-08-23T20:21:50.328000Z</time>
      </trkpt>
      <trkpt lat="50.684203" lon="6.478741">
        <ele>279.084375</ele>
        <time>2026-08-23T20:22:02.135000Z</time>
      </trkpt>
      <trkpt lat="50.684071" lon="6.478766">
        <ele>279.744135</ele>
        <time>2026-08-23T20:22:18.031000Z</time>
      </trkpt>
      <trkpt lat="50.683577" lon="6.478579">
        <ele>282.265174</ele>
        <time>2026-08-23T20:23:19.652000Z</time>
      </trkpt>
      <trkpt lat="50.683523" lon="6.478558">
        <ele>282.541168</ele>
        <time>2026-08-23T20:23:26.371000Z</time>
      </trkpt>
      <trkpt lat="50.683403" lon="6.478616">
        <ele>283.163976</ele>
        <time>2026-08-23T20:23:41.678000Z</time>
      </trkpt>
      <trkpt lat="50.683275" lon="6.478793">
        <ele>284.272312</ele>
        <time>2026-08-23T20:24:02.509000Z</time>
      </trkpt>
      <trkpt lat="50.683174" lon="6.478957">
        <ele>285.715274</ele>
        <time>2026-08-23T20:24:20.551000Z</time>
      </trkpt>
      <trkpt lat="50.683085" lon="6.479172">
        <ele>287.335614</ele>
        <time>2026-08-23T20:24:41.408000Z</time>
      </trkpt>
      <trkpt lat="50.682978" lon="6.479627">
        <ele>290.397697</ele>
        <time>2026-08-23T20:25:22.617000Z</time>
      </trkpt>
      <trkpt lat="50.683004" lon="6.479808">
        <ele>291.568662</ele>
        <time>2026-08-23T20:25:38.473000Z</time>
      </trkpt>
      <trkpt lat="50.68326" lon="6.480285">
        <ele>295.512717</ele>
        <time>2026-08-23T20:26:32.134000Z</time>
      </trkpt>
      <trkpt lat="50.683365" lon="6.480642">
        <ele>297.995969</ele>
        <time>2026-08-23T20:27:08.286000Z</time>
      </trkpt>
      <trkpt lat="50.683434" lon="6.480799">
        <ele>299.201489</ele>
        <time>2026-08-23T20:27:26.020000Z</time>
      </trkpt>
      <trkpt lat="50.683434" lon="6.48103">
        <ele>300.658926</ele>
        <time>2026-08-23T20:27:47.055000Z</time>
      </trkpt>
      <trkpt lat="50.683235" lon="6.481393">
        <ele>303.329883</ele>
        <time>2026-08-23T20:28:29.672000Z</time>
      </trkpt>
      <trkpt lat="50.683268" lon="6.481911">
        <ele>306.036181</ele>
        <time>2026-08-23T20:29:13.829000Z</time>
      </trkpt>
      <trkpt lat="50.683522" lon="6.482902">
        <ele>311.593212</ele>
        <time>2026-08-23T20:30:38.780000Z</time>
      </trkpt>
      <trkpt lat="50.683738" lon="6.48384">
        <ele>316.557169</ele>
        <time>2026-08-23T20:31:57.179000Z</time>
      </trkpt>
      <trkpt lat="50.683873" lon="6.484621">
        <ele>318.201957</ele>
        <time>2026-08-23T20:32:57.772000Z</time>
      </trkpt>
      <trkpt lat="50.684097" lon="6.485157">
        <ele>319.506527</ele>
        <time>2026-08-23T20:33:43.568000Z</time>
      </trkpt>
      <trkpt lat="50.684245" lon="6.485498">
        <ele>320.34631</ele>
        <time>2026-08-23T20:34:12.328000Z</time>
      </trkpt>
      <trkpt lat="50.684297" lon="6.485728">
        <ele>320.842467</ele>
        <time>2026-08-23T20:34:28.886000Z</time>
      </trkpt>
      <trkpt lat="50.684387" lon="6.486436">
        <ele>322.097651</ele>
        <time>2026-08-23T20:35:16.129000Z</time>
      </trkpt>
      <trkpt lat="50.684397" lon="6.486515">
        <ele>321.991406</ele>
        <time>2026-08-23T20:35:21.254000Z</time>
      </trkpt>
      <trkpt lat="50.684658" lon="6.486459">
        <ele>321.443144</ele>
        <time>2026-08-23T20:35:47.832000Z</time>
      </trkpt>
      <trkpt lat="50.684685" lon="6.486647">
        <ele>321.18892</ele>
        <time>2026-08-23T20:36:00.225000Z</time>
      </trkpt>
      <trkpt lat="50.68493" lon="6.488781">
        <ele>318.314583</ele>
        <time>2026-08-23T20:38:26.294000Z</time>
      </trkpt>
      <trkpt lat="50.68511" lon="6.490389">
        <ele>315.879233</ele>
        <time>2026-08-23T20:40:17.401000Z</time>
      </trkpt>
      <trkpt lat="50.685173" lon="6.490625">
        <ele>315.497292</ele>
        <time>2026-08-23T20:40:34.697000Z</time>
      </trkpt>
      <trkpt lat="50.685367" lon="6.492289">
        <ele>315.420596</ele>
        <time>2026-08-23T20:42:22.938000Z</time>
      </trkpt>
      <trkpt lat="50.68657" lon="6.492394">
        <ele>318.228714</ele>
        <time>2026-08-23T20:44:39.339000Z</time>
      </trkpt>
      <trkpt lat="50.686588" lon="6.492385">
        <ele>318.272721</ele>
        <time>2026-08-23T20:44:41.500000Z</time>
      </trkpt>
      <trkpt lat="50.686699" lon="6.492333">
        <ele>318.482442</ele>
        <time>2026-08-23T20:44:54.815000Z</time>
      </trkpt>
      <trkpt lat="50.686829" lon="6.492145">
        <ele>318.725435</ele>
        <time>2026-08-23T20:45:14.853000Z</time>
      </trkpt>
      <trkpt lat="50.687033" lon="6.492107">
        <ele>319.008534</ele>
        <time>2026-08-23T20:45:37.777000Z</time>
      </trkpt>
      <trkpt lat="50.687086" lon="6.492145">
        <ele>319.08876</ele>
        <time>2026-08-23T20:45:44.133000Z</time>
      </trkpt>
      <trkpt lat="50.687085" lon="6.492424">
        <ele>319.332372</ele>
        <time>2026-08-23T20:46:03.307000Z</time>
      </trkpt>
      <trkpt lat="50.686855" lon="6.493585">
        <ele>320.394504</ele>
        <time>2026-08-23T20:47:22.726000Z</time>
      </trkpt>
      <trkpt lat="50.686755" lon="6.494224">
        <ele>320.766916</ele>
        <time>2026-08-23T20:48:05.081000Z</time>
      </trkpt>
      <trkpt lat="50.686522" lon="6.496499">
        <ele>318.49181</ele>
        <time>2026-08-23T20:50:35.573000Z</time>
      </trkpt>
      <trkpt lat="50.686385" lon="6.497563">
        <ele>315.440566</ele>
        <time>2026-08-23T20:51:47.896000Z</time>
      </trkpt>
      <trkpt lat="50.68629" lon="6.497832">
        <ele>314.213045</ele>
        <time>2026-08-23T20:52:09.019000Z</time>
      </trkpt>
      <trkpt lat="50.686073" lon="6.498686">
        <ele>310.545545</ele>
        <time>2026-08-23T20:53:14.347000Z</time>
      </trkpt>
      <trkpt lat="50.686043" lon="6.498583">
        <ele>310.093693</ele>
        <time>2026-08-23T20:53:22.709000Z</time>
      </trkpt>
      <trkpt lat="50.685982" lon="6.498739">
        <ele>309.363003</ele>
        <time>2026-08-23T20:53:36.173000Z</time>
      </trkpt>
      <trkpt lat="50.685885" lon="6.498669">
        <ele>308.692</ele>
        <time>2026-08-23T20:53:48.709000Z</time>
      </trkpt>
      <trkpt lat="50.684317" lon="6.498611">
        <ele>295.358675</ele>
        <time>2026-08-23T20:57:00.613000Z</time>
      </trkpt>
      <trkpt lat="50.683542" lon="6.497906">
        <ele>291.29129</ele>
        <time>2026-08-23T20:58:41.686000Z</time>
      </trkpt>
      <trkpt lat="50.683483" lon="6.502758">
        <ele>303.588234</ele>
        <time>2026-08-23T21:04:44.180000Z</time>
      </trkpt>
      <trkpt lat="50.683428" lon="6.503002">
        <ele>304.500591</ele>
        <time>2026-08-23T21:05:04.907000Z</time>
      </trkpt>
      <trkpt lat="50.682608" lon="6.504885">
        <ele>314.294598</ele>
        <time>2026-08-23T21:08:06.399000Z</time>
      </trkpt>
      <trkpt lat="50.682172" lon="6.505288">
        <ele>317.13022</ele>
        <time>2026-08-23T21:09:07.563000Z</time>
      </trkpt>
      <trkpt lat="50.681805" lon="6.505071">
        <ele>318.283094</ele>
        <time>2026-08-23T21:09:53.209000Z</time>
      </trkpt>
      <trkpt lat="50.681522" lon="6.505028">
        <ele>319.119437</ele>
        <time>2026-08-23T21:10:25.019000Z</time>
      </trkpt>
      <trkpt lat="50.681113" lon="6.505206">
        <ele>320.36749</ele>
        <time>2026-08-23T21:11:11.110000Z</time>
      </trkpt>
      <trkpt lat="50.680657" lon="6.502792">
        <ele>322.223225</ele>
        <time>2026-08-23T21:13:53.461000Z</time>
      </trkpt>
      <trkpt lat="50.680166" lon="6.500377">
        <ele>320.736423</ele>
        <time>2026-08-23T21:16:34.842000Z</time>
      </trkpt>
      <trkpt lat="50.679571" lon="6.497412">
        <ele>314.380517</ele>
        <time>2026-08-23T21:20:06.557000Z</time>
      </trkpt>
      <trkpt lat="50.679139" lon="6.495109">
        <ele>306.964491</ele>
        <time>2026-08-23T21:22:55.765000Z</time>
      </trkpt>
      <trkpt lat="50.678678" lon="6.4929">
        <ele>299.959532</ele>
        <time>2026-08-23T21:25:39.282000Z</time>
      </trkpt>
      <trkpt lat="50.678441" lon="6.49155">
        <ele>297.042573</ele>
        <time>2026-08-23T21:27:13.982000Z</time>
      </trkpt>
      <trkpt lat="50.678011" lon="6.490211">
        <ele>293.866774</ele>
        <time>2026-08-23T21:28:52.039000Z</time>
      </trkpt>
      <trkpt lat="50.677799" lon="6.489758">
        <ele>292.656131</ele>
        <time>2026-08-23T21:29:28.975000Z</time>
      </trkpt>
      <trkpt lat="50.677425" lon="6.488961">
        <ele>290.524101</ele>
        <time>2026-08-23T21:30:35.916000Z</time>
      </trkpt>
      <trkpt lat="50.676696" lon="6.487556">
        <ele>282.926416</ele>
        <time>2026-08-23T21:32:47.562000Z</time>
      </trkpt>
      <trkpt lat="50.676295" lon="6.486464">
        <ele>276.552437</ele>
        <time>2026-08-23T21:34:21.355000Z</time>
      </trkpt>
      <trkpt lat="50.676267" lon="6.486209">
        <ele>275.245413</ele>
        <time>2026-08-23T21:34:45.266000Z</time>
      </trkpt>
      <trkpt lat="50.676262" lon="6.485654">
        <ele>270.69013</ele>
        <time>2026-08-23T21:35:37.504000Z</time>
      </trkpt>
      <trkpt lat="50.676357" lon="6.485675">
        <ele>269.406775</ele>
        <time>2026-08-23T21:35:49.064000Z</time>
      </trkpt>
      <trkpt lat="50.676389" lon="6.485462">
        <ele>267.550932</ele>
        <time>2026-08-23T21:36:06.024000Z</time>
      </trkpt>
      <trkpt lat="50.676484" lon="6.485592">
        <ele>265.868678</ele>
        <time>2026-08-23T21:36:21.489000Z</time>
      </trkpt>
      <trkpt lat="50.676533" lon="6.485541">
        <ele>265.083389</ele>
        <time>2026-08-23T21:36:28.851000Z</time>
      </trkpt>
      <trkpt lat="50.676523" lon="6.485382">
        <ele>263.728787</ele>
        <time>2026-08-23T21:36:41.646000Z</time>
      </trkpt>
      <trkpt lat="50.676603" lon="6.485501">
        <ele>262.257976</ele>
        <time>2026-08-23T21:36:55.824000Z</time>
      </trkpt>
      <trkpt lat="50.676705" lon="6.485514">
        <ele>260.888937</ele>
        <time>2026-08-23T21:37:08.858000Z</time>
      </trkpt>
      <trkpt lat="50.676782" lon="6.485457">
        <ele>259.75109</ele>
        <time>2026-08-23T21:37:19.736000Z</time>
      </trkpt>
      <trkpt lat="50.676813" lon="6.485392">
        <ele>259.061405</ele>
        <time>2026-08-23T21:37:26.393000Z</time>
      </trkpt>
      <trkpt lat="50.676768" lon="6.485221">
        <ele>257.491666</ele>
        <time>2026-08-23T21:37:41.653000Z</time>
      </trkpt>
      <trkpt lat="50.676446" lon="6.484656">
        <ele>251.049509</ele>
        <time>2026-08-23T21:38:44.871000Z</time>
      </trkpt>
      <trkpt lat="50.676253" lon="6.484468">
        <ele>247.963177</ele>
        <time>2026-08-23T21:39:16.416000Z</time>
      </trkpt>
      <trkpt lat="50.676024" lon="6.484486">
        <ele>244.841584</ele>
        <time>2026-08-23T21:39:47.838000Z</time>
      </trkpt>
      <trkpt lat="50.675974" lon="6.484443">
        <ele>244.06633</ele>
        <time>2026-08-23T21:39:57.775000Z</time>
      </trkpt>
      <trkpt lat="50.675631" lon="6.484515">
        <ele>239.355411</ele>
        <time>2026-08-23T21:40:54.731000Z</time>
      </trkpt>
      <trkpt lat="50.6758" lon="6.48418">
        <ele>235.661152</ele>
        <time>2026-08-23T21:41:38.036000Z</time>
      </trkpt>
      <trkpt lat="50.675792" lon="6.484111">
        <ele>235.055963</ele>
        <time>2026-08-23T21:41:44.943000Z</time>
      </trkpt>
      <trkpt lat="50.675568" lon="6.484149">
        <ele>231.988736</ele>
        <time>2026-08-23T21:42:19.121000Z</time>
      </trkpt>
      <trkpt lat="50.675483" lon="6.484127">
        <ele>230.816039</ele>
        <time>2026-08-23T21:42:31.984000Z</time>
      </trkpt>
      <trkpt lat="50.675601" lon="6.483784">
        <ele>227.448798</ele>
        <time>2026-08-23T21:43:08.086000Z</time>
      </trkpt>
      <trkpt lat="50.675731" lon="6.48353">
        <ele>225.54544</ele>
        <time>2026-08-23T21:43:38.031000Z</time>
      </trkpt>
      <trkpt lat="50.675926" lon="6.483398">
        <ele>224.089927</ele>
        <time>2026-08-23T21:44:08.672000Z</time>
      </trkpt>
      <trkpt lat="50.67596" lon="6.483321">
        <ele>223.681966</ele>
        <time>2026-08-23T21:44:17.361000Z</time>
      </trkpt>
      <trkpt lat="50.675917" lon="6.483238">
        <ele>223.215937</ele>
        <time>2026-08-23T21:44:27.174000Z</time>
      </trkpt>
      <trkpt lat="50.675722" lon="6.483138">
        <ele>221.809442</ele>
        <time>2026-08-23T21:44:56.794000Z</time>
      </trkpt>
      <trkpt lat="50.675556" lon="6.483">
        <ele>220.522385</ele>
        <time>2026-08-23T21:45:24.009000Z</time>
      </trkpt>
      <trkpt lat="50.675463" lon="6.482883">
        <ele>219.706507</ele>
        <time>2026-08-23T21:45:41.079000Z</time>
      </trkpt>
      <trkpt lat="50.675012" lon="6.483203">
        <ele>216.314446</ele>
        <time>2026-08-23T21:46:37.107000Z</time>
      </trkpt>
      <trkpt lat="50.67489" lon="6.483245">
        <ele>215.457882</ele>
        <time>2026-08-23T21:46:50.804000Z</time>
      </trkpt>
      <trkpt lat="50.674792" lon="6.483424">
        <ele>214.42958</ele>
        <time>2026-08-23T21:47:07.127000Z</time>
      </trkpt>
      <trkpt lat="50.674629" lon="6.483612">
        <ele>214.135251</ele>
        <time>2026-08-23T21:47:29.158000Z</time>
      </trkpt>
      <trkpt lat="50.67447" lon="6.483798">
        <ele>214.135491</ele>
        <time>2026-08-23T21:47:50.676000Z</time>
      </trkpt>
      <trkpt lat="50.674309" lon="6.483913">
        <ele>214.135704</ele>
        <time>2026-08-23T21:48:09.629000Z</time>
      </trkpt>
      <trkpt lat="50.674264" lon="6.483932">
        <ele>214.135761</ele>
        <time>2026-08-23T21:48:14.484000Z</time>
      </trkpt>
      <trkpt lat="50.674219" lon="6.483888">
        <ele>214.135825</ele>
        <time>2026-08-23T21:48:20.040000Z</time>
      </trkpt>
      <trkpt lat="50.674175" lon="6.484074">
        <ele>214.135977</ele>
        <time>2026-08-23T21:48:32.942000Z</time>
      </trkpt>
      <trkpt lat="50.674101" lon="6.484204">
        <ele>214.136111</ele>
        <time>2026-08-23T21:48:44.198000Z</time>
      </trkpt>
      <trkpt lat="50.674034" lon="6.484244">
        <ele>214.136198</ele>
        <time>2026-08-23T21:48:51.418000Z</time>
      </trkpt>
      <trkpt lat="50.673923" lon="6.484217">
        <ele>214.136334</ele>
        <time>2026-08-23T21:49:03.017000Z</time>
      </trkpt>
      <trkpt lat="50.673489" lon="6.483887">
        <ele>214.136917</ele>
        <time>2026-08-23T21:49:55.872000Z</time>
      </trkpt>
      <trkpt lat="50.673423" lon="6.483861">
        <ele>214.136999</ele>
        <time>2026-08-23T21:50:03.583000Z</time>
      </trkpt>
      <trkpt lat="50.673346" lon="6.483883">
        <ele>214.137094</ele>
        <time>2026-08-23T21:50:12.674000Z</time>
      </trkpt>
      <trkpt lat="50.673922" lon="6.484624">
        <ele>218.120418</ele>
        <time>2026-08-23T21:51:39.933000Z</time>
      </trkpt>
      <trkpt lat="50.674073" lon="6.484876">
        <ele>219.518427</ele>
        <time>2026-08-23T21:52:06.921000Z</time>
      </trkpt>
      <trkpt lat="50.674151" lon="6.485103">
        <ele>220.559326</ele>
        <time>2026-08-23T21:52:27.477000Z</time>
      </trkpt>
      <trkpt lat="50.674284" lon="6.485635">
        <ele>222.864673</ele>
        <time>2026-08-23T21:53:12.966000Z</time>
      </trkpt>
      <trkpt lat="50.674363" lon="6.486144">
        <ele>224.977103</ele>
        <time>2026-08-23T21:53:54.892000Z</time>
      </trkpt>
      <trkpt lat="50.674454" lon="6.487082">
        <ele>229.576395</ele>
        <time>2026-08-23T21:55:10.473000Z</time>
      </trkpt>
      <trkpt lat="50.674653" lon="6.487557">
        <ele>232.422823</ele>
        <time>2026-08-23T21:55:56.826000Z</time>
      </trkpt>
      <trkpt lat="50.675002" lon="6.488091">
        <ele>236.257447</ele>
        <time>2026-08-23T21:56:58.222000Z</time>
      </trkpt>
      <trkpt lat="50.675015" lon="6.488304">
        <ele>237.327125</ele>
        <time>2026-08-23T21:57:15.351000Z</time>
      </trkpt>
      <trkpt lat="50.674961" lon="6.488435">
        <ele>238.108319</ele>
        <time>2026-08-23T21:57:27.833000Z</time>
      </trkpt>
      <trkpt lat="50.674899" lon="6.488483">
        <ele>238.653071</ele>
        <time>2026-08-23T21:57:36.724000Z</time>
      </trkpt>
      <trkpt lat="50.675266" lon="6.48938">
        <ele>243.694577</ele>
        <time>2026-08-23T21:59:03.526000Z</time>
      </trkpt>
      <trkpt lat="50.67566" lon="6.490199">
        <ele>248.474748</ele>
        <time>2026-08-23T22:00:26.120000Z</time>
      </trkpt>
      <trkpt lat="50.675662" lon="6.490206">
        <ele>248.510444</ele>
        <time>2026-08-23T22:00:26.753000Z</time>
      </trkpt>
      <trkpt lat="50.675988" lon="6.491142">
        <ele>253.453813</ele>
        <time>2026-08-23T22:01:49.006000Z</time>
      </trkpt>
      <trkpt lat="50.676306" lon="6.491488">
        <ele>256.167632</ele>
        <time>2026-08-23T22:02:35.427000Z</time>
      </trkpt>
      <trkpt lat="50.676454" lon="6.49176">
        <ele>257.763811</ele>
        <time>2026-08-23T22:03:02.354000Z</time>
      </trkpt>
      <trkpt lat="50.676654" lon="6.492357">
        <ele>260.770372</ele>
        <time>2026-08-23T22:03:54.416000Z</time>
      </trkpt>
      <trkpt lat="50.677018" lon="6.492798">
        <ele>263.994553</ele>
        <time>2026-08-23T22:04:52.246000Z</time>
      </trkpt>
      <trkpt lat="50.677042" lon="6.492939">
        <ele>264.644566</ele>
        <time>2026-08-23T22:05:04.272000Z</time>
      </trkpt>
      <trkpt lat="50.677217" lon="6.494038">
        <ele>270.786492</ele>
        <time>2026-08-23T22:06:39.377000Z</time>
      </trkpt>
      <trkpt lat="50.677248" lon="6.494725">
        <ele>274.674789</ele>
        <time>2026-08-23T22:07:36.864000Z</time>
      </trkpt>
      <trkpt lat="50.677177" lon="6.495426">
        <ele>278.682536</ele>
        <time>2026-08-23T22:08:35.234000Z</time>
      </trkpt>
      <trkpt lat="50.67731" lon="6.496293">
        <ele>283.77835</ele>
        <time>2026-08-23T22:09:47.761000Z</time>
      </trkpt>
      <trkpt lat="50.677314" lon="6.496548">
        <ele>285.25944</ele>
        <time>2026-08-23T22:10:08.435000Z</time>
      </trkpt>
      <trkpt lat="50.677239" lon="6.497022">
        <ele>288.096183</ele>
        <time>2026-08-23T22:10:48.107000Z</time>
      </trkpt>
      <trkpt lat="50.677125" lon="6.498409">
        <ele>296.217164</ele>
        <time>2026-08-23T22:12:44.556000Z</time>
      </trkpt>
      <trkpt lat="50.677213" lon="6.499276">
        <ele>301.822167</ele>
        <time>2026-08-23T22:13:59.790000Z</time>
      </trkpt>
      <trkpt lat="50.677289" lon="6.500552">
        <ele>310.437232</ele>
        <time>2026-08-23T22:15:50.952000Z</time>
      </trkpt>
      <trkpt lat="50.677285" lon="6.50091">
        <ele>312.844077</ele>
        <time>2026-08-23T22:16:22.114000Z</time>
      </trkpt>
      <trkpt lat="50.677203" lon="6.501619">
        <ele>317.535399</ele>
        <time>2026-08-23T22:17:24.253000Z</time>
      </trkpt>
      <trkpt lat="50.67705" lon="6.5026">
        <ele>322.272408</ele>
        <time>2026-08-23T22:18:48.669000Z</time>
      </trkpt>
      <trkpt lat="50.677123" lon="6.503033">
        <ele>324.373296</ele>
        <time>2026-08-23T22:19:24.953000Z</time>
      </trkpt>
      <trkpt lat="50.677987" lon="6.50657">
        <ele>336.897999</ele>
        <time>2026-08-23T22:24:06.825000Z</time>
      </trkpt>
      <trkpt lat="50.67755" lon="6.50676">
        <ele>337.639376</ele>
        <time>2026-08-23T22:24:54.224000Z</time>
      </trkpt>
      <trkpt lat="50.675933" lon="6.507463">
        <ele>336.094775</ele>
        <time>2026-08-23T22:27:46.576000Z</time>
      </trkpt>
      <trkpt lat="50.675773" lon="6.507545">
        <ele>335.463557</ele>
        <time>2026-08-23T22:28:04.435000Z</time>
      </trkpt>
      <trkpt lat="50.675253" lon="6.507951">
        <ele>333.286652</ele>
        <time>2026-08-23T22:29:06.589000Z</time>
      </trkpt>
      <trkpt lat="50.674531" lon="6.508445">
        <ele>330.33387</ele>
        <time>2026-08-23T22:30:32.185000Z</time>
      </trkpt>
      <trkpt lat="50.674438" lon="6.508508">
        <ele>329.95412</ele>
        <time>2026-08-23T22:30:43.435000Z</time>
      </trkpt>
      <trkpt lat="50.673771" lon="6.508666">
        <ele>325.873826</ele>
        <time>2026-08-23T22:31:59.021000Z</time>
      </trkpt>
      <trkpt lat="50.673739" lon="6.506675">
        <ele>317.977336</ele>
        <time>2026-08-23T22:34:22.242000Z</time>
      </trkpt>
      <trkpt lat="50.673305" lon="6.506557">
        <ele>315.167909</ele>
        <time>2026-08-23T22:35:12.256000Z</time>
      </trkpt>
      <trkpt lat="50.672822" lon="6.505319">
        <ele>309.290448</ele>
        <time>2026-08-23T22:36:55.812000Z</time>
      </trkpt>
      <trkpt lat="50.672788" lon="6.505088">
        <ele>308.331686</ele>
        <time>2026-08-23T22:37:12.773000Z</time>
      </trkpt>
      <trkpt lat="50.672769" lon="6.504425">
        <ele>305.605063</ele>
        <time>2026-08-23T22:38:00.405000Z</time>
      </trkpt>
      <trkpt lat="50.672535" lon="6.503147">
        <ele>300.059279</ele>
        <time>2026-08-23T22:39:36.221000Z</time>
      </trkpt>
      <trkpt lat="50.672481" lon="6.501809">
        <ele>294.506867</ele>
        <time>2026-08-23T22:41:12.496000Z</time>
      </trkpt>
      <trkpt lat="50.672516" lon="6.49985">
        <ele>286.743901</ele>
        <time>2026-08-23T22:43:32.201000Z</time>
      </trkpt>
      <trkpt lat="50.672595" lon="6.499019">
        <ele>283.551922</ele>
        <time>2026-08-23T22:44:32.427000Z</time>
      </trkpt>
      <trkpt lat="50.672309" lon="6.497639">
        <ele>279.220365</ele>
        <time>2026-08-23T22:46:15.142000Z</time>
      </trkpt>
      <trkpt lat="50.672365" lon="6.497584">
        <ele>278.909854</ele>
        <time>2026-08-23T22:46:22.483000Z</time>
      </trkpt>
      <trkpt lat="50.672402" lon="6.497477">
        <ele>278.54621</ele>
        <time>2026-08-23T22:46:31.087000Z</time>
      </trkpt>
      <trkpt lat="50.672411" lon="6.49733">
        <ele>278.105616</ele>
        <time>2026-08-23T22:46:41.294000Z</time>
      </trkpt>
      <trkpt lat="50.672343" lon="6.496984">
        <ele>277.024883</ele>
        <time>2026-08-23T22:47:06.431000Z</time>
      </trkpt>
      <trkpt lat="50.672143" lon="6.496632">
        <ele>275.614496</ele>
        <time>2026-08-23T22:47:38.500000Z</time>
      </trkpt>
      <trkpt lat="50.671812" lon="6.496185">
        <ele>276.377364</ele>
        <time>2026-08-23T22:48:23.044000Z</time>
      </trkpt>
      <trkpt lat="50.671536" lon="6.495588">
        <ele>277.373612</ele>
        <time>2026-08-23T22:49:11.877000Z</time>
      </trkpt>
      <trkpt lat="50.671507" lon="6.495296">
        <ele>277.772084</ele>
        <time>2026-08-23T22:49:32.629000Z</time>
      </trkpt>
      <trkpt lat="50.671573" lon="6.494947">
        <ele>278.263098</ele>
        <time>2026-08-23T22:49:59.050000Z</time>
      </trkpt>
      <trkpt lat="50.671775" lon="6.49424">
        <ele>279.30864</ele>
        <time>2026-08-23T22:50:57.935000Z</time>
      </trkpt>
      <trkpt lat="50.671806" lon="6.493898">
        <ele>279.971566</ele>
        <time>2026-08-23T22:51:24.629000Z</time>
      </trkpt>
      <trkpt lat="50.671806" lon="6.493631">
        <ele>280.490421</ele>
        <time>2026-08-23T22:51:45.214000Z</time>
      </trkpt>
      <trkpt lat="50.671651" lon="6.492731">
        <ele>282.302798</ele>
        <time>2026-08-23T22:52:53.220000Z</time>
      </trkpt>
      <trkpt lat="50.671504" lon="6.492036">
        <ele>283.72661</ele>
        <time>2026-08-23T22:53:41.178000Z</time>
      </trkpt>
      <trkpt lat="50.671424" lon="6.491783">
        <ele>284.27606</ele>
        <time>2026-08-23T22:53:59.233000Z</time>
      </trkpt>
      <trkpt lat="50.671241" lon="6.491431">
        <ele>285.192152</ele>
        <time>2026-08-23T22:54:28.115000Z</time>
      </trkpt>
      <trkpt lat="50.67101" lon="6.491231">
        <ele>286.079745</ele>
        <time>2026-08-23T22:54:55.541000Z</time>
      </trkpt>
      <trkpt lat="50.670875" lon="6.490999">
        <ele>286.75215</ele>
        <time>2026-08-23T22:55:17.278000Z</time>
      </trkpt>
      <trkpt lat="50.670795" lon="6.490658">
        <ele>287.528436</ele>
        <time>2026-08-23T22:55:43.066000Z</time>
      </trkpt>
      <trkpt lat="50.670803" lon="6.490526">
        <ele>287.811531</ele>
        <time>2026-08-23T22:55:52.658000Z</time>
      </trkpt>
      <trkpt lat="50.670855" lon="6.490384">
        <ele>288.161658</ele>
        <time>2026-08-23T22:56:04.462000Z</time>
      </trkpt>
      <trkpt lat="50.671325" lon="6.489699">
        <ele>290.316951</ele>
        <time>2026-08-23T22:57:20.513000Z</time>
      </trkpt>
      <trkpt lat="50.671501" lon="6.489455">
        <ele>290.643548</ele>
        <time>2026-08-23T22:57:48.714000Z</time>
      </trkpt>
      <trkpt lat="50.671562" lon="6.489113">
        <ele>289.685538</ele>
        <time>2026-08-23T22:58:15.118000Z</time>
      </trkpt>
      <trkpt lat="50.671676" lon="6.488751">
        <ele>288.595561</ele>
        <time>2026-08-23T22:58:43.387000Z</time>
      </trkpt>
      <trkpt lat="50.671729" lon="6.48848">
        <ele>287.830824</ele>
        <time>2026-08-23T22:59:01.369000Z</time>
      </trkpt>
      <trkpt lat="50.671744" lon="6.488175">
        <ele>287.005938</ele>
        <time>2026-08-23T22:59:21.968000Z</time>
      </trkpt>
      <trkpt lat="50.671725" lon="6.487796">
        <ele>285.980796</ele>
        <time>2026-08-23T22:59:48.941000Z</time>
      </trkpt>
      <trkpt lat="50.671748" lon="6.487094">
        <ele>284.085369</ele>
        <time>2026-08-23T23:00:42.488000Z</time>
      </trkpt>
      <trkpt lat="50.671716" lon="6.486839">
        <ele>283.384428</ele>
        <time>2026-08-23T23:01:03.117000Z</time>
      </trkpt>
      <trkpt lat="50.671402" lon="6.485778">
        <ele>273.277161</ele>
        <time>2026-08-23T23:02:40.402000Z</time>
      </trkpt>
      <trkpt lat="50.671206" lon="6.485576">
        <ele>269.990659</ele>
        <time>2026-08-23T23:03:12.996000Z</time>
      </trkpt>
      <trkpt lat="50.670891" lon="6.485079">
        <ele>263.736959</ele>
        <time>2026-08-23T23:04:13.651000Z</time>
      </trkpt>
      <trkpt lat="50.670835" lon="6.484797">
        <ele>261.107648</ele>
        <time>2026-08-23T23:04:36.801000Z</time>
      </trkpt>
      <trkpt lat="50.670869" lon="6.484778">
        <ele>260.601285</ele>
        <time>2026-08-23T23:04:41.139000Z</time>
      </trkpt>
      <trkpt lat="50.67091" lon="6.484615">
        <ele>259.040987</ele>
        <time>2026-08-23T23:04:54.155000Z</time>
      </trkpt>
      <trkpt lat="50.670904" lon="6.484468">
        <ele>257.832161</ele>
        <time>2026-08-23T23:05:04.880000Z</time>
      </trkpt>
      <trkpt lat="50.670826" lon="6.484187">
        <ele>256.137669</ele>
        <time>2026-08-23T23:05:26.742000Z</time>
      </trkpt>
      <trkpt lat="50.67075" lon="6.484026">
        <ele>255.028788</ele>
        <time>2026-08-23T23:05:40.933000Z</time>
      </trkpt>
      <trkpt lat="50.670689" lon="6.48399">
        <ele>254.461171</ele>
        <time>2026-08-23T23:05:48.398000Z</time>
      </trkpt>
      <trkpt lat="50.67069" lon="6.483951">
        <ele>254.245571</ele>
        <time>2026-08-23T23:05:51.233000Z</time>
      </trkpt>
      <trkpt lat="50.670689" lon="6.48399">
        <ele>254.029971</ele>
        <time>2026-08-23T23:05:53.918000Z</time>
      </trkpt>
      <trkpt lat="50.67075" lon="6.484026">
        <ele>253.462354</ele>
        <time>2026-08-23T23:06:01.169000Z</time>
      </trkpt>
      <trkpt lat="50.670826" lon="6.484187">
        <ele>252.353473</ele>
        <time>2026-08-23T23:06:15.406000Z</time>
      </trkpt>
      <trkpt lat="50.670904" lon="6.484468">
        <ele>250.658981</ele>
        <time>2026-08-23T23:06:37.358000Z</time>
      </trkpt>
      <trkpt lat="50.67091" lon="6.484615">
        <ele>249.845322</ele>
        <time>2026-08-23T23:06:47.860000Z</time>
      </trkpt>
      <trkpt lat="50.670869" lon="6.484778">
        <ele>248.876648</ele>
        <time>2026-08-23T23:07:00.853000Z</time>
      </trkpt>
      <trkpt lat="50.671043" lon="6.484646">
        <ele>247.193977</ele>
        <time>2026-08-23T23:07:23.070000Z</time>
      </trkpt>
      <trkpt lat="50.671112" lon="6.484639">
        <ele>246.591366</ele>
        <time>2026-08-23T23:07:31.070000Z</time>
      </trkpt>
      <trkpt lat="50.671029" lon="6.483968">
        <ele>242.815074</ele>
        <time>2026-08-23T23:08:21.321000Z</time>
      </trkpt>
      <trkpt lat="50.671044" lon="6.483612">
        <ele>239.82959</ele>
        <time>2026-08-23T23:08:49.509000Z</time>
      </trkpt>
      <trkpt lat="50.67101" lon="6.483453">
        <ele>238.2665</ele>
        <time>2026-08-23T23:09:03.202000Z</time>
      </trkpt>
      <trkpt lat="50.670907" lon="6.483239">
        <ele>235.763447</ele>
        <time>2026-08-23T23:09:25.686000Z</time>
      </trkpt>
      <trkpt lat="50.670745" lon="6.483012">
        <ele>232.57909</ele>
        <time>2026-08-23T23:09:55.454000Z</time>
      </trkpt>
      <trkpt lat="50.67071" lon="6.4827">
        <ele>229.627666</ele>
        <time>2026-08-23T23:10:23.257000Z</time>
      </trkpt>
      <trkpt lat="50.670558" lon="6.482468">
        <ele>226.51945</ele>
        <time>2026-08-23T23:10:51.529000Z</time>
      </trkpt>
      <trkpt lat="50.670423" lon="6.481892">
        <ele>220.798915</ele>
        <time>2026-08-23T23:11:42.281000Z</time>
      </trkpt>
      <trkpt lat="50.6702" lon="6.480743">
        <ele>210.86646</ele>
        <time>2026-08-23T23:13:18.157000Z</time>
      </trkpt>
      <trkpt lat="50.670203" lon="6.480544">
        <ele>209.384475</ele>
        <time>2026-08-23T23:13:33.718000Z</time>
      </trkpt>
      <trkpt lat="50.670137" lon="6.480505">
        <ele>208.556586</ele>
        <time>2026-08-23T23:13:42.283000Z</time>
      </trkpt>
      <trkpt lat="50.670092" lon="6.480476">
        <ele>207.985578</ele>
        <time>2026-08-23T23:13:48.382000Z</time>
      </trkpt>
      <trkpt lat="50.66981" lon="6.480181">
        <ele>204.010981</ele>
        <time>2026-08-23T23:14:30.160000Z</time>
      </trkpt>
      <trkpt lat="50.669765" lon="6.479965">
        <ele>202.318182</ele>
        <time>2026-08-23T23:14:47.839000Z</time>
      </trkpt>
      <trkpt lat="50.669765" lon="6.479901">
        <ele>201.841695</ele>
        <time>2026-08-23T23:14:52.898000Z</time>
      </trkpt>
      <trkpt lat="50.669737" lon="6.479836">
        <ele>201.256565</ele>
        <time>2026-08-23T23:14:59.027000Z</time>
      </trkpt>
      <trkpt lat="50.66967" lon="6.479801">
        <ele>200.4275</ele>
        <time>2026-08-23T23:15:07.775000Z</time>
      </trkpt>
      <trkpt lat="50.6702" lon="6.479043">
        <ele>193.652913</ele>
        <time>2026-08-23T23:16:34.019000Z</time>
      </trkpt>
      <trkpt lat="50.670338" lon="6.478912">
        <ele>192.887833</ele>
        <time>2026-08-23T23:16:52.858000Z</time>
      </trkpt>
      <trkpt lat="50.670502" lon="6.478666">
        <ele>191.812861</ele>
        <time>2026-08-23T23:17:18.650000Z</time>
      </trkpt>
      <trkpt lat="50.67069" lon="6.478384">
        <ele>190.580579</ele>
        <time>2026-08-23T23:17:47.747000Z</time>
      </trkpt>
      <trkpt lat="50.670841" lon="6.478098">
        <ele>189.459847</ele>
        <time>2026-08-23T23:18:13.550000Z</time>
      </trkpt>
      <trkpt lat="50.671035" lon="6.478013">
        <ele>188.503364</ele>
        <time>2026-08-23T23:18:35.016000Z</time>
      </trkpt>
      <trkpt lat="50.671251" lon="6.478056">
        <ele>187.469107</ele>
        <time>2026-08-23T23:18:57.677000Z</time>
      </trkpt>
      <trkpt lat="50.671359" lon="6.478115">
        <ele>186.926165</ele>
        <time>2026-08-23T23:19:09.358000Z</time>
      </trkpt>
      <trkpt lat="50.67152" lon="6.478337">
        <ele>186.5044</ele>
        <time>2026-08-23T23:19:31.284000Z</time>
      </trkpt>
      <trkpt lat="50.671886" lon="6.478732">
        <ele>188.51949</ele>
        <time>2026-08-23T23:20:20.121000Z</time>
      </trkpt>
      <trkpt lat="50.671918" lon="6.478815">
        <ele>188.799292</ele>
        <time>2026-08-23T23:20:27.127000Z</time>
      </trkpt>
      <trkpt lat="50.672018" lon="6.479072">
        <ele>189.667838</ele>
        <time>2026-08-23T23:20:49.144000Z</time>
      </trkpt>
      <trkpt lat="50.672054" lon="6.479289">
        <ele>190.313866</ele>
        <time>2026-08-23T23:21:05.890000Z</time>
      </trkpt>
      <trkpt lat="50.672055" lon="6.4793">
        <ele>190.34587</ele>
        <time>2026-08-23T23:21:06.714000Z</time>
      </trkpt>
      <trkpt lat="50.672108" lon="6.480037">
        <ele>192.482084</ele>
        <time>2026-08-23T23:22:03.443000Z</time>
      </trkpt>
      <trkpt lat="50.672129" lon="6.480715">
        <ele>194.46063</ele>
        <time>2026-08-23T23:22:57.136000Z</time>
      </trkpt>
      <trkpt lat="50.67314" lon="6.482292">
        <ele>204.00393</ele>
        <time>2026-08-23T23:25:56Z</time>
      </trkpt>
      <trkpt lat="50.673164" lon="6.481842">
        <ele>205.92515</ele>
        <time>2026-08-23T23:26:29.651000Z</time>
      </trkpt>
      <trkpt lat="50.673279" lon="6.481971">
        <ele>206.739405</ele>
        <time>2026-08-23T23:26:45.764000Z</time>
      </trkpt>
      <trkpt lat="50.67336" lon="6.481876">
        <ele>207.197376</ele>
        <time>2026-08-23T23:26:57.261000Z</time>
      </trkpt>
      <trkpt lat="50.67293" lon="6.480512">
        <ele>211.578451</ele>
        <time>2026-08-23T23:28:47.417000Z</time>
      </trkpt>
      <trkpt lat="50.672906" lon="6.480344">
        <ele>212.073707</ele>
        <time>2026-08-23T23:28:59.770000Z</time>
      </trkpt>
      <trkpt lat="50.672944" lon="6.480185">
        <ele>212.562391</ele>
        <time>2026-08-23T23:29:11.961000Z</time>
      </trkpt>
      <trkpt lat="50.673222" lon="6.479889">
        <ele>214.084224</ele>
        <time>2026-08-23T23:29:50.916000Z</time>
      </trkpt>
      <trkpt lat="50.673279" lon="6.479888">
        <ele>214.342892</ele>
        <time>2026-08-23T23:29:57.483000Z</time>
      </trkpt>
      <trkpt lat="50.673345" lon="6.479817">
        <ele>214.760777</ele>
        <time>2026-08-23T23:30:06.737000Z</time>
      </trkpt>
      <trkpt lat="50.673687" lon="6.479808">
        <ele>217.368835</ele>
        <time>2026-08-23T23:30:47.312000Z</time>
      </trkpt>
      <trkpt lat="50.674156" lon="6.479323">
        <ele>221.644401</ele>
        <time>2026-08-23T23:31:56.723000Z</time>
      </trkpt>
      <trkpt lat="50.674233" lon="6.479094">
        <ele>222.897058</ele>
        <time>2026-08-23T23:32:17.676000Z</time>
      </trkpt>
      <trkpt lat="50.674478" lon="6.478924">
        <ele>224.937775</ele>
        <time>2026-08-23T23:32:52.495000Z</time>
      </trkpt>
      <trkpt lat="50.67462" lon="6.478548">
        <ele>227.052779</ele>
        <time>2026-08-23T23:33:28.878000Z</time>
      </trkpt>
      <trkpt lat="50.674666" lon="6.478546">
        <ele>227.403654</ele>
        <time>2026-08-23T23:33:34.981000Z</time>
      </trkpt>
      <trkpt lat="50.674718" lon="6.478642">
        <ele>228.013889</ele>
        <time>2026-08-23T23:33:45.502000Z</time>
      </trkpt>
      <trkpt lat="50.674679" lon="6.478913">
        <ele>230.099978</ele>
        <time>2026-08-23T23:34:08.868000Z</time>
      </trkpt>
      <trkpt lat="50.674443" lon="6.479271">
        <ele>234.417766</ele>
        <time>2026-08-23T23:34:53.218000Z</time>
      </trkpt>
      <trkpt lat="50.674391" lon="6.479563">
        <ele>236.953001</ele>
        <time>2026-08-23T23:35:21.049000Z</time>
      </trkpt>
      <trkpt lat="50.674045" lon="6.480117">
        <ele>243.454486</ele>
        <time>2026-08-23T23:36:38.192000Z</time>
      </trkpt>
      <trkpt lat="50.673867" lon="6.480455">
        <ele>247.127871</ele>
        <time>2026-08-23T23:37:25.100000Z</time>
      </trkpt>
      <trkpt lat="50.673877" lon="6.480541">
        <ele>247.858716</ele>
        <time>2026-08-23T23:37:34.497000Z</time>
      </trkpt>
      <trkpt lat="50.673944" lon="6.480649">
        <ele>249.121987</ele>
        <time>2026-08-23T23:37:50.823000Z</time>
      </trkpt>
      <trkpt lat="50.674171" lon="6.480848">
        <ele>252.617805</ele>
        <time>2026-08-23T23:38:34.264000Z</time>
      </trkpt>
      <trkpt lat="50.674345" lon="6.480847">
        <ele>255.247328</ele>
        <time>2026-08-23T23:39:03.251000Z</time>
      </trkpt>
      <trkpt lat="50.674763" lon="6.480306">
        <ele>263.417188</ele>
        <time>2026-08-23T23:40:34.424000Z</time>
      </trkpt>
      <trkpt lat="50.675231" lon="6.480125">
        <ele>270.698977</ele>
        <time>2026-08-23T23:41:55.254000Z</time>
      </trkpt>
      <trkpt lat="50.675568" lon="6.480177">
        <ele>275.816046</ele>
        <time>2026-08-23T23:42:52.105000Z</time>
      </trkpt>
      <trkpt lat="50.675889" lon="6.480074">
        <ele>280.32611</ele>
        <time>2026-08-23T23:43:44.606000Z</time>
      </trkpt>
      <trkpt lat="50.676167" lon="6.480117">
        <ele>283.327697</ele>
        <time>2026-08-23T23:44:26.778000Z</time>
      </trkpt>
      <trkpt lat="50.676462" lon="6.479896">
        <ele>286.836723</ele>
        <time>2026-08-23T23:45:14.189000Z</time>
      </trkpt>
      <trkpt lat="50.676684" lon="6.479835">
        <ele>289.258135</ele>
        <time>2026-08-23T23:45:45.982000Z</time>
      </trkpt>
      <trkpt lat="50.676804" lon="6.479701">
        <ele>290.837793</ele>
        <time>2026-08-23T23:46:06.278000Z</time>
      </trkpt>
      <trkpt lat="50.676704" lon="6.479212">
        <ele>294.336689</ele>
        <time>2026-08-23T23:46:49.470000Z</time>
      </trkpt>
      <trkpt lat="50.676778" lon="6.47871">
        <ele>297.846286</ele>
        <time>2026-08-23T23:47:31.807000Z</time>
      </trkpt>
      <trkpt lat="50.676905" lon="6.478314">
        <ele>298.779121</ele>
        <time>2026-08-23T23:48:06.388000Z</time>
      </trkpt>
      <trkpt lat="50.676925" lon="6.47808">
        <ele>298.925212</ele>
        <time>2026-08-23T23:48:23.826000Z</time>
      </trkpt>
      <trkpt lat="50.676885" lon="6.477892">
        <ele>299.047913</ele>
        <time>2026-08-23T23:48:37.984000Z</time>
      </trkpt>
      <trkpt lat="50.676958" lon="6.477845">
        <ele>299.124892</ele>
        <time>2026-08-23T23:48:46.862000Z</time>
      </trkpt>
      <trkpt lat="50.677342" lon="6.477542">
        <ele>299.544077</ele>
        <time>2026-08-23T23:49:31.296000Z</time>
      </trkpt>
      <trkpt lat="50.677461" lon="6.477576">
        <ele>299.662154</ele>
        <time>2026-08-23T23:49:43.788000Z</time>
      </trkpt>
      <trkpt lat="50.677581" lon="6.477448">
        <ele>299.803574</ele>
        <time>2026-08-23T23:49:59.027000Z</time>
      </trkpt>
      <trkpt lat="50.677701" lon="6.476984">
        <ele>300.113644</ele>
        <time>2026-08-23T23:50:33.034000Z</time>
      </trkpt>
      <trkpt lat="50.677701" lon="6.476443">
        <ele>300.148542</ele>
        <time>2026-08-23T23:51:09.716000Z</time>
      </trkpt>
      <trkpt lat="50.677581" lon="6.475894">
        <ele>299.624218</ele>
        <time>2026-08-23T23:51:49.408000Z</time>
      </trkpt>
      <trkpt lat="50.677592" lon="6.47574">
        <ele>299.484298</ele>
        <time>2026-08-23T23:51:59.966000Z</time>
      </trkpt>
      <trkpt lat="50.677575" lon="6.475634">
        <ele>299.385578</ele>
        <time>2026-08-23T23:52:07.320000Z</time>
      </trkpt>
      <trkpt lat="50.677612" lon="6.475236">
        <ele>299.022396</ele>
        <time>2026-08-23T23:52:34.217000Z</time>
      </trkpt>
      <trkpt lat="50.677659" lon="6.475131">
        <ele>298.906331</ele>
        <time>2026-08-23T23:52:42.667000Z</time>
      </trkpt>
      <trkpt lat="50.677756" lon="6.475034">
        <ele>298.742717</ele>
        <time>2026-08-23T23:52:54.497000Z</time>
      </trkpt>
      <trkpt lat="50.677918" lon="6.474981">
        <ele>298.506996</ele>
        <time>2026-08-23T23:53:11.345000Z</time>
      </trkpt>
      <trkpt lat="50.677995" lon="6.474908">
        <ele>298.379014</ele>
        <time>2026-08-23T23:53:20.326000Z</time>
      </trkpt>
      <trkpt lat="50.678177" lon="6.474564">
        <ele>297.974416</ele>
        <time>2026-08-23T23:53:49.442000Z</time>
      </trkpt>
      <trkpt lat="50.678259" lon="6.474485">
        <ele>297.837534</ele>
        <time>2026-08-23T23:53:59.605000Z</time>
      </trkpt>
      <trkpt lat="50.678366" lon="6.474476">
        <ele>297.914509</ele>
        <time>2026-08-23T23:54:11.166000Z</time>
      </trkpt>
      <trkpt lat="50.678448" lon="6.474425">
        <ele>298.15429</ele>
        <time>2026-08-23T23:54:20.702000Z</time>
      </trkpt>
      <trkpt lat="50.678534" lon="6.47426">
        <ele>298.522593</ele>
        <time>2026-08-23T23:54:35.527000Z</time>
      </trkpt>
      <trkpt lat="50.678604" lon="6.474224">
        <ele>298.722885</ele>
        <time>2026-08-23T23:54:43.453000Z</time>
      </trkpt>
      <trkpt lat="50.678711" lon="6.474256">
        <ele>299.01916</ele>
        <time>2026-08-23T23:54:55.407000Z</time>
      </trkpt>
      <trkpt lat="50.678819" lon="6.47462">
        <ele>299.712038</ele>
        <time>2026-08-23T23:55:22.924000Z</time>
      </trkpt>
      <trkpt lat="50.678914" lon="6.474672">
        <ele>299.98559</ele>
        <time>2026-08-23T23:55:33.750000Z</time>
      </trkpt>
      <trkpt lat="50.679016" lon="6.474668">
        <ele>300.263167</ele>
        <time>2026-08-23T23:55:44.818000Z</time>
      </trkpt>
      <trkpt lat="50.679207" lon="6.474477">
        <ele>300.87832</ele>
        <time>2026-08-23T23:56:09.502000Z</time>
      </trkpt>
      <trkpt lat="50.679305" lon="6.474436">
        <ele>301.154139</ele>
        <time>2026-08-23T23:56:20.677000Z</time>
      </trkpt>
      <trkpt lat="50.679415" lon="6.474429">
        <ele>301.453638</ele>
        <time>2026-08-23T23:56:32.841000Z</time>
      </trkpt>
      <trkpt lat="50.679713" lon="6.474607">
        <ele>302.320474</ele>
        <time>2026-08-23T23:57:08.239000Z</time>
      </trkpt>
      <trkpt lat="50.679857" lon="6.474917">
        <ele>302.364219</ele>
        <time>2026-08-23T23:57:36.661000Z</time>
      </trkpt>
      <trkpt lat="50.679977" lon="6.475044">
        <ele>302.011268</ele>
        <time>2026-08-23T23:57:54.394000Z</time>
      </trkpt>
      <trkpt lat="50.680041" lon="6.47523">
        <ele>301.68365</ele>
        <time>2026-08-23T23:58:11.044000Z</time>
      </trkpt>
      <trkpt lat="50.680076" lon="6.475521">
        <ele>301.225171</ele>
        <time>2026-08-23T23:58:32.675000Z</time>
      </trkpt>
      <trkpt lat="50.680024" lon="6.475885">
        <ele>300.647597</ele>
        <time>2026-08-23T23:58:56.825000Z</time>
      </trkpt>
      <trkpt lat="50.680028" lon="6.476111">
        <ele>300.297637</ele>
        <time>2026-08-23T23:59:11.768000Z</time>
      </trkpt>
      <trkpt lat="50.680032" lon="6.476426">
        <ele>299.809952</ele>
        <time>2026-08-23T23:59:33.344000Z</time>
      </trkpt>
      <trkpt lat="50.679979" lon="6.476701">
        <ele>299.365028</ele>
        <time>2026-08-23T23:59:53.695000Z</time>
      </trkpt>
      <trkpt lat="50.679987" lon="6.47685">
        <ele>299.133565</ele>
        <time>2026-08-24T00:00:07.259000Z</time>
      </trkpt>
      <trkpt lat="50.680031" lon="6.476929">
        <ele>298.970758</ele>
        <time>2026-08-24T00:00:16.795000Z</time>
      </trkpt>
      <trkpt lat="50.680417" lon="6.476859">
        <ele>296.653617</ele>
        <time>2026-08-24T00:01:14.845000Z</time>
      </trkpt>
      <trkpt lat="50.680824" lon="6.476686">
        <ele>289.794376</ele>
        <time>2026-08-24T00:02:21.974000Z</time>
      </trkpt>
      <trkpt lat="50.68116" lon="6.477076">
        <ele>283.006973</ele>
        <time>2026-08-24T00:03:36.700000Z</time>
      </trkpt>
      <trkpt lat="50.68116" lon="6.477076">
        <ele>283.006973</ele>
        <time>2026-08-24T00:03:36.700000Z</time>
      </trkpt>
      <trkpt lat="50.681226" lon="6.477148">
        <ele>281.701321</ele>
        <time>2026-08-24T00:03:51.315000Z</time>
      </trkpt>
      <trkpt lat="50.681186" lon="6.476312">
        <ele>273.056534</ele>
        <time>2026-08-24T00:05:02.844000Z</time>
      </trkpt>
      <trkpt lat="50.681066" lon="6.475974">
        <ele>269.061515</ele>
        <time>2026-08-24T00:05:35.251000Z</time>
      </trkpt>
      <trkpt lat="50.681047" lon="6.47579">
        <ele>266.496525</ele>
        <time>2026-08-24T00:05:51.502000Z</time>
      </trkpt>
      <trkpt lat="50.681121" lon="6.47474">
        <ele>251.82722</ele>
        <time>2026-08-24T00:07:32.518000Z</time>
      </trkpt>
      <trkpt lat="50.681176" lon="6.474493">
        <ele>248.191985</ele>
        <time>2026-08-24T00:07:59.580000Z</time>
      </trkpt>
      <trkpt lat="50.681308" lon="6.47416">
        <ele>242.738002</ele>
        <time>2026-08-24T00:08:42.034000Z</time>
      </trkpt>
      <trkpt lat="50.681611" lon="6.472993">
        <ele>227.325602</ele>
        <time>2026-08-24T00:10:53.535000Z</time>
      </trkpt>
      <trkpt lat="50.681716" lon="6.472713">
        <ele>224.986657</ele>
        <time>2026-08-24T00:11:23.435000Z</time>
      </trkpt>
      <trkpt lat="50.681836" lon="6.472616">
        <ele>223.457028</ele>
        <time>2026-08-24T00:11:41.600000Z</time>
      </trkpt>
      <trkpt lat="50.681922" lon="6.472674">
        <ele>222.395974</ele>
        <time>2026-08-24T00:11:53.718000Z</time>
      </trkpt>
      <trkpt lat="50.682308" lon="6.472731">
        <ele>217.997538</ele>
        <time>2026-08-24T00:12:41.679000Z</time>
      </trkpt>
      <trkpt lat="50.682626" lon="6.473109">
        <ele>213.48089</ele>
        <time>2026-08-24T00:13:26.851000Z</time>
      </trkpt>
      <trkpt lat="50.6831" lon="6.473596">
        <ele>209.416046</ele>
        <time>2026-08-24T00:14:24.224000Z</time>
      </trkpt>
      <trkpt lat="50.684125" lon="6.47449">
        <ele>210.94882</ele>
        <time>2026-08-24T00:16:26.932000Z</time>
      </trkpt>
      <trkpt lat="50.684526" lon="6.474944">
        <ele>211.794776</ele>
        <time>2026-08-24T00:17:20.714000Z</time>
      </trkpt>
      <trkpt lat="50.684924" lon="6.475054">
        <ele>213.883278</ele>
        <time>2026-08-24T00:18:07.560000Z</time>
      </trkpt>
      <trkpt lat="50.685286" lon="6.47539">
        <ele>216.053966</ele>
        <time>2026-08-24T00:18:59.068000Z</time>
      </trkpt>
      <trkpt lat="50.685818" lon="6.476316">
        <ele>220.14758</ele>
        <time>2026-08-24T00:20:39.463000Z</time>
      </trkpt>
      <trkpt lat="50.686009" lon="6.476707">
        <ele>219.593915</ele>
        <time>2026-08-24T00:21:14.401000Z</time>
      </trkpt>
      <trkpt lat="50.686173" lon="6.476963">
        <ele>218.035072</ele>
        <time>2026-08-24T00:21:37.604000Z</time>
      </trkpt>
      <trkpt lat="50.686413" lon="6.477227">
        <ele>216.058046</ele>
        <time>2026-08-24T00:22:08.990000Z</time>
      </trkpt>
      <trkpt lat="50.686456" lon="6.477253">
        <ele>215.746846</ele>
        <time>2026-08-24T00:22:14.231000Z</time>
      </trkpt>
      <trkpt lat="50.686528" lon="6.477208">
        <ele>215.223491</ele>
        <time>2026-08-24T00:22:23.012000Z</time>
      </trkpt>
      <trkpt lat="50.686559" lon="6.47708">
        <ele>214.636743</ele>
        <time>2026-08-24T00:22:32.920000Z</time>
      </trkpt>
      <trkpt lat="50.686546" lon="6.476651">
        <ele>212.797758</ele>
        <time>2026-08-24T00:23:05.313000Z</time>
      </trkpt>
      <trkpt lat="50.686583" lon="6.476324">
        <ele>211.37546</ele>
        <time>2026-08-24T00:23:31.411000Z</time>
      </trkpt>
      <trkpt lat="50.686705" lon="6.475978">
        <ele>209.679984</ele>
        <time>2026-08-24T00:24:03.474000Z</time>
      </trkpt>
      <trkpt lat="50.686796" lon="6.475627">
        <ele>207.580498</ele>
        <time>2026-08-24T00:24:35.123000Z</time>
      </trkpt>
      <trkpt lat="50.686954" lon="6.475231">
        <ele>204.019362</ele>
        <time>2026-08-24T00:25:14.631000Z</time>
      </trkpt>
      <trkpt lat="50.686997" lon="6.474739">
        <ele>200.240027</ele>
        <time>2026-08-24T00:25:55.139000Z</time>
      </trkpt>
      <trkpt lat="50.687115" lon="6.474277">
        <ele>196.44951</ele>
        <time>2026-08-24T00:26:34.785000Z</time>
      </trkpt>
      <trkpt lat="50.687228" lon="6.473994">
        <ele>193.904019</ele>
        <time>2026-08-24T00:27:00.860000Z</time>
      </trkpt>
      <trkpt lat="50.68739" lon="6.473738">
        <ele>191.150709</ele>
        <time>2026-08-24T00:27:28.434000Z</time>
      </trkpt>
      <trkpt lat="50.687697" lon="6.473365">
        <ele>186.976611</ele>
        <time>2026-08-24T00:28:13.594000Z</time>
      </trkpt>
      <trkpt lat="50.687854" lon="6.473087">
        <ele>186.535314</ele>
        <time>2026-08-24T00:28:40.035000Z</time>
      </trkpt>
      <trkpt lat="50.687955" lon="6.472844">
        <ele>186.190936</ele>
        <time>2026-08-24T00:29:00.207000Z</time>
      </trkpt>
      <trkpt lat="50.688177" lon="6.472759">
        <ele>185.763676</ele>
        <time>2026-08-24T00:29:24.457000Z</time>
      </trkpt>
      <trkpt lat="50.688411" lon="6.472601">
        <ele>185.287651</ele>
        <time>2026-08-24T00:29:50.630000Z</time>
      </trkpt>
      <trkpt lat="50.688941" lon="6.472067">
        <ele>184.111629</ele>
        <time>2026-08-24T00:30:55.449000Z</time>
      </trkpt>
      <trkpt lat="50.689417" lon="6.471661">
        <ele>183.828165</ele>
        <time>2026-08-24T00:31:53.981000Z</time>
      </trkpt>
      <trkpt lat="50.689742" lon="6.471276">
        <ele>183.989067</ele>
        <time>2026-08-24T00:32:38.994000Z</time>
      </trkpt>
      <trkpt lat="50.690051" lon="6.470785">
        <ele>184.162682</ele>
        <time>2026-08-24T00:33:23.765000Z</time>
      </trkpt>
      <trkpt lat="50.690234" lon="6.47075">
        <ele>184.235675</ele>
        <time>2026-08-24T00:33:42.787000Z</time>
      </trkpt>
      <trkpt lat="50.690492" lon="6.470872">
        <ele>184.342322</ele>
        <time>2026-08-24T00:34:10.981000Z</time>
      </trkpt>
      <trkpt lat="50.690549" lon="6.47085">
        <ele>184.365558</ele>
        <time>2026-08-24T00:34:17.142000Z</time>
      </trkpt>
      <trkpt lat="50.690613" lon="6.470766">
        <ele>184.398516</ele>
        <time>2026-08-24T00:34:25.871000Z</time>
      </trkpt>
      <trkpt lat="50.690473" lon="6.470494">
        <ele>184.353721</ele>
        <time>2026-08-24T00:34:49.107000Z</time>
      </trkpt>
      <trkpt lat="50.690406" lon="6.470368">
        <ele>184.320304</ele>
        <time>2026-08-24T00:34:59.964000Z</time>
      </trkpt>
      <trkpt lat="50.69007" lon="6.469727">
        <ele>184.151301</ele>
        <time>2026-08-24T00:35:54.489000Z</time>
      </trkpt>
      <trkpt lat="50.689959" lon="6.469532">
        <ele>184.098048</ele>
        <time>2026-08-24T00:36:11.819000Z</time>
      </trkpt>
      <trkpt lat="50.689806" lon="6.469229">
        <ele>184.019338</ele>
        <time>2026-08-24T00:36:37.049000Z</time>
      </trkpt>
      <trkpt lat="50.689727" lon="6.469089">
        <ele>183.981253</ele>
        <time>2026-08-24T00:36:48.956000Z</time>
      </trkpt>
      <trkpt lat="50.689741" lon="6.46898">
        <ele>183.95866</ele>
        <time>2026-08-24T00:36:56.118000Z</time>
      </trkpt>
      <trkpt lat="50.689725" lon="6.468931">
        <ele>183.947462</ele>
        <time>2026-08-24T00:36:59.686000Z</time>
      </trkpt>
      <trkpt lat="50.689667" lon="6.468883">
        <ele>183.926463</ele>
        <time>2026-08-24T00:37:06.558000Z</time>
      </trkpt>
      <trkpt lat="50.68966" lon="6.468728">
        <ele>183.894897</ele>
        <time>2026-08-24T00:37:16.986000Z</time>
      </trkpt>
      <trkpt lat="50.68986" lon="6.467378">
        <ele>186.14356</ele>
        <time>2026-08-24T00:38:57.204000Z</time>
      </trkpt>
      <trkpt lat="50.689797" lon="6.467358">
        <ele>186.356648</ele>
        <time>2026-08-24T00:39:04.574000Z</time>
      </trkpt>
      <trkpt lat="50.689754" lon="6.467221">
        <ele>186.677831</ele>
        <time>2026-08-24T00:39:15.604000Z</time>
      </trkpt>
      <trkpt lat="50.689837" lon="6.466506">
        <ele>188.204851</ele>
        <time>2026-08-24T00:40:07.940000Z</time>
      </trkpt>
      <trkpt lat="50.689802" lon="6.466433">
        <ele>188.39717</ele>
        <time>2026-08-24T00:40:14.612000Z</time>
      </trkpt>
      <trkpt lat="50.689809" lon="6.466059">
        <ele>189.183181</ele>
        <time>2026-08-24T00:40:40.949000Z</time>
      </trkpt>
      <trkpt lat="50.68984" lon="6.465988">
        <ele>189.364323</ele>
        <time>2026-08-24T00:40:47.048000Z</time>
      </trkpt>
      <trkpt lat="50.689899" lon="6.465518">
        <ele>189.800579</ele>
        <time>2026-08-24T00:41:20.177000Z</time>
      </trkpt>
      <trkpt lat="50.68986" lon="6.465503">
        <ele>189.800579</ele>
        <time>2026-08-24T00:41:24.667000Z</time>
      </trkpt>
      <trkpt lat="50.68991" lon="6.465195">
        <ele>189.800579</ele>
        <time>2026-08-24T00:41:45.947000Z</time>
      </trkpt>
      <trkpt lat="50.689838" lon="6.465166">
        <ele>189.800579</ele>
        <time>2026-08-24T00:41:53.993000Z</time>
      </trkpt>
      <trkpt lat="50.689799" lon="6.465395">
        <ele>189.800579</ele>
        <time>2026-08-24T00:42:09.532000Z</time>
      </trkpt>
      <trkpt lat="50.689777" lon="6.465386">
        <ele>189.800579</ele>
        <time>2026-08-24T00:42:11.946000Z</time>
      </trkpt>
      <trkpt lat="50.689711" lon="6.465782">
        <ele>189.800579</ele>
        <time>2026-08-24T00:42:38.301000Z</time>
      </trkpt>
    </trkseg>
  </trk>
</gpx>