<?xml version="1.0" encoding="UTF-8"?>
<gpx xmlns="http://www.topografix.com/GPX/1/1" xmlns:xsi="http://www.w3.org/2001/XMLSchema-instance" xsi:schemaLocation="http://www.topografix.com/GPX/1/1 http://www.topografix.com/GPX/1/1/gpx.xsd" version="1.1" creator="https://www.komoot.de">
  <metadata>
    <name>Afterwork Gerresheim</name>
    <author>
      <link href="https://www.komoot.de">
        <text>komoot</text>
        <type>text/html</type>
      </link>
    </author>
  </metadata>
  <wpt lat="51.236519" lon="6.8598">
    <name>Gerresheim Rathaus</name>
    <sym>Flag, Blue</sym>
  </wpt>
  <wpt lat="51.247093" lon="6.869268">
    <name>Fields Near Schäpershof</name>
    <sym>Flag, Blue</sym>
  </wpt>
  <wpt lat="51.238872" lon="6.885537">
    <name>Forest path in the Rotthäuser Bachtal valley</name>
    <sym>Flag, Blue</sym>
  </wpt>
  <wpt lat="51.230507" lon="6.882711">
    <name>Rotthäuser Bach</name>
    <sym>Flag, Blue</sym>
  </wpt>
  <trk>
    <name>Afterwork Gerresheim</name>
    <trkseg>
      <trkpt lat="51.23652" lon="6.859834">
        <ele>60.785699</ele>
        <time>2026-04-15T09:01:17.483000Z</time>
      </trkpt>
      <trkpt lat="51.2368" lon="6.859818">
        <ele>60.785699</ele>
        <time>2026-04-15T09:01:45.885000Z</time>
      </trkpt>
      <trkpt lat="51.2368" lon="6.85984">
        <ele>60.785699</ele>
        <time>2026-04-15T09:01:47.302000Z</time>
      </trkpt>
      <trkpt lat="51.236862" lon="6.859862">
        <ele>60.785699</ele>
        <time>2026-04-15T09:01:53.686000Z</time>
      </trkpt>
      <trkpt lat="51.236862" lon="6.859902">
        <ele>60.785699</ele>
        <time>2026-04-15T09:01:56.190000Z</time>
      </trkpt>
      <trkpt lat="51.236875" lon="6.8599">
        <ele>60.785699</ele>
        <time>2026-04-15T09:01:57.470000Z</time>
      </trkpt>
      <trkpt lat="51.236881" lon="6.85998">
        <ele>60.785699</ele>
        <time>2026-04-15T09:02:02.585000Z</time>
      </trkpt>
      <trkpt lat="51.236896" lon="6.86017">
        <ele>60.785699</ele>
        <time>2026-04-15T09:02:14.754000Z</time>
      </trkpt>
      <trkpt lat="51.236897" lon="6.860217">
        <ele>60.785699</ele>
        <time>2026-04-15T09:02:17.766000Z</time>
      </trkpt>
      <trkpt lat="51.236944" lon="6.860216">
        <ele>60.785699</ele>
        <time>2026-04-15T09:02:22.661000Z</time>
      </trkpt>
      <trkpt lat="51.236958" lon="6.860415">
        <ele>60.785699</ele>
        <time>2026-04-15T09:02:35.507000Z</time>
      </trkpt>
      <trkpt lat="51.236979" lon="6.860967">
        <ele>60.957231</ele>
        <time>2026-04-15T09:03:11.285000Z</time>
      </trkpt>
      <trkpt lat="51.236984" lon="6.861117">
        <ele>61.032382</ele>
        <time>2026-04-15T09:03:20.967000Z</time>
      </trkpt>
      <trkpt lat="51.23699" lon="6.861262">
        <ele>61.105083</ele>
        <time>2026-04-15T09:03:30.392000Z</time>
      </trkpt>
      <trkpt lat="51.236996" lon="6.861417">
        <ele>61.182777</ele>
        <time>2026-04-15T09:03:40.515000Z</time>
      </trkpt>
      <trkpt lat="51.236998" lon="6.861476">
        <ele>61.212338</ele>
        <time>2026-04-15T09:03:44.344000Z</time>
      </trkpt>
      <trkpt lat="51.237001" lon="6.861559">
        <ele>61.253931</ele>
        <time>2026-04-15T09:03:49.736000Z</time>
      </trkpt>
      <trkpt lat="51.237042" lon="6.861549">
        <ele>61.287073</ele>
        <time>2026-04-15T09:03:54.018000Z</time>
      </trkpt>
      <trkpt lat="51.237047" lon="6.861633">
        <ele>61.329287</ele>
        <time>2026-04-15T09:03:59.489000Z</time>
      </trkpt>
      <trkpt lat="51.237067" lon="6.862143">
        <ele>61.584937</ele>
        <time>2026-04-15T09:04:32.697000Z</time>
      </trkpt>
      <trkpt lat="51.237068" lon="6.862213">
        <ele>61.619967</ele>
        <time>2026-04-15T09:04:37.165000Z</time>
      </trkpt>
      <trkpt lat="51.23753" lon="6.862228">
        <ele>61.989211</ele>
        <time>2026-04-15T09:05:24.667000Z</time>
      </trkpt>
      <trkpt lat="51.237559" lon="6.862455">
        <ele>62.105117</ele>
        <time>2026-04-15T09:05:39.588000Z</time>
      </trkpt>
      <trkpt lat="51.237592" lon="6.862714">
        <ele>62.221347</ele>
        <time>2026-04-15T09:05:56.593000Z</time>
      </trkpt>
      <trkpt lat="51.237629" lon="6.863006">
        <ele>62.204954</ele>
        <time>2026-04-15T09:06:15.838000Z</time>
      </trkpt>
      <trkpt lat="51.23765" lon="6.86317">
        <ele>62.195743</ele>
        <time>2026-04-15T09:06:26.474000Z</time>
      </trkpt>
      <trkpt lat="51.237688" lon="6.86347">
        <ele>62.178902</ele>
        <time>2026-04-15T09:06:45.766000Z</time>
      </trkpt>
      <trkpt lat="51.237802" lon="6.863487">
        <ele>62.168839</ele>
        <time>2026-04-15T09:06:57.256000Z</time>
      </trkpt>
      <trkpt lat="51.238057" lon="6.863613">
        <ele>62.145381</ele>
        <time>2026-04-15T09:07:24.088000Z</time>
      </trkpt>
      <trkpt lat="51.238043" lon="6.863717">
        <ele>62.139527</ele>
        <time>2026-04-15T09:07:30.856000Z</time>
      </trkpt>
      <trkpt lat="51.238338" lon="6.863794">
        <ele>62.113257</ele>
        <time>2026-04-15T09:08:00.943000Z</time>
      </trkpt>
      <trkpt lat="51.238387" lon="6.863975">
        <ele>62.102407</ele>
        <time>2026-04-15T09:08:13.370000Z</time>
      </trkpt>
      <trkpt lat="51.238369" lon="6.864123">
        <ele>62.094111</ele>
        <time>2026-04-15T09:08:22.900000Z</time>
      </trkpt>
      <trkpt lat="51.238389" lon="6.864225">
        <ele>62.08823</ele>
        <time>2026-04-15T09:08:29.635000Z</time>
      </trkpt>
      <trkpt lat="51.238406" lon="6.864299">
        <ele>62.083893</ele>
        <time>2026-04-15T09:08:34.643000Z</time>
      </trkpt>
      <trkpt lat="51.238708" lon="6.864275">
        <ele>62.046467</ele>
        <time>2026-04-15T09:09:05.112000Z</time>
      </trkpt>
      <trkpt lat="51.239691" lon="6.864514">
        <ele>61.833304</ele>
        <time>2026-04-15T09:10:45.059000Z</time>
      </trkpt>
      <trkpt lat="51.23979" lon="6.864501">
        <ele>61.812008</ele>
        <time>2026-04-15T09:10:55.005000Z</time>
      </trkpt>
      <trkpt lat="51.239765" lon="6.864211">
        <ele>61.772719</ele>
        <time>2026-04-15T09:11:13.496000Z</time>
      </trkpt>
      <trkpt lat="51.240838" lon="6.864697">
        <ele>61.943389</ele>
        <time>2026-04-15T09:13:05.395000Z</time>
      </trkpt>
      <trkpt lat="51.241385" lon="6.864907">
        <ele>62.162103</ele>
        <time>2026-04-15T09:14:01.930000Z</time>
      </trkpt>
      <trkpt lat="51.241746" lon="6.864902">
        <ele>62.302455</ele>
        <time>2026-04-15T09:14:39.579000Z</time>
      </trkpt>
      <trkpt lat="51.242112" lon="6.864779">
        <ele>62.634437</ele>
        <time>2026-04-15T09:15:19.028000Z</time>
      </trkpt>
      <trkpt lat="51.242235" lon="6.864702">
        <ele>62.824007</ele>
        <time>2026-04-15T09:15:32.827000Z</time>
      </trkpt>
      <trkpt lat="51.242567" lon="6.864382">
        <ele>63.380421</ele>
        <time>2026-04-15T09:16:13.356000Z</time>
      </trkpt>
      <trkpt lat="51.242615" lon="6.864443">
        <ele>63.468438</ele>
        <time>2026-04-15T09:16:19.770000Z</time>
      </trkpt>
      <trkpt lat="51.242725" lon="6.864499">
        <ele>63.634106</ele>
        <time>2026-04-15T09:16:31.723000Z</time>
      </trkpt>
      <trkpt lat="51.243368" lon="6.864732">
        <ele>64.580225</ele>
        <time>2026-04-15T09:17:41.009000Z</time>
      </trkpt>
      <trkpt lat="51.243879" lon="6.864864">
        <ele>65.811497</ele>
        <time>2026-04-15T09:18:35.967000Z</time>
      </trkpt>
      <trkpt lat="51.244542" lon="6.865017">
        <ele>68.064473</ele>
        <time>2026-04-15T09:19:48.231000Z</time>
      </trkpt>
      <trkpt lat="51.244884" lon="6.865124">
        <ele>69.236554</ele>
        <time>2026-04-15T09:20:27.835000Z</time>
      </trkpt>
      <trkpt lat="51.24494" lon="6.865155">
        <ele>69.435883</ele>
        <time>2026-04-15T09:20:34.868000Z</time>
      </trkpt>
      <trkpt lat="51.244992" lon="6.865186">
        <ele>69.622553</ele>
        <time>2026-04-15T09:20:41.334000Z</time>
      </trkpt>
      <trkpt lat="51.245036" lon="6.865215">
        <ele>69.782637</ele>
        <time>2026-04-15T09:20:47.073000Z</time>
      </trkpt>
      <trkpt lat="51.245097" lon="6.865007">
        <ele>70.266226</ele>
        <time>2026-04-15T09:21:04.329000Z</time>
      </trkpt>
      <trkpt lat="51.245652" lon="6.86594">
        <ele>73.298161</ele>
        <time>2026-04-15T09:22:40.073000Z</time>
      </trkpt>
      <trkpt lat="51.245771" lon="6.866186">
        <ele>74.059901</ele>
        <time>2026-04-15T09:23:02.101000Z</time>
      </trkpt>
      <trkpt lat="51.245783" lon="6.866292">
        <ele>74.323831</ele>
        <time>2026-04-15T09:23:09.816000Z</time>
      </trkpt>
      <trkpt lat="51.245765" lon="6.866371">
        <ele>74.529818</ele>
        <time>2026-04-15T09:23:15.855000Z</time>
      </trkpt>
      <trkpt lat="51.245886" lon="6.866428">
        <ele>75.023588</ele>
        <time>2026-04-15T09:23:30.288000Z</time>
      </trkpt>
      <trkpt lat="51.24629" lon="6.866963">
        <ele>77.077558</ele>
        <time>2026-04-15T09:24:28.227000Z</time>
      </trkpt>
      <trkpt lat="51.246357" lon="6.867028">
        <ele>77.384374</ele>
        <time>2026-04-15T09:24:36.801000Z</time>
      </trkpt>
      <trkpt lat="51.246429" lon="6.867042">
        <ele>77.668271</ele>
        <time>2026-04-15T09:24:44.530000Z</time>
      </trkpt>
      <trkpt lat="51.246425" lon="6.867116">
        <ele>77.850255</ele>
        <time>2026-04-15T09:24:49.695000Z</time>
      </trkpt>
      <trkpt lat="51.246788" lon="6.867565">
        <ele>80.845476</ele>
        <time>2026-04-15T09:25:39.050000Z</time>
      </trkpt>
      <trkpt lat="51.246973" lon="6.867844">
        <ele>82.587847</ele>
        <time>2026-04-15T09:26:07.358000Z</time>
      </trkpt>
      <trkpt lat="51.247109" lon="6.868142">
        <ele>84.168854</ele>
        <time>2026-04-15T09:26:34.796000Z</time>
      </trkpt>
      <trkpt lat="51.247191" lon="6.868537">
        <ele>85.952901</ele>
        <time>2026-04-15T09:27:15.589000Z</time>
      </trkpt>
      <trkpt lat="51.247204" lon="6.868876">
        <ele>87.408906</ele>
        <time>2026-04-15T09:27:50.610000Z</time>
      </trkpt>
      <trkpt lat="51.247075" lon="6.869133">
        <ele>88.82113</ele>
        <time>2026-04-15T09:28:26.026000Z</time>
      </trkpt>
      <trkpt lat="51.247095" lon="6.869267">
        <ele>89.411689</ele>
        <time>2026-04-15T09:28:41.705000Z</time>
      </trkpt>
      <trkpt lat="51.247106" lon="6.869342">
        <ele>89.74192</ele>
        <time>2026-04-15T09:28:50.288000Z</time>
      </trkpt>
      <trkpt lat="51.24729" lon="6.869704">
        <ele>92.453238</ele>
        <time>2026-04-15T09:29:44.210000Z</time>
      </trkpt>
      <trkpt lat="51.247308" lon="6.869933">
        <ele>93.955579</ele>
        <time>2026-04-15T09:30:11.425000Z</time>
      </trkpt>
      <trkpt lat="51.247338" lon="6.870031">
        <ele>94.66569</ele>
        <time>2026-04-15T09:30:24.044000Z</time>
      </trkpt>
      <trkpt lat="51.24745" lon="6.870174">
        <ele>96.15664</ele>
        <time>2026-04-15T09:30:50.850000Z</time>
      </trkpt>
      <trkpt lat="51.247616" lon="6.870575">
        <ele>99.286038</ele>
        <time>2026-04-15T09:31:46.230000Z</time>
      </trkpt>
      <trkpt lat="51.247672" lon="6.87065">
        <ele>100.045943</ele>
        <time>2026-04-15T09:31:59.687000Z</time>
      </trkpt>
      <trkpt lat="51.247778" lon="6.870707">
        <ele>101.208999</ele>
        <time>2026-04-15T09:32:19.390000Z</time>
      </trkpt>
      <trkpt lat="51.248011" lon="6.871117">
        <ele>104.813598</ele>
        <time>2026-04-15T09:33:18.638000Z</time>
      </trkpt>
      <trkpt lat="51.248765" lon="6.872148">
        <ele>111.179884</ele>
        <time>2026-04-15T09:35:50.021000Z</time>
      </trkpt>
      <trkpt lat="51.249667" lon="6.873612">
        <ele>115.632802</ele>
        <time>2026-04-15T09:38:43.025000Z</time>
      </trkpt>
      <trkpt lat="51.249745" lon="6.873738">
        <ele>115.721741</ele>
        <time>2026-04-15T09:38:57.273000Z</time>
      </trkpt>
      <trkpt lat="51.249821" lon="6.873886">
        <ele>115.817817</ele>
        <time>2026-04-15T09:39:09.580000Z</time>
      </trkpt>
      <trkpt lat="51.250439" lon="6.874944">
        <ele>116.544091</ele>
        <time>2026-04-15T09:40:42.655000Z</time>
      </trkpt>
      <trkpt lat="51.250665" lon="6.875405">
        <ele>116.837968</ele>
        <time>2026-04-15T09:41:20.219000Z</time>
      </trkpt>
      <trkpt lat="51.25108" lon="6.876463">
        <ele>116.142756</ele>
        <time>2026-04-15T09:42:38.958000Z</time>
      </trkpt>
      <trkpt lat="51.251129" lon="6.87669">
        <ele>115.906056</ele>
        <time>2026-04-15T09:42:54.223000Z</time>
      </trkpt>
      <trkpt lat="51.251174" lon="6.877097">
        <ele>115.498643</ele>
        <time>2026-04-15T09:43:20.670000Z</time>
      </trkpt>
      <trkpt lat="51.251171" lon="6.877447">
        <ele>115.153597</ele>
        <time>2026-04-15T09:43:43.293000Z</time>
      </trkpt>
      <trkpt lat="51.251112" lon="6.878118">
        <ele>114.485662</ele>
        <time>2026-04-15T09:44:27.996000Z</time>
      </trkpt>
      <trkpt lat="51.251014" lon="6.878504">
        <ele>113.828388</ele>
        <time>2026-04-15T09:44:56.251000Z</time>
      </trkpt>
      <trkpt lat="51.250749" lon="6.879227">
        <ele>111.165365</ele>
        <time>2026-04-15T09:45:54.277000Z</time>
      </trkpt>
      <trkpt lat="51.250362" lon="6.880306">
        <ele>107.212663</ele>
        <time>2026-04-15T09:47:20.852000Z</time>
      </trkpt>
      <trkpt lat="51.250169" lon="6.881073">
        <ele>104.514171</ele>
        <time>2026-04-15T09:48:18.453000Z</time>
      </trkpt>
      <trkpt lat="51.249949" lon="6.882101">
        <ele>100.53629</ele>
        <time>2026-04-15T09:49:33.586000Z</time>
      </trkpt>
      <trkpt lat="51.249881" lon="6.882284">
        <ele>99.757068</ele>
        <time>2026-04-15T09:49:48.337000Z</time>
      </trkpt>
      <trkpt lat="51.249515" lon="6.883094">
        <ele>96.099245</ele>
        <time>2026-04-15T09:50:58.340000Z</time>
      </trkpt>
      <trkpt lat="51.248916" lon="6.883908">
        <ele>91.368855</ele>
        <time>2026-04-15T09:52:28.421000Z</time>
      </trkpt>
      <trkpt lat="51.24877" lon="6.884235">
        <ele>89.834936</ele>
        <time>2026-04-15T09:52:57.151000Z</time>
      </trkpt>
      <trkpt lat="51.2487" lon="6.884544">
        <ele>88.579987</ele>
        <time>2026-04-15T09:53:20.388000Z</time>
      </trkpt>
      <trkpt lat="51.248648" lon="6.885072">
        <ele>86.538791</ele>
        <time>2026-04-15T09:53:58.232000Z</time>
      </trkpt>
      <trkpt lat="51.248669" lon="6.885352">
        <ele>85.461845</ele>
        <time>2026-04-15T09:54:17.947000Z</time>
      </trkpt>
      <trkpt lat="51.248783" lon="6.886109">
        <ele>83.467176</ele>
        <time>2026-04-15T09:55:11.296000Z</time>
      </trkpt>
      <trkpt lat="51.248801" lon="6.886257">
        <ele>83.418691</ele>
        <time>2026-04-15T09:55:21.549000Z</time>
      </trkpt>
      <trkpt lat="51.248874" lon="6.886744">
        <ele>83.257649</ele>
        <time>2026-04-15T09:55:55.026000Z</time>
      </trkpt>
      <trkpt lat="51.248945" lon="6.887011">
        <ele>83.164358</ele>
        <time>2026-04-15T09:56:13.963000Z</time>
      </trkpt>
      <trkpt lat="51.249023" lon="6.887161">
        <ele>83.101645</ele>
        <time>2026-04-15T09:56:26.624000Z</time>
      </trkpt>
      <trkpt lat="51.249187" lon="6.88733">
        <ele>83.00138</ele>
        <time>2026-04-15T09:56:46.338000Z</time>
      </trkpt>
      <trkpt lat="51.249265" lon="6.887506">
        <ele>82.93203</ele>
        <time>2026-04-15T09:57:00.092000Z</time>
      </trkpt>
      <trkpt lat="51.249179" lon="6.887649">
        <ele>82.868256</ele>
        <time>2026-04-15T09:57:13.006000Z</time>
      </trkpt>
      <trkpt lat="51.249083" lon="6.887741">
        <ele>82.810741</ele>
        <time>2026-04-15T09:57:25.211000Z</time>
      </trkpt>
      <trkpt lat="51.248596" lon="6.887959">
        <ele>83.416391</ele>
        <time>2026-04-15T09:58:22.257000Z</time>
      </trkpt>
      <trkpt lat="51.248532" lon="6.88806">
        <ele>83.856896</ele>
        <time>2026-04-15T09:58:32.890000Z</time>
      </trkpt>
      <trkpt lat="51.248497" lon="6.888193">
        <ele>84.299108</ele>
        <time>2026-04-15T09:58:43.718000Z</time>
      </trkpt>
      <trkpt lat="51.248505" lon="6.888625">
        <ele>85.623787</ele>
        <time>2026-04-15T09:59:16.837000Z</time>
      </trkpt>
      <trkpt lat="51.248471" lon="6.888927">
        <ele>86.564284</ele>
        <time>2026-04-15T09:59:40.968000Z</time>
      </trkpt>
      <trkpt lat="51.248413" lon="6.889414">
        <ele>88.083742</ele>
        <time>2026-04-15T10:00:19.742000Z</time>
      </trkpt>
      <trkpt lat="51.248282" lon="6.88921">
        <ele>88.979532</ele>
        <time>2026-04-15T10:00:42.290000Z</time>
      </trkpt>
      <trkpt lat="51.248197" lon="6.8889">
        <ele>90.016865</ele>
        <time>2026-04-15T10:01:07.579000Z</time>
      </trkpt>
      <trkpt lat="51.248092" lon="6.888592">
        <ele>91.091837</ele>
        <time>2026-04-15T10:01:31.830000Z</time>
      </trkpt>
      <trkpt lat="51.247969" lon="6.888428">
        <ele>91.325895</ele>
        <time>2026-04-15T10:01:48.693000Z</time>
      </trkpt>
      <trkpt lat="51.247839" lon="6.887791">
        <ele>90.786116</ele>
        <time>2026-04-15T10:02:32.428000Z</time>
      </trkpt>
      <trkpt lat="51.247706" lon="6.887664">
        <ele>90.586689</ele>
        <time>2026-04-15T10:02:48.182000Z</time>
      </trkpt>
      <trkpt lat="51.247693" lon="6.88761">
        <ele>90.540078</ele>
        <time>2026-04-15T10:02:51.905000Z</time>
      </trkpt>
      <trkpt lat="51.247729" lon="6.887468">
        <ele>90.41665</ele>
        <time>2026-04-15T10:03:02.007000Z</time>
      </trkpt>
      <trkpt lat="51.247702" lon="6.887322">
        <ele>90.294</ele>
        <time>2026-04-15T10:03:12.156000Z</time>
      </trkpt>
      <trkpt lat="51.247593" lon="6.887149">
        <ele>90.096245</ele>
        <time>2026-04-15T10:03:28.852000Z</time>
      </trkpt>
      <trkpt lat="51.247325" lon="6.886886">
        <ele>89.691431</ele>
        <time>2026-04-15T10:04:03.460000Z</time>
      </trkpt>
      <trkpt lat="51.247203" lon="6.886602">
        <ele>89.413929</ele>
        <time>2026-04-15T10:04:26.944000Z</time>
      </trkpt>
      <trkpt lat="51.246942" lon="6.886314">
        <ele>89.071169</ele>
        <time>2026-04-15T10:05:00.165000Z</time>
      </trkpt>
      <trkpt lat="51.246847" lon="6.886154">
        <ele>88.990621</ele>
        <time>2026-04-15T10:05:14.225000Z</time>
      </trkpt>
      <trkpt lat="51.246801" lon="6.885993">
        <ele>88.92598</ele>
        <time>2026-04-15T10:05:25.373000Z</time>
      </trkpt>
      <trkpt lat="51.246697" lon="6.885873">
        <ele>88.851123</ele>
        <time>2026-04-15T10:05:38.399000Z</time>
      </trkpt>
      <trkpt lat="51.246567" lon="6.885878">
        <ele>88.775246</ele>
        <time>2026-04-15T10:05:51.516000Z</time>
      </trkpt>
      <trkpt lat="51.246431" lon="6.885973">
        <ele>88.688636</ele>
        <time>2026-04-15T10:06:06.478000Z</time>
      </trkpt>
      <trkpt lat="51.246308" lon="6.88592">
        <ele>88.614301</ele>
        <time>2026-04-15T10:06:19.240000Z</time>
      </trkpt>
      <trkpt lat="51.246043" lon="6.885669">
        <ele>88.43454</ele>
        <time>2026-04-15T10:06:50.598000Z</time>
      </trkpt>
      <trkpt lat="51.245911" lon="6.885447">
        <ele>88.322703</ele>
        <time>2026-04-15T10:07:10.481000Z</time>
      </trkpt>
      <trkpt lat="51.245673" lon="6.88528">
        <ele>88.171025</ele>
        <time>2026-04-15T10:07:37.493000Z</time>
      </trkpt>
      <trkpt lat="51.245465" lon="6.884995">
        <ele>87.739189</ele>
        <time>2026-04-15T10:08:05.018000Z</time>
      </trkpt>
      <trkpt lat="51.245367" lon="6.884813">
        <ele>87.283876</ele>
        <time>2026-04-15T10:08:20.432000Z</time>
      </trkpt>
      <trkpt lat="51.245162" lon="6.884551">
        <ele>86.488458</ele>
        <time>2026-04-15T10:08:48.391000Z</time>
      </trkpt>
      <trkpt lat="51.245086" lon="6.884472">
        <ele>86.213739</ele>
        <time>2026-04-15T10:08:58.302000Z</time>
      </trkpt>
      <trkpt lat="51.244796" lon="6.884308">
        <ele>85.281672</ele>
        <time>2026-04-15T10:09:31.763000Z</time>
      </trkpt>
      <trkpt lat="51.244618" lon="6.884046">
        <ele>84.548344</ele>
        <time>2026-04-15T10:09:58.319000Z</time>
      </trkpt>
      <trkpt lat="51.244333" lon="6.883734">
        <ele>83.50155</ele>
        <time>2026-04-15T10:10:35.984000Z</time>
      </trkpt>
      <trkpt lat="51.244229" lon="6.883684">
        <ele>83.172493</ele>
        <time>2026-04-15T10:10:47.721000Z</time>
      </trkpt>
      <trkpt lat="51.244118" lon="6.88367">
        <ele>82.835141</ele>
        <time>2026-04-15T10:10:59.802000Z</time>
      </trkpt>
      <trkpt lat="51.243872" lon="6.883742">
        <ele>82.611534</ele>
        <time>2026-04-15T10:11:26.543000Z</time>
      </trkpt>
      <trkpt lat="51.243726" lon="6.883831">
        <ele>82.598622</ele>
        <time>2026-04-15T10:11:43.041000Z</time>
      </trkpt>
      <trkpt lat="51.243246" lon="6.884363">
        <ele>82.550349</ele>
        <time>2026-04-15T10:12:43.116000Z</time>
      </trkpt>
      <trkpt lat="51.243051" lon="6.884433">
        <ele>82.533835</ele>
        <time>2026-04-15T10:13:03.516000Z</time>
      </trkpt>
      <trkpt lat="51.24257" lon="6.884335">
        <ele>82.493769</ele>
        <time>2026-04-15T10:13:54.890000Z</time>
      </trkpt>
      <trkpt lat="51.242363" lon="6.884216">
        <ele>82.582625</ele>
        <time>2026-04-15T10:14:20.835000Z</time>
      </trkpt>
      <trkpt lat="51.242242" lon="6.884067">
        <ele>83.157397</ele>
        <time>2026-04-15T10:14:39.236000Z</time>
      </trkpt>
      <trkpt lat="51.24203" lon="6.883869">
        <ele>84.081282</ele>
        <time>2026-04-15T10:15:08.127000Z</time>
      </trkpt>
      <trkpt lat="51.241947" lon="6.883896">
        <ele>84.399944</ele>
        <time>2026-04-15T10:15:17.530000Z</time>
      </trkpt>
      <trkpt lat="51.241868" lon="6.884017">
        <ele>84.8117</ele>
        <time>2026-04-15T10:15:29.569000Z</time>
      </trkpt>
      <trkpt lat="51.241756" lon="6.884275">
        <ele>85.551135</ele>
        <time>2026-04-15T10:15:50.951000Z</time>
      </trkpt>
      <trkpt lat="51.241699" lon="6.884471">
        <ele>86.06013</ele>
        <time>2026-04-15T10:16:05.725000Z</time>
      </trkpt>
      <trkpt lat="51.241617" lon="6.884681">
        <ele>86.643044</ele>
        <time>2026-04-15T10:16:22.639000Z</time>
      </trkpt>
      <trkpt lat="51.241506" lon="6.884701">
        <ele>87.063283</ele>
        <time>2026-04-15T10:16:34.880000Z</time>
      </trkpt>
      <trkpt lat="51.241469" lon="6.884659">
        <ele>87.234049</ele>
        <time>2026-04-15T10:16:39.927000Z</time>
      </trkpt>
      <trkpt lat="51.241453" lon="6.884582">
        <ele>87.425129</ele>
        <time>2026-04-15T10:16:45.695000Z</time>
      </trkpt>
      <trkpt lat="51.241435" lon="6.884309">
        <ele>88.071658</ele>
        <time>2026-04-15T10:17:05.326000Z</time>
      </trkpt>
      <trkpt lat="51.241394" lon="6.884136">
        <ele>88.507329</ele>
        <time>2026-04-15T10:17:18.970000Z</time>
      </trkpt>
      <trkpt lat="51.241311" lon="6.884008">
        <ele>88.941362</ele>
        <time>2026-04-15T10:17:32.789000Z</time>
      </trkpt>
      <trkpt lat="51.241121" lon="6.883903">
        <ele>90.037087</ele>
        <time>2026-04-15T10:17:56.829000Z</time>
      </trkpt>
      <trkpt lat="51.240888" lon="6.883659">
        <ele>91.870113</ele>
        <time>2026-04-15T10:18:29.109000Z</time>
      </trkpt>
      <trkpt lat="51.240699" lon="6.883657">
        <ele>93.113609</ele>
        <time>2026-04-15T10:18:51.216000Z</time>
      </trkpt>
      <trkpt lat="51.240624" lon="6.883692">
        <ele>93.627677</ele>
        <time>2026-04-15T10:19:00.259000Z</time>
      </trkpt>
      <trkpt lat="51.240569" lon="6.883724">
        <ele>94.01279</ele>
        <time>2026-04-15T10:19:06.961000Z</time>
      </trkpt>
      <trkpt lat="51.240497" lon="6.88377">
        <ele>94.522979</ele>
        <time>2026-04-15T10:19:16.188000Z</time>
      </trkpt>
      <trkpt lat="51.240251" lon="6.883937">
        <ele>96.28157</ele>
        <time>2026-04-15T10:19:49.788000Z</time>
      </trkpt>
      <trkpt lat="51.240156" lon="6.884188">
        <ele>97.489674</ele>
        <time>2026-04-15T10:20:13.991000Z</time>
      </trkpt>
      <trkpt lat="51.239866" lon="6.884486">
        <ele>99.75837</ele>
        <time>2026-04-15T10:20:59.789000Z</time>
      </trkpt>
      <trkpt lat="51.239816" lon="6.884529">
        <ele>100.13198</ele>
        <time>2026-04-15T10:21:07.198000Z</time>
      </trkpt>
      <trkpt lat="51.239772" lon="6.884577">
        <ele>100.482539</ele>
        <time>2026-04-15T10:21:14.180000Z</time>
      </trkpt>
      <trkpt lat="51.239632" lon="6.884761">
        <ele>100.884771</ele>
        <time>2026-04-15T10:21:37.519000Z</time>
      </trkpt>
      <trkpt lat="51.239577" lon="6.884962">
        <ele>100.592166</ele>
        <time>2026-04-15T10:21:54.517000Z</time>
      </trkpt>
      <trkpt lat="51.23957" lon="6.885092">
        <ele>100.418118</ele>
        <time>2026-04-15T10:22:04.423000Z</time>
      </trkpt>
      <trkpt lat="51.239628" lon="6.885657">
        <ele>99.654398</ele>
        <time>2026-04-15T10:22:44.650000Z</time>
      </trkpt>
      <trkpt lat="51.239446" lon="6.885733">
        <ele>99.253593</ele>
        <time>2026-04-15T10:23:03.743000Z</time>
      </trkpt>
      <trkpt lat="51.239287" lon="6.885938">
        <ele>98.818231</ele>
        <time>2026-04-15T10:23:25.792000Z</time>
      </trkpt>
      <trkpt lat="51.239212" lon="6.885895">
        <ele>98.648453</ele>
        <time>2026-04-15T10:23:34.723000Z</time>
      </trkpt>
      <trkpt lat="51.23886" lon="6.885571">
        <ele>97.782858</ele>
        <time>2026-04-15T10:24:34.036000Z</time>
      </trkpt>
      <trkpt lat="51.23881" lon="6.885526">
        <ele>97.660579</ele>
        <time>2026-04-15T10:24:42.712000Z</time>
      </trkpt>
      <trkpt lat="51.238738" lon="6.885386">
        <ele>97.418901</ele>
        <time>2026-04-15T10:24:59.977000Z</time>
      </trkpt>
      <trkpt lat="51.238478" lon="6.885139">
        <ele>94.689546</ele>
        <time>2026-04-15T10:25:46.615000Z</time>
      </trkpt>
      <trkpt lat="51.238386" lon="6.885015">
        <ele>93.299193</ele>
        <time>2026-04-15T10:26:05.134000Z</time>
      </trkpt>
      <trkpt lat="51.238043" lon="6.8849">
        <ele>89.251264</ele>
        <time>2026-04-15T10:26:59.418000Z</time>
      </trkpt>
      <trkpt lat="51.237969" lon="6.884905">
        <ele>88.395813</ele>
        <time>2026-04-15T10:27:10.730000Z</time>
      </trkpt>
      <trkpt lat="51.237916" lon="6.884858">
        <ele>87.695652</ele>
        <time>2026-04-15T10:27:20.115000Z</time>
      </trkpt>
      <trkpt lat="51.237731" lon="6.884915">
        <ele>85.519542</ele>
        <time>2026-04-15T10:27:49.495000Z</time>
      </trkpt>
      <trkpt lat="51.237673" lon="6.885065">
        <ele>84.244671</ele>
        <time>2026-04-15T10:28:06.698000Z</time>
      </trkpt>
      <trkpt lat="51.237606" lon="6.885131">
        <ele>83.335493</ele>
        <time>2026-04-15T10:28:19.097000Z</time>
      </trkpt>
      <trkpt lat="51.2375" lon="6.885166">
        <ele>82.085324</ele>
        <time>2026-04-15T10:28:35.917000Z</time>
      </trkpt>
      <trkpt lat="51.237463" lon="6.885242">
        <ele>81.389151</ele>
        <time>2026-04-15T10:28:45.241000Z</time>
      </trkpt>
      <trkpt lat="51.237403" lon="6.885453">
        <ele>79.713352</ele>
        <time>2026-04-15T10:29:07.766000Z</time>
      </trkpt>
      <trkpt lat="51.237363" lon="6.885749">
        <ele>77.5236</ele>
        <time>2026-04-15T10:29:36.937000Z</time>
      </trkpt>
      <trkpt lat="51.237289" lon="6.885973">
        <ele>75.971764</ele>
        <time>2026-04-15T10:30:01Z</time>
      </trkpt>
      <trkpt lat="51.236911" lon="6.88567">
        <ele>72.838618</ele>
        <time>2026-04-15T10:31:04.174000Z</time>
      </trkpt>
      <trkpt lat="51.236398" lon="6.885233">
        <ele>68.531508</ele>
        <time>2026-04-15T10:32:11.583000Z</time>
      </trkpt>
      <trkpt lat="51.23627" lon="6.885092">
        <ele>67.379608</ele>
        <time>2026-04-15T10:32:29.294000Z</time>
      </trkpt>
      <trkpt lat="51.236029" lon="6.884706">
        <ele>64.851171</ele>
        <time>2026-04-15T10:33:07.406000Z</time>
      </trkpt>
      <trkpt lat="51.235766" lon="6.884117">
        <ele>62.740108</ele>
        <time>2026-04-15T10:33:56.204000Z</time>
      </trkpt>
      <trkpt lat="51.235711" lon="6.884096">
        <ele>62.636817</ele>
        <time>2026-04-15T10:34:02.098000Z</time>
      </trkpt>
      <trkpt lat="51.23548" lon="6.884146">
        <ele>62.211025</ele>
        <time>2026-04-15T10:34:26.088000Z</time>
      </trkpt>
      <trkpt lat="51.235422" lon="6.884333">
        <ele>61.972362</ele>
        <time>2026-04-15T10:34:39.278000Z</time>
      </trkpt>
      <trkpt lat="51.235276" lon="6.885148">
        <ele>61.002889</ele>
        <time>2026-04-15T10:35:33.624000Z</time>
      </trkpt>
      <trkpt lat="51.23518" lon="6.885503">
        <ele>60.560644</ele>
        <time>2026-04-15T10:35:58.675000Z</time>
      </trkpt>
      <trkpt lat="51.235125" lon="6.885591">
        <ele>60.418443</ele>
        <time>2026-04-15T10:36:06.846000Z</time>
      </trkpt>
      <trkpt lat="51.235061" lon="6.885635">
        <ele>60.291173</ele>
        <time>2026-04-15T10:36:14.104000Z</time>
      </trkpt>
      <trkpt lat="51.233787" lon="6.885896">
        <ele>59.790687</ele>
        <time>2026-04-15T10:38:24.532000Z</time>
      </trkpt>
      <trkpt lat="51.233582" lon="6.885892">
        <ele>59.776748</ele>
        <time>2026-04-15T10:38:45.421000Z</time>
      </trkpt>
      <trkpt lat="51.233397" lon="6.885844">
        <ele>59.764005</ele>
        <time>2026-04-15T10:39:04.724000Z</time>
      </trkpt>
      <trkpt lat="51.23323" lon="6.885746">
        <ele>59.751908</ele>
        <time>2026-04-15T10:39:23.199000Z</time>
      </trkpt>
      <trkpt lat="51.233073" lon="6.885605">
        <ele>59.740817</ele>
        <time>2026-04-15T10:39:42.029000Z</time>
      </trkpt>
      <trkpt lat="51.232813" lon="6.885286">
        <ele>60.002326</ele>
        <time>2026-04-15T10:40:16.483000Z</time>
      </trkpt>
      <trkpt lat="51.232721" lon="6.885114">
        <ele>60.115302</ele>
        <time>2026-04-15T10:40:31.484000Z</time>
      </trkpt>
      <trkpt lat="51.232557" lon="6.884656">
        <ele>60.378801</ele>
        <time>2026-04-15T10:41:06.186000Z</time>
      </trkpt>
      <trkpt lat="51.232047" lon="6.883631">
        <ele>61.032658</ele>
        <time>2026-04-15T10:42:30.445000Z</time>
      </trkpt>
      <trkpt lat="51.23187" lon="6.883332">
        <ele>61.408379</ele>
        <time>2026-04-15T10:42:56.312000Z</time>
      </trkpt>
      <trkpt lat="51.231356" lon="6.882699">
        <ele>63.307375</ele>
        <time>2026-04-15T10:44:02.230000Z</time>
      </trkpt>
      <trkpt lat="51.231192" lon="6.882579">
        <ele>63.835151</ele>
        <time>2026-04-15T10:44:21.815000Z</time>
      </trkpt>
      <trkpt lat="51.231014" lon="6.882543">
        <ele>64.360081</ele>
        <time>2026-04-15T10:44:41.724000Z</time>
      </trkpt>
      <trkpt lat="51.230904" lon="6.882568">
        <ele>64.685148</ele>
        <time>2026-04-15T10:44:54.620000Z</time>
      </trkpt>
      <trkpt lat="51.23057" lon="6.882756">
        <ele>65.721245</ele>
        <time>2026-04-15T10:45:36.438000Z</time>
      </trkpt>
      <trkpt lat="51.230554" lon="6.882684">
        <ele>65.861211</ele>
        <time>2026-04-15T10:45:43.847000Z</time>
      </trkpt>
      <trkpt lat="51.230489" lon="6.882395">
        <ele>66.423783</ele>
        <time>2026-04-15T10:46:13.581000Z</time>
      </trkpt>
      <trkpt lat="51.230553" lon="6.882179">
        <ele>67.33095</ele>
        <time>2026-04-15T10:46:37.044000Z</time>
      </trkpt>
      <trkpt lat="51.230797" lon="6.882071">
        <ele>68.889953</ele>
        <time>2026-04-15T10:47:17.155000Z</time>
      </trkpt>
      <trkpt lat="51.230933" lon="6.881969">
        <ele>69.815086</ele>
        <time>2026-04-15T10:47:41.326000Z</time>
      </trkpt>
      <trkpt lat="51.231043" lon="6.881616">
        <ele>71.335309</ele>
        <time>2026-04-15T10:48:22.263000Z</time>
      </trkpt>
      <trkpt lat="51.231093" lon="6.881564">
        <ele>71.702697</ele>
        <time>2026-04-15T10:48:32.395000Z</time>
      </trkpt>
      <trkpt lat="51.231436" lon="6.881343">
        <ele>73.980038</ele>
        <time>2026-04-15T10:49:31.511000Z</time>
      </trkpt>
      <trkpt lat="51.231656" lon="6.881251">
        <ele>75.380301</ele>
        <time>2026-04-15T10:50:04.084000Z</time>
      </trkpt>
      <trkpt lat="51.231873" lon="6.881115">
        <ele>76.815625</ele>
        <time>2026-04-15T10:50:35.908000Z</time>
      </trkpt>
      <trkpt lat="51.231932" lon="6.881006">
        <ele>77.371122</ele>
        <time>2026-04-15T10:50:47.892000Z</time>
      </trkpt>
      <trkpt lat="51.232021" lon="6.880756">
        <ele>78.044574</ele>
        <time>2026-04-15T10:51:11.394000Z</time>
      </trkpt>
      <trkpt lat="51.232116" lon="6.880802">
        <ele>78.38111</ele>
        <time>2026-04-15T10:51:24.165000Z</time>
      </trkpt>
      <trkpt lat="51.23221" lon="6.881245">
        <ele>79.374019</ele>
        <time>2026-04-15T10:52:01.899000Z</time>
      </trkpt>
      <trkpt lat="51.232222" lon="6.881497">
        <ele>79.910498</ele>
        <time>2026-04-15T10:52:22.548000Z</time>
      </trkpt>
      <trkpt lat="51.232272" lon="6.881636">
        <ele>80.250783</ele>
        <time>2026-04-15T10:52:35.791000Z</time>
      </trkpt>
      <trkpt lat="51.232351" lon="6.881706">
        <ele>80.55706</ele>
        <time>2026-04-15T10:52:47.797000Z</time>
      </trkpt>
      <trkpt lat="51.23254" lon="6.881711">
        <ele>81.197874</ele>
        <time>2026-04-15T10:53:13.214000Z</time>
      </trkpt>
      <trkpt lat="51.232663" lon="6.88164">
        <ele>81.641256</ele>
        <time>2026-04-15T10:53:30.949000Z</time>
      </trkpt>
      <trkpt lat="51.232722" lon="6.881559">
        <ele>81.905017</ele>
        <time>2026-04-15T10:53:41.526000Z</time>
      </trkpt>
      <trkpt lat="51.232787" lon="6.881338">
        <ele>82.423316</ele>
        <time>2026-04-15T10:54:02.887000Z</time>
      </trkpt>
      <trkpt lat="51.232715" lon="6.880235">
        <ele>86.506239</ele>
        <time>2026-04-15T10:55:50.896000Z</time>
      </trkpt>
      <trkpt lat="51.232666" lon="6.879796">
        <ele>88.853261</ele>
        <time>2026-04-15T10:56:37.783000Z</time>
      </trkpt>
      <trkpt lat="51.232631" lon="6.878511">
        <ele>95.623033</ele>
        <time>2026-04-15T10:58:53.436000Z</time>
      </trkpt>
      <trkpt lat="51.232605" lon="6.878398">
        <ele>96.256673</ele>
        <time>2026-04-15T10:59:05.713000Z</time>
      </trkpt>
      <trkpt lat="51.232538" lon="6.878262">
        <ele>97.167478</ele>
        <time>2026-04-15T10:59:23.050000Z</time>
      </trkpt>
      <trkpt lat="51.232168" lon="6.877576">
        <ele>99.587754</ele>
        <time>2026-04-15T11:00:49.438000Z</time>
      </trkpt>
      <trkpt lat="51.232148" lon="6.877407">
        <ele>99.83065</ele>
        <time>2026-04-15T11:01:05.103000Z</time>
      </trkpt>
      <trkpt lat="51.23217" lon="6.877142">
        <ele>100.208173</ele>
        <time>2026-04-15T11:01:28.786000Z</time>
      </trkpt>
      <trkpt lat="51.232161" lon="6.876895">
        <ele>100.55759</ele>
        <time>2026-04-15T11:01:49.976000Z</time>
      </trkpt>
      <trkpt lat="51.232176" lon="6.87666">
        <ele>100.89119</ele>
        <time>2026-04-15T11:02:05.763000Z</time>
      </trkpt>
      <trkpt lat="51.232245" lon="6.875457">
        <ele>102.597245</ele>
        <time>2026-04-15T11:03:22.141000Z</time>
      </trkpt>
      <trkpt lat="51.232327" lon="6.873124">
        <ele>99.112775</ele>
        <time>2026-04-15T11:05:55.219000Z</time>
      </trkpt>
      <trkpt lat="51.232493" lon="6.873051">
        <ele>98.65473</ele>
        <time>2026-04-15T11:06:13.882000Z</time>
      </trkpt>
      <trkpt lat="51.232789" lon="6.872846">
        <ele>97.620892</ele>
        <time>2026-04-15T11:06:49.232000Z</time>
      </trkpt>
      <trkpt lat="51.232747" lon="6.87265">
        <ele>96.977504</ele>
        <time>2026-04-15T11:07:03.562000Z</time>
      </trkpt>
      <trkpt lat="51.232743" lon="6.872523">
        <ele>96.582574</ele>
        <time>2026-04-15T11:07:12.423000Z</time>
      </trkpt>
      <trkpt lat="51.232789" lon="6.872146">
        <ele>95.389681</ele>
        <time>2026-04-15T11:07:38.810000Z</time>
      </trkpt>
      <trkpt lat="51.232857" lon="6.871791">
        <ele>94.236704</ele>
        <time>2026-04-15T11:08:04.232000Z</time>
      </trkpt>
      <trkpt lat="51.232966" lon="6.871499">
        <ele>93.1809</ele>
        <time>2026-04-15T11:08:27.624000Z</time>
      </trkpt>
      <trkpt lat="51.233076" lon="6.870911">
        <ele>91.274964</ele>
        <time>2026-04-15T11:09:09.859000Z</time>
      </trkpt>
      <trkpt lat="51.233132" lon="6.870747">
        <ele>90.69481</ele>
        <time>2026-04-15T11:09:22.981000Z</time>
      </trkpt>
      <trkpt lat="51.233262" lon="6.870543">
        <ele>89.79083</ele>
        <time>2026-04-15T11:09:43.150000Z</time>
      </trkpt>
      <trkpt lat="51.233245" lon="6.870437">
        <ele>89.450997</ele>
        <time>2026-04-15T11:09:50.806000Z</time>
      </trkpt>
      <trkpt lat="51.233271" lon="6.870272">
        <ele>88.873182</ele>
        <time>2026-04-15T11:10:02.585000Z</time>
      </trkpt>
      <trkpt lat="51.23332" lon="6.870172">
        <ele>88.353638</ele>
        <time>2026-04-15T11:10:11.414000Z</time>
      </trkpt>
      <trkpt lat="51.233458" lon="6.869886">
        <ele>86.876323</ele>
        <time>2026-04-15T11:10:36.691000Z</time>
      </trkpt>
      <trkpt lat="51.233595" lon="6.869717">
        <ele>85.745158</ele>
        <time>2026-04-15T11:10:56.298000Z</time>
      </trkpt>
      <trkpt lat="51.233677" lon="6.868768">
        <ele>81.825528</ele>
        <time>2026-04-15T11:12:04.087000Z</time>
      </trkpt>
      <trkpt lat="51.233847" lon="6.86808">
        <ele>78.799326</ele>
        <time>2026-04-15T11:12:55.878000Z</time>
      </trkpt>
      <trkpt lat="51.233918" lon="6.867935">
        <ele>78.046195</ele>
        <time>2026-04-15T11:13:09.126000Z</time>
      </trkpt>
      <trkpt lat="51.233934" lon="6.867782">
        <ele>77.411529</ele>
        <time>2026-04-15T11:13:20.457000Z</time>
      </trkpt>
      <trkpt lat="51.233898" lon="6.867638">
        <ele>76.642635</ele>
        <time>2026-04-15T11:13:31.748000Z</time>
      </trkpt>
      <trkpt lat="51.233919" lon="6.867484">
        <ele>75.839503</ele>
        <time>2026-04-15T11:13:43.415000Z</time>
      </trkpt>
      <trkpt lat="51.23394" lon="6.867481">
        <ele>75.667918</ele>
        <time>2026-04-15T11:13:45.889000Z</time>
      </trkpt>
      <trkpt lat="51.233971" lon="6.867585">
        <ele>75.080979</ele>
        <time>2026-04-15T11:13:54.559000Z</time>
      </trkpt>
      <trkpt lat="51.234021" lon="6.867622">
        <ele>74.63251</ele>
        <time>2026-04-15T11:14:01.172000Z</time>
      </trkpt>
      <trkpt lat="51.234136" lon="6.867833">
        <ele>73.207051</ele>
        <time>2026-04-15T11:14:21.828000Z</time>
      </trkpt>
      <trkpt lat="51.234189" lon="6.867731">
        <ele>72.531632</ele>
        <time>2026-04-15T11:14:31.710000Z</time>
      </trkpt>
      <trkpt lat="51.234305" lon="6.867623">
        <ele>71.438898</ele>
        <time>2026-04-15T11:14:47.545000Z</time>
      </trkpt>
      <trkpt lat="51.234424" lon="6.867583">
        <ele>70.44923</ele>
        <time>2026-04-15T11:15:01.805000Z</time>
      </trkpt>
      <trkpt lat="51.234457" lon="6.866948">
        <ele>67.202374</ele>
        <time>2026-04-15T11:15:48.333000Z</time>
      </trkpt>
      <trkpt lat="51.234389" lon="6.866664">
        <ele>65.65301</ele>
        <time>2026-04-15T11:16:10.332000Z</time>
      </trkpt>
      <trkpt lat="51.234372" lon="6.866386">
        <ele>64.229681</ele>
        <time>2026-04-15T11:16:30.590000Z</time>
      </trkpt>
      <trkpt lat="51.234318" lon="6.866169">
        <ele>63.039796</ele>
        <time>2026-04-15T11:16:47.831000Z</time>
      </trkpt>
      <trkpt lat="51.234286" lon="6.865989">
        <ele>62.457563</ele>
        <time>2026-04-15T11:17:01.551000Z</time>
      </trkpt>
      <trkpt lat="51.234426" lon="6.865877">
        <ele>61.970415</ele>
        <time>2026-04-15T11:17:19.885000Z</time>
      </trkpt>
      <trkpt lat="51.234547" lon="6.8657">
        <ele>61.459929</ele>
        <time>2026-04-15T11:17:38.648000Z</time>
      </trkpt>
      <trkpt lat="51.234577" lon="6.865641">
        <ele>61.311873</ele>
        <time>2026-04-15T11:17:43.897000Z</time>
      </trkpt>
      <trkpt lat="51.234869" lon="6.864889">
        <ele>59.588167</ele>
        <time>2026-04-15T11:18:43.262000Z</time>
      </trkpt>
      <trkpt lat="51.234905" lon="6.864743">
        <ele>59.282503</ele>
        <time>2026-04-15T11:18:53.401000Z</time>
      </trkpt>
      <trkpt lat="51.234948" lon="6.86457">
        <ele>58.919922</ele>
        <time>2026-04-15T11:19:05.273000Z</time>
      </trkpt>
      <trkpt lat="51.234966" lon="6.864485">
        <ele>58.745131</ele>
        <time>2026-04-15T11:19:10.925000Z</time>
      </trkpt>
      <trkpt lat="51.234987" lon="6.864243">
        <ele>58.269216</ele>
        <time>2026-04-15T11:19:26.251000Z</time>
      </trkpt>
      <trkpt lat="51.234966" lon="6.863992">
        <ele>57.775929</ele>
        <time>2026-04-15T11:19:42.299000Z</time>
      </trkpt>
      <trkpt lat="51.234991" lon="6.863976">
        <ele>57.692139</ele>
        <time>2026-04-15T11:19:45.059000Z</time>
      </trkpt>
      <trkpt lat="51.235017" lon="6.86396">
        <ele>57.605452</ele>
        <time>2026-04-15T11:19:47.893000Z</time>
      </trkpt>
      <trkpt lat="51.235145" lon="6.863878">
        <ele>57.176385</ele>
        <time>2026-04-15T11:20:01.948000Z</time>
      </trkpt>
      <trkpt lat="51.235973" lon="6.863329">
        <ele>58.093049</ele>
        <time>2026-04-15T11:21:34.655000Z</time>
      </trkpt>
      <trkpt lat="51.235999" lon="6.863312">
        <ele>58.125421</ele>
        <time>2026-04-15T11:21:37.694000Z</time>
      </trkpt>
      <trkpt lat="51.236052" lon="6.863254">
        <ele>58.19945</ele>
        <time>2026-04-15T11:21:44.411000Z</time>
      </trkpt>
      <trkpt lat="51.236074" lon="6.862369">
        <ele>58.838425</ele>
        <time>2026-04-15T11:22:43.022000Z</time>
      </trkpt>
      <trkpt lat="51.236077" lon="6.862108">
        <ele>59.026752</ele>
        <time>2026-04-15T11:23:00.425000Z</time>
      </trkpt>
      <trkpt lat="51.236077" lon="6.861863">
        <ele>59.163968</ele>
        <time>2026-04-15T11:23:16.641000Z</time>
      </trkpt>
      <trkpt lat="51.236213" lon="6.86185">
        <ele>59.163968</ele>
        <time>2026-04-15T11:23:30.924000Z</time>
      </trkpt>
      <trkpt lat="51.236378" lon="6.861767">
        <ele>59.163968</ele>
        <time>2026-04-15T11:23:49.032000Z</time>
      </trkpt>
      <trkpt lat="51.236624" lon="6.86165">
        <ele>59.163968</ele>
        <time>2026-04-15T11:24:15.744000Z</time>
      </trkpt>
      <trkpt lat="51.236641" lon="6.861644">
        <ele>59.163968</ele>
        <time>2026-04-15T11:24:17.521000Z</time>
      </trkpt>
      <trkpt lat="51.236904" lon="6.861582">
        <ele>59.163968</ele>
        <time>2026-04-15T11:24:45.119000Z</time>
      </trkpt>
      <trkpt lat="51.236903" lon="6.861552">
        <ele>59.163968</ele>
        <time>2026-04-15T11:24:47.029000Z</time>
      </trkpt>
      <trkpt lat="51.236902" lon="6.861499">
        <ele>59.163968</ele>
        <time>2026-04-15T11:24:50.493000Z</time>
      </trkpt>
      <trkpt lat="51.2369" lon="6.861422">
        <ele>59.163968</ele>
        <time>2026-04-15T11:24:55.475000Z</time>
      </trkpt>
      <trkpt lat="51.236896" lon="6.861264">
        <ele>59.163968</ele>
        <time>2026-04-15T11:25:05.502000Z</time>
      </trkpt>
      <trkpt lat="51.236888" lon="6.86097">
        <ele>59.163968</ele>
        <time>2026-04-15T11:25:24.199000Z</time>
      </trkpt>
      <trkpt lat="51.236883" lon="6.860785">
        <ele>59.163968</ele>
        <time>2026-04-15T11:25:35.846000Z</time>
      </trkpt>
      <trkpt lat="51.236876" lon="6.860518">
        <ele>59.163968</ele>
        <time>2026-04-15T11:25:52.567000Z</time>
      </trkpt>
      <trkpt lat="51.236872" lon="6.860217">
        <ele>59.163968</ele>
        <time>2026-04-15T11:26:11.475000Z</time>
      </trkpt>
      <trkpt lat="51.236868" lon="6.859983">
        <ele>59.163968</ele>
        <time>2026-04-15T11:26:26.230000Z</time>
      </trkpt>
      <trkpt lat="51.236862" lon="6.859902">
        <ele>59.163968</ele>
        <time>2026-04-15T11:26:31.391000Z</time>
      </trkpt>
      <trkpt lat="51.236862" lon="6.859862">
        <ele>59.163968</ele>
        <time>2026-04-15T11:26:33.885000Z</time>
      </trkpt>
      <trkpt lat="51.2368" lon="6.85984">
        <ele>59.163968</ele>
        <time>2026-04-15T11:26:40.216000Z</time>
      </trkpt>
      <trkpt lat="51.2368" lon="6.859818">
        <ele>59.163968</ele>
        <time>2026-04-15T11:26:41.623000Z</time>
      </trkpt>
      <trkpt lat="51.23652" lon="6.859834">
        <ele>59.163968</ele>
        <time>2026-04-15T11:27:09.899000Z</time>
      </trkpt>
    </trkseg>
  </trk>
</gpx>