<?xml version="1.0" encoding="UTF-8"?>
<gpx xmlns="http://www.topografix.com/GPX/1/1" xmlns:xsi="http://www.w3.org/2001/XMLSchema-instance" xsi:schemaLocation="http://www.topografix.com/GPX/1/1 http://www.topografix.com/GPX/1/1/gpx.xsd" version="1.1" creator="https://www.komoot.de">
  <metadata>
    <name>Niederlahnstein to Koblenzer Bierbörse</name>
    <author>
      <link href="https://www.komoot.de">
        <text>komoot</text>
        <type>text/html</type>
      </link>
    </author>
  </metadata>
  <wpt lat="50.316361" lon="7.599489">
    <name>Niederlahnstein</name>
    <sym>Flag, Blue</sym>
  </wpt>
  <wpt lat="50.317288" lon="7.625386">
    <name>Eselsweg Trail (Nassau)</name>
    <sym>Flag, Blue</sym>
  </wpt>
  <wpt lat="50.319329" lon="7.631468">
    <name>Ruppertsklamm Waterfall</name>
    <sym>Flag, Blue</sym>
  </wpt>
  <wpt lat="50.3243" lon="7.637019">
    <name>Nassau Shelter and Picnic Area</name>
    <sym>Picnic Area</sym>
  </wpt>
  <wpt lat="50.32843" lon="7.632178">
    <name>Forest Trail in UNESCO Upper Middle Rhine Valley</name>
    <sym>Flag, Blue</sym>
  </wpt>
  <wpt lat="50.327293" lon="7.628762">
    <name>Waddau Shelter</name>
    <sym>Fishing Hot Spot Facility</sym>
  </wpt>
  <wpt lat="50.33013" lon="7.619769">
    <name>Forest Path in the Upper Middle Rhine Valley UNESCO World Heritage Site</name>
    <sym>Flag, Blue</sym>
  </wpt>
  <wpt lat="50.330745" lon="7.617773">
    <name>View of the Moselle Valley</name>
    <sym>Flag, Blue</sym>
  </wpt>
  <wpt lat="50.337799" lon="7.622788">
    <name>Large Meadow in the Moselle Valley</name>
    <sym>Flag, Blue</sym>
  </wpt>
  <wpt lat="50.341473" lon="7.626494">
    <name>Military Training Area Warning Sign</name>
    <sym>Flag, Blue</sym>
  </wpt>
  <wpt lat="50.361213" lon="7.605312">
    <name>View of Ehrenbreitstein Fortress and the Rhine River</name>
    <sym>Flag, Blue</sym>
  </wpt>
  <trk>
    <name>Niederlahnstein to Koblenzer Bierbörse</name>
    <trkseg>
      <trkpt lat="50.316345" lon="7.599435">
        <ele>73.333363</ele>
        <time>2026-06-01T17:49:51.285000Z</time>
      </trkpt>
      <trkpt lat="50.316283" lon="7.599479">
        <ele>73.333363</ele>
        <time>2026-06-01T17:49:58.494000Z</time>
      </trkpt>
      <trkpt lat="50.316271" lon="7.599436">
        <ele>73.333363</ele>
        <time>2026-06-01T17:50:01.654000Z</time>
      </trkpt>
      <trkpt lat="50.316049" lon="7.599585">
        <ele>73.333363</ele>
        <time>2026-06-01T17:50:27.175000Z</time>
      </trkpt>
      <trkpt lat="50.316108" lon="7.599801">
        <ele>73.333363</ele>
        <time>2026-06-01T17:50:43.109000Z</time>
      </trkpt>
      <trkpt lat="50.31615" lon="7.599944">
        <ele>73.333363</ele>
        <time>2026-06-01T17:50:53.851000Z</time>
      </trkpt>
      <trkpt lat="50.316161" lon="7.599983">
        <ele>73.333363</ele>
        <time>2026-06-01T17:50:56.700000Z</time>
      </trkpt>
      <trkpt lat="50.316241" lon="7.600159">
        <ele>73.333363</ele>
        <time>2026-06-01T17:51:11.434000Z</time>
      </trkpt>
      <trkpt lat="50.316245" lon="7.600189">
        <ele>73.333363</ele>
        <time>2026-06-01T17:51:13.497000Z</time>
      </trkpt>
      <trkpt lat="50.316307" lon="7.60072">
        <ele>73.569886</ele>
        <time>2026-06-01T17:51:50.401000Z</time>
      </trkpt>
      <trkpt lat="50.316281" lon="7.600746">
        <ele>73.60302</ele>
        <time>2026-06-01T17:51:53.772000Z</time>
      </trkpt>
      <trkpt lat="50.316316" lon="7.600821">
        <ele>73.666733</ele>
        <time>2026-06-01T17:52:00.076000Z</time>
      </trkpt>
      <trkpt lat="50.315689" lon="7.601485">
        <ele>74.479729</ele>
        <time>2026-06-01T17:53:19.682000Z</time>
      </trkpt>
      <trkpt lat="50.315557" lon="7.601626">
        <ele>74.651353</ele>
        <time>2026-06-01T17:53:36.235000Z</time>
      </trkpt>
      <trkpt lat="50.315519" lon="7.601609">
        <ele>74.693802</ele>
        <time>2026-06-01T17:53:40.316000Z</time>
      </trkpt>
      <trkpt lat="50.315357" lon="7.601696">
        <ele>74.877754</ele>
        <time>2026-06-01T17:53:57.718000Z</time>
      </trkpt>
      <trkpt lat="50.315194" lon="7.601626">
        <ele>75.059297</ele>
        <time>2026-06-01T17:54:14.772000Z</time>
      </trkpt>
      <trkpt lat="50.315167" lon="7.601571">
        <ele>75.10688</ele>
        <time>2026-06-01T17:54:19.186000Z</time>
      </trkpt>
      <trkpt lat="50.315123" lon="7.601819">
        <ele>75.263666</ele>
        <time>2026-06-01T17:54:35.808000Z</time>
      </trkpt>
      <trkpt lat="50.315131" lon="7.602145">
        <ele>75.243526</ele>
        <time>2026-06-01T17:54:56.822000Z</time>
      </trkpt>
      <trkpt lat="50.314693" lon="7.602581">
        <ele>75.193351</ele>
        <time>2026-06-01T17:55:49.125000Z</time>
      </trkpt>
      <trkpt lat="50.314429" lon="7.602823">
        <ele>75.163778</ele>
        <time>2026-06-01T17:56:19.850000Z</time>
      </trkpt>
      <trkpt lat="50.313747" lon="7.603359">
        <ele>75.098968</ele>
        <time>2026-06-01T17:57:36.482000Z</time>
      </trkpt>
      <trkpt lat="50.313258" lon="7.603786">
        <ele>75.390067</ele>
        <time>2026-06-01T17:58:32.901000Z</time>
      </trkpt>
      <trkpt lat="50.311274" lon="7.606936">
        <ele>78.970765</ele>
        <time>2026-06-01T18:03:24.817000Z</time>
      </trkpt>
      <trkpt lat="50.310938" lon="7.607592">
        <ele>82.797128</ele>
        <time>2026-06-01T18:04:27.785000Z</time>
      </trkpt>
      <trkpt lat="50.310896" lon="7.607726">
        <ele>83.769419</ele>
        <time>2026-06-01T18:04:39.642000Z</time>
      </trkpt>
      <trkpt lat="50.311007" lon="7.607846">
        <ele>85.145189</ele>
        <time>2026-06-01T18:04:57.039000Z</time>
      </trkpt>
      <trkpt lat="50.311128" lon="7.607976">
        <ele>86.641906</ele>
        <time>2026-06-01T18:05:16.474000Z</time>
      </trkpt>
      <trkpt lat="50.311267" lon="7.608127">
        <ele>88.367418</ele>
        <time>2026-06-01T18:05:39.592000Z</time>
      </trkpt>
      <trkpt lat="50.311566" lon="7.608412">
        <ele>91.937671</ele>
        <time>2026-06-01T18:06:32.719000Z</time>
      </trkpt>
      <trkpt lat="50.312572" lon="7.609363">
        <ele>103.364181</ele>
        <time>2026-06-01T18:09:38.802000Z</time>
      </trkpt>
      <trkpt lat="50.312308" lon="7.60993">
        <ele>107.525486</ele>
        <time>2026-06-01T18:10:37.986000Z</time>
      </trkpt>
      <trkpt lat="50.312271" lon="7.609894">
        <ele>107.930005</ele>
        <time>2026-06-01T18:10:43.396000Z</time>
      </trkpt>
      <trkpt lat="50.312224" lon="7.609906">
        <ele>108.372227</ele>
        <time>2026-06-01T18:10:49.157000Z</time>
      </trkpt>
      <trkpt lat="50.312163" lon="7.609958">
        <ele>109.017192</ele>
        <time>2026-06-01T18:10:58.002000Z</time>
      </trkpt>
      <trkpt lat="50.312104" lon="7.610094">
        <ele>109.992212</ele>
        <time>2026-06-01T18:11:10.532000Z</time>
      </trkpt>
      <trkpt lat="50.312101" lon="7.610142">
        <ele>110.278227</ele>
        <time>2026-06-01T18:11:14.508000Z</time>
      </trkpt>
      <trkpt lat="50.312002" lon="7.610327">
        <ele>111.709607</ele>
        <time>2026-06-01T18:11:32.665000Z</time>
      </trkpt>
      <trkpt lat="50.311913" lon="7.610206">
        <ele>112.804131</ele>
        <time>2026-06-01T18:11:45.960000Z</time>
      </trkpt>
      <trkpt lat="50.311651" lon="7.610747">
        <ele>116.083755</ele>
        <time>2026-06-01T18:12:34.559000Z</time>
      </trkpt>
      <trkpt lat="50.311408" lon="7.611524">
        <ele>119.649416</ele>
        <time>2026-06-01T18:13:39.827000Z</time>
      </trkpt>
      <trkpt lat="50.311279" lon="7.611838">
        <ele>121.188178</ele>
        <time>2026-06-01T18:14:09.474000Z</time>
      </trkpt>
      <trkpt lat="50.311787" lon="7.612727">
        <ele>126.10759</ele>
        <time>2026-06-01T18:15:47.711000Z</time>
      </trkpt>
      <trkpt lat="50.312311" lon="7.613719">
        <ele>131.54757</ele>
        <time>2026-06-01T18:17:30.081000Z</time>
      </trkpt>
      <trkpt lat="50.312405" lon="7.613743">
        <ele>132.177776</ele>
        <time>2026-06-01T18:17:41.159000Z</time>
      </trkpt>
      <trkpt lat="50.312443" lon="7.614027">
        <ele>133.403903</ele>
        <time>2026-06-01T18:18:02.822000Z</time>
      </trkpt>
      <trkpt lat="50.312326" lon="7.614123">
        <ele>134.277926</ele>
        <time>2026-06-01T18:18:18.153000Z</time>
      </trkpt>
      <trkpt lat="50.312291" lon="7.614462">
        <ele>135.729005</ele>
        <time>2026-06-01T18:18:43.941000Z</time>
      </trkpt>
      <trkpt lat="50.312292" lon="7.615058">
        <ele>138.309122</ele>
        <time>2026-06-01T18:19:30.186000Z</time>
      </trkpt>
      <trkpt lat="50.312685" lon="7.615509">
        <ele>142.091317</ele>
        <time>2026-06-01T18:20:31.768000Z</time>
      </trkpt>
      <trkpt lat="50.312869" lon="7.615799">
        <ele>144.117814</ele>
        <time>2026-06-01T18:21:05.671000Z</time>
      </trkpt>
      <trkpt lat="50.31311" lon="7.616093">
        <ele>146.489272</ele>
        <time>2026-06-01T18:21:45.978000Z</time>
      </trkpt>
      <trkpt lat="50.313583" lon="7.616803">
        <ele>151.575375</ele>
        <time>2026-06-01T18:23:10.672000Z</time>
      </trkpt>
      <trkpt lat="50.313716" lon="7.617167">
        <ele>152.619797</ele>
        <time>2026-06-01T18:23:43.702000Z</time>
      </trkpt>
      <trkpt lat="50.313747" lon="7.617329">
        <ele>152.976547</ele>
        <time>2026-06-01T18:23:56.446000Z</time>
      </trkpt>
      <trkpt lat="50.313752" lon="7.617528">
        <ele>153.396659</ele>
        <time>2026-06-01T18:24:11.077000Z</time>
      </trkpt>
      <trkpt lat="50.313786" lon="7.618156">
        <ele>154.726166</ele>
        <time>2026-06-01T18:24:54.838000Z</time>
      </trkpt>
      <trkpt lat="50.313958" lon="7.618859">
        <ele>156.31425</ele>
        <time>2026-06-01T18:25:43.618000Z</time>
      </trkpt>
      <trkpt lat="50.314065" lon="7.619194">
        <ele>157.10439</ele>
        <time>2026-06-01T18:26:09.032000Z</time>
      </trkpt>
      <trkpt lat="50.314257" lon="7.619481">
        <ele>157.886679</ele>
        <time>2026-06-01T18:26:38.497000Z</time>
      </trkpt>
      <trkpt lat="50.314375" lon="7.619652">
        <ele>158.148039</ele>
        <time>2026-06-01T18:26:56.465000Z</time>
      </trkpt>
      <trkpt lat="50.314518" lon="7.619751">
        <ele>158.402211</ele>
        <time>2026-06-01T18:27:13.944000Z</time>
      </trkpt>
      <trkpt lat="50.314695" lon="7.619699">
        <ele>158.69497</ele>
        <time>2026-06-01T18:27:33.960000Z</time>
      </trkpt>
      <trkpt lat="50.315053" lon="7.619937">
        <ele>159.327224</ele>
        <time>2026-06-01T18:28:16.136000Z</time>
      </trkpt>
      <trkpt lat="50.315223" lon="7.619984">
        <ele>159.607858</ele>
        <time>2026-06-01T18:28:34.351000Z</time>
      </trkpt>
      <trkpt lat="50.315484" lon="7.61996">
        <ele>160.032884</ele>
        <time>2026-06-01T18:29:01.981000Z</time>
      </trkpt>
      <trkpt lat="50.315557" lon="7.620008">
        <ele>160.161592</ele>
        <time>2026-06-01T18:29:10.365000Z</time>
      </trkpt>
      <trkpt lat="50.315725" lon="7.620279">
        <ele>160.553674</ele>
        <time>2026-06-01T18:29:35.393000Z</time>
      </trkpt>
      <trkpt lat="50.315882" lon="7.620816">
        <ele>160.91324</ele>
        <time>2026-06-01T18:30:13.744000Z</time>
      </trkpt>
      <trkpt lat="50.316136" lon="7.621386">
        <ele>161.226188</ele>
        <time>2026-06-01T18:31:00.035000Z</time>
      </trkpt>
      <trkpt lat="50.316623" lon="7.622056">
        <ele>161.683252</ele>
        <time>2026-06-01T18:32:05.377000Z</time>
      </trkpt>
      <trkpt lat="50.316802" lon="7.622429">
        <ele>161.893329</ele>
        <time>2026-06-01T18:32:38.121000Z</time>
      </trkpt>
      <trkpt lat="50.316984" lon="7.622686">
        <ele>162.095155</ele>
        <time>2026-06-01T18:33:06.388000Z</time>
      </trkpt>
      <trkpt lat="50.317164" lon="7.622871">
        <ele>162.302862</ele>
        <time>2026-06-01T18:33:31.899000Z</time>
      </trkpt>
      <trkpt lat="50.317256" lon="7.622939">
        <ele>162.401005</ele>
        <time>2026-06-01T18:33:44.221000Z</time>
      </trkpt>
      <trkpt lat="50.317392" lon="7.623041">
        <ele>162.546477</ele>
        <time>2026-06-01T18:34:02.558000Z</time>
      </trkpt>
      <trkpt lat="50.317482" lon="7.623213">
        <ele>162.683461</ele>
        <time>2026-06-01T18:34:19.860000Z</time>
      </trkpt>
      <trkpt lat="50.317572" lon="7.623463">
        <ele>162.860253</ele>
        <time>2026-06-01T18:34:42.137000Z</time>
      </trkpt>
      <trkpt lat="50.31767" lon="7.623603">
        <ele>162.988221</ele>
        <time>2026-06-01T18:34:57.679000Z</time>
      </trkpt>
      <trkpt lat="50.317856" lon="7.623934">
        <ele>163.259832</ele>
        <time>2026-06-01T18:35:27.786000Z</time>
      </trkpt>
      <trkpt lat="50.318004" lon="7.624404">
        <ele>163.582645</ele>
        <time>2026-06-01T18:36:02.686000Z</time>
      </trkpt>
      <trkpt lat="50.318119" lon="7.624877">
        <ele>160.51397</ele>
        <time>2026-06-01T18:36:40.022000Z</time>
      </trkpt>
      <trkpt lat="50.318189" lon="7.625151">
        <ele>157.122077</ele>
        <time>2026-06-01T18:37:03.586000Z</time>
      </trkpt>
      <trkpt lat="50.318166" lon="7.625432">
        <ele>153.866014</ele>
        <time>2026-06-01T18:37:27.157000Z</time>
      </trkpt>
      <trkpt lat="50.318117" lon="7.625391">
        <ele>152.866028</ele>
        <time>2026-06-01T18:37:36.353000Z</time>
      </trkpt>
      <trkpt lat="50.317934" lon="7.625241">
        <ele>149.148161</ele>
        <time>2026-06-01T18:38:12.944000Z</time>
      </trkpt>
      <trkpt lat="50.317697" lon="7.625068">
        <ele>144.441552</ele>
        <time>2026-06-01T18:39:04.259000Z</time>
      </trkpt>
      <trkpt lat="50.317245" lon="7.624966">
        <ele>136.221565</ele>
        <time>2026-06-01T18:40:40.259000Z</time>
      </trkpt>
      <trkpt lat="50.317117" lon="7.624872">
        <ele>133.676841</ele>
        <time>2026-06-01T18:41:09.383000Z</time>
      </trkpt>
      <trkpt lat="50.317073" lon="7.624871">
        <ele>132.884761</ele>
        <time>2026-06-01T18:41:17.943000Z</time>
      </trkpt>
      <trkpt lat="50.317055" lon="7.625205">
        <ele>129.268607</ele>
        <time>2026-06-01T18:42:00.586000Z</time>
      </trkpt>
      <trkpt lat="50.317281" lon="7.625406">
        <ele>125.068104</ele>
        <time>2026-06-01T18:42:50.559000Z</time>
      </trkpt>
      <trkpt lat="50.317313" lon="7.625435">
        <ele>124.470572</ele>
        <time>2026-06-01T18:42:57.553000Z</time>
      </trkpt>
      <trkpt lat="50.316974" lon="7.625559">
        <ele>118.844223</ele>
        <time>2026-06-01T18:43:57.824000Z</time>
      </trkpt>
      <trkpt lat="50.316935" lon="7.625612">
        <ele>118.009679</ele>
        <time>2026-06-01T18:44:06.128000Z</time>
      </trkpt>
      <trkpt lat="50.316926" lon="7.625702">
        <ele>117.069555</ele>
        <time>2026-06-01T18:44:15.521000Z</time>
      </trkpt>
      <trkpt lat="50.317432" lon="7.626192">
        <ele>107.45448</ele>
        <time>2026-06-01T18:45:50.264000Z</time>
      </trkpt>
      <trkpt lat="50.317083" lon="7.626144">
        <ele>102.318949</ele>
        <time>2026-06-01T18:46:44.801000Z</time>
      </trkpt>
      <trkpt lat="50.317015" lon="7.62618">
        <ele>102.417963</ele>
        <time>2026-06-01T18:46:55.362000Z</time>
      </trkpt>
      <trkpt lat="50.31723" lon="7.626487">
        <ele>102.819306</ele>
        <time>2026-06-01T18:47:37.030000Z</time>
      </trkpt>
      <trkpt lat="50.317245" lon="7.626579">
        <ele>102.90294</ele>
        <time>2026-06-01T18:47:45.652000Z</time>
      </trkpt>
      <trkpt lat="50.317161" lon="7.626581">
        <ele>103.018823</ele>
        <time>2026-06-01T18:47:56.857000Z</time>
      </trkpt>
      <trkpt lat="50.316992" lon="7.626486">
        <ele>103.266506</ele>
        <time>2026-06-01T18:48:20.772000Z</time>
      </trkpt>
      <trkpt lat="50.316849" lon="7.626521">
        <ele>103.466157</ele>
        <time>2026-06-01T18:48:39.079000Z</time>
      </trkpt>
      <trkpt lat="50.316797" lon="7.626573">
        <ele>103.551262</ele>
        <time>2026-06-01T18:48:46.973000Z</time>
      </trkpt>
      <trkpt lat="50.316849" lon="7.626657">
        <ele>103.654312</ele>
        <time>2026-06-01T18:48:55.135000Z</time>
      </trkpt>
      <trkpt lat="50.316975" lon="7.6268">
        <ele>103.868959</ele>
        <time>2026-06-01T18:49:16.322000Z</time>
      </trkpt>
      <trkpt lat="50.317043" lon="7.626838">
        <ele>103.968552</ele>
        <time>2026-06-01T18:49:26.086000Z</time>
      </trkpt>
      <trkpt lat="50.317072" lon="7.626814">
        <ele>104.013797</ele>
        <time>2026-06-01T18:49:31.096000Z</time>
      </trkpt>
      <trkpt lat="50.317245" lon="7.626952">
        <ele>104.281608</ele>
        <time>2026-06-01T18:50:01.057000Z</time>
      </trkpt>
      <trkpt lat="50.317392" lon="7.627254">
        <ele>104.616084</ele>
        <time>2026-06-01T18:50:41.498000Z</time>
      </trkpt>
      <trkpt lat="50.31765" lon="7.627931">
        <ele>112.869475</ele>
        <time>2026-06-01T18:52:35.138000Z</time>
      </trkpt>
      <trkpt lat="50.317896" lon="7.62834">
        <ele>120.142457</ele>
        <time>2026-06-01T18:54:06.222000Z</time>
      </trkpt>
      <trkpt lat="50.317999" lon="7.6287">
        <ele>125.248713</ele>
        <time>2026-06-01T18:55:10.517000Z</time>
      </trkpt>
      <trkpt lat="50.318075" lon="7.628827">
        <ele>127.501703</ele>
        <time>2026-06-01T18:55:39.064000Z</time>
      </trkpt>
      <trkpt lat="50.318227" lon="7.628938">
        <ele>130.901516</ele>
        <time>2026-06-01T18:56:23.307000Z</time>
      </trkpt>
      <trkpt lat="50.318221" lon="7.6291">
        <ele>133.001959</ele>
        <time>2026-06-01T18:56:51.068000Z</time>
      </trkpt>
      <trkpt lat="50.318305" lon="7.629181">
        <ele>135.001676</ele>
        <time>2026-06-01T18:57:18.427000Z</time>
      </trkpt>
      <trkpt lat="50.318331" lon="7.629206">
        <ele>135.620152</ele>
        <time>2026-06-01T18:57:26.771000Z</time>
      </trkpt>
      <trkpt lat="50.318358" lon="7.6294">
        <ele>138.190228</ele>
        <time>2026-06-01T18:58:02.726000Z</time>
      </trkpt>
      <trkpt lat="50.31846" lon="7.629449">
        <ele>140.353029</ele>
        <time>2026-06-01T18:58:33.327000Z</time>
      </trkpt>
      <trkpt lat="50.318536" lon="7.629577">
        <ele>142.892919</ele>
        <time>2026-06-01T18:59:05.813000Z</time>
      </trkpt>
      <trkpt lat="50.31854" lon="7.629666">
        <ele>144.277406</ele>
        <time>2026-06-01T18:59:22.826000Z</time>
      </trkpt>
      <trkpt lat="50.318588" lon="7.629759">
        <ele>146.133053</ele>
        <time>2026-06-01T18:59:45.286000Z</time>
      </trkpt>
      <trkpt lat="50.31864" lon="7.629766">
        <ele>147.401445</ele>
        <time>2026-06-01T19:00:01.021000Z</time>
      </trkpt>
      <trkpt lat="50.318676" lon="7.629838">
        <ele>148.820502</ele>
        <time>2026-06-01T19:00:18.066000Z</time>
      </trkpt>
      <trkpt lat="50.318657" lon="7.62991">
        <ele>150.029426</ele>
        <time>2026-06-01T19:00:32.432000Z</time>
      </trkpt>
      <trkpt lat="50.319059" lon="7.631058">
        <ele>170.346628</ele>
        <time>2026-06-01T19:04:38.331000Z</time>
      </trkpt>
      <trkpt lat="50.319166" lon="7.631139">
        <ele>173.23484</ele>
        <time>2026-06-01T19:05:12.332000Z</time>
      </trkpt>
      <trkpt lat="50.319313" lon="7.631327">
        <ele>177.847112</ele>
        <time>2026-06-01T19:06:05.721000Z</time>
      </trkpt>
      <trkpt lat="50.319352" lon="7.631451">
        <ele>179.992036</ele>
        <time>2026-06-01T19:06:30.646000Z</time>
      </trkpt>
      <trkpt lat="50.319353" lon="7.631454">
        <ele>180.04455</ele>
        <time>2026-06-01T19:06:31.333000Z</time>
      </trkpt>
      <trkpt lat="50.319448" lon="7.631569">
        <ele>182.962548</ele>
        <time>2026-06-01T19:07:04.512000Z</time>
      </trkpt>
      <trkpt lat="50.319648" lon="7.631802">
        <ele>187.417541</ele>
        <time>2026-06-01T19:08:09.906000Z</time>
      </trkpt>
      <trkpt lat="50.319756" lon="7.63183">
        <ele>189.035018</ele>
        <time>2026-06-01T19:08:36.504000Z</time>
      </trkpt>
      <trkpt lat="50.319957" lon="7.631933">
        <ele>192.159836</ele>
        <time>2026-06-01T19:09:24.957000Z</time>
      </trkpt>
      <trkpt lat="50.32006" lon="7.632164">
        <ele>194.81793</ele>
        <time>2026-06-01T19:10:02.857000Z</time>
      </trkpt>
      <trkpt lat="50.320062" lon="7.632266">
        <ele>195.780669</ele>
        <time>2026-06-01T19:10:15.965000Z</time>
      </trkpt>
      <trkpt lat="50.320236" lon="7.632519">
        <ele>199.288773</ele>
        <time>2026-06-01T19:11:01.503000Z</time>
      </trkpt>
      <trkpt lat="50.32042" lon="7.632619">
        <ele>202.166511</ele>
        <time>2026-06-01T19:11:36.203000Z</time>
      </trkpt>
      <trkpt lat="50.320498" lon="7.632568">
        <ele>203.415406</ele>
        <time>2026-06-01T19:11:50.879000Z</time>
      </trkpt>
      <trkpt lat="50.320551" lon="7.632592">
        <ele>204.230586</ele>
        <time>2026-06-01T19:12:00.461000Z</time>
      </trkpt>
      <trkpt lat="50.321061" lon="7.632886">
        <ele>211.881481</ele>
        <time>2026-06-01T19:13:34.283000Z</time>
      </trkpt>
      <trkpt lat="50.321201" lon="7.63306">
        <ele>213.19287</ele>
        <time>2026-06-01T19:14:03.913000Z</time>
      </trkpt>
      <trkpt lat="50.321231" lon="7.63314">
        <ele>213.627521</ele>
        <time>2026-06-01T19:14:13.902000Z</time>
      </trkpt>
      <trkpt lat="50.321329" lon="7.633288">
        <ele>214.626428</ele>
        <time>2026-06-01T19:14:35.874000Z</time>
      </trkpt>
      <trkpt lat="50.321387" lon="7.633345">
        <ele>215.128844</ele>
        <time>2026-06-01T19:14:46.638000Z</time>
      </trkpt>
      <trkpt lat="50.321442" lon="7.633453">
        <ele>215.776039</ele>
        <time>2026-06-01T19:15:00.774000Z</time>
      </trkpt>
      <trkpt lat="50.321548" lon="7.633865">
        <ele>217.857005</ele>
        <time>2026-06-01T19:15:45.681000Z</time>
      </trkpt>
      <trkpt lat="50.321681" lon="7.634072">
        <ele>219.232791</ele>
        <time>2026-06-01T19:16:15.496000Z</time>
      </trkpt>
      <trkpt lat="50.321819" lon="7.63411">
        <ele>220.260896</ele>
        <time>2026-06-01T19:16:37.626000Z</time>
      </trkpt>
      <trkpt lat="50.321931" lon="7.634193">
        <ele>221.170043</ele>
        <time>2026-06-01T19:16:56.350000Z</time>
      </trkpt>
      <trkpt lat="50.322004" lon="7.634334">
        <ele>222.020479</ele>
        <time>2026-06-01T19:17:13.783000Z</time>
      </trkpt>
      <trkpt lat="50.322135" lon="7.634444">
        <ele>223.111115</ele>
        <time>2026-06-01T19:17:35.975000Z</time>
      </trkpt>
      <trkpt lat="50.32227" lon="7.634557">
        <ele>224.23426</ele>
        <time>2026-06-01T19:17:58.338000Z</time>
      </trkpt>
      <trkpt lat="50.32234" lon="7.634587">
        <ele>224.730244</ele>
        <time>2026-06-01T19:18:08.577000Z</time>
      </trkpt>
      <trkpt lat="50.322461" lon="7.63491">
        <ele>225.442871</ele>
        <time>2026-06-01T19:18:41.643000Z</time>
      </trkpt>
      <trkpt lat="50.322614" lon="7.63517">
        <ele>226.115718</ele>
        <time>2026-06-01T19:19:11.573000Z</time>
      </trkpt>
      <trkpt lat="50.322744" lon="7.635017">
        <ele>226.600369</ele>
        <time>2026-06-01T19:19:33.667000Z</time>
      </trkpt>
      <trkpt lat="50.322984" lon="7.635295">
        <ele>227.490033</ele>
        <time>2026-06-01T19:20:06.381000Z</time>
      </trkpt>
      <trkpt lat="50.32312" lon="7.635633">
        <ele>228.250278</ele>
        <time>2026-06-01T19:20:34.543000Z</time>
      </trkpt>
      <trkpt lat="50.323533" lon="7.636037">
        <ele>229.701536</ele>
        <time>2026-06-01T19:21:27.447000Z</time>
      </trkpt>
      <trkpt lat="50.323913" lon="7.636461">
        <ele>231.091525</ele>
        <time>2026-06-01T19:22:19.253000Z</time>
      </trkpt>
      <trkpt lat="50.324117" lon="7.636627">
        <ele>231.77631</ele>
        <time>2026-06-01T19:22:44.594000Z</time>
      </trkpt>
      <trkpt lat="50.324181" lon="7.636805">
        <ele>232.164819</ele>
        <time>2026-06-01T19:22:58.860000Z</time>
      </trkpt>
      <trkpt lat="50.324322" lon="7.63697">
        <ele>232.689104</ele>
        <time>2026-06-01T19:23:22.837000Z</time>
      </trkpt>
      <trkpt lat="50.324296" lon="7.636976">
        <ele>232.767388</ele>
        <time>2026-06-01T19:23:25.652000Z</time>
      </trkpt>
      <trkpt lat="50.324263" lon="7.636983">
        <ele>232.866586</ele>
        <time>2026-06-01T19:23:29.327000Z</time>
      </trkpt>
      <trkpt lat="50.324172" lon="7.636934">
        <ele>233.153226</ele>
        <time>2026-06-01T19:23:39.724000Z</time>
      </trkpt>
      <trkpt lat="50.32385" lon="7.636621">
        <ele>234.282094</ele>
        <time>2026-06-01T19:24:21.234000Z</time>
      </trkpt>
      <trkpt lat="50.323178" lon="7.63632">
        <ele>236.452028</ele>
        <time>2026-06-01T19:25:40.045000Z</time>
      </trkpt>
      <trkpt lat="50.322852" lon="7.636214">
        <ele>237.536577</ele>
        <time>2026-06-01T19:26:18.376000Z</time>
      </trkpt>
      <trkpt lat="50.322683" lon="7.63622">
        <ele>238.087217</ele>
        <time>2026-06-01T19:26:37.761000Z</time>
      </trkpt>
      <trkpt lat="50.322557" lon="7.636277">
        <ele>238.514425</ele>
        <time>2026-06-01T19:26:52.771000Z</time>
      </trkpt>
      <trkpt lat="50.322403" lon="7.636201">
        <ele>239.040374</ele>
        <time>2026-06-01T19:27:11.009000Z</time>
      </trkpt>
      <trkpt lat="50.322355" lon="7.63614">
        <ele>239.241723</ele>
        <time>2026-06-01T19:27:17.989000Z</time>
      </trkpt>
      <trkpt lat="50.32229" lon="7.635866">
        <ele>239.849634</ele>
        <time>2026-06-01T19:27:38.973000Z</time>
      </trkpt>
      <trkpt lat="50.322246" lon="7.635765">
        <ele>240.103927</ele>
        <time>2026-06-01T19:27:47.593000Z</time>
      </trkpt>
      <trkpt lat="50.322189" lon="7.635709">
        <ele>240.323103</ele>
        <time>2026-06-01T19:27:55.099000Z</time>
      </trkpt>
      <trkpt lat="50.320952" lon="7.634809">
        <ele>245.16972</ele>
        <time>2026-06-01T19:30:18.694000Z</time>
      </trkpt>
      <trkpt lat="50.320772" lon="7.634806">
        <ele>245.824037</ele>
        <time>2026-06-01T19:30:38.913000Z</time>
      </trkpt>
      <trkpt lat="50.320699" lon="7.634856">
        <ele>246.113648</ele>
        <time>2026-06-01T19:30:48.099000Z</time>
      </trkpt>
      <trkpt lat="50.320619" lon="7.635006">
        <ele>246.567246</ele>
        <time>2026-06-01T19:31:02.692000Z</time>
      </trkpt>
      <trkpt lat="50.320534" lon="7.635268">
        <ele>247.249301</ele>
        <time>2026-06-01T19:31:25.428000Z</time>
      </trkpt>
      <trkpt lat="50.320298" lon="7.636437">
        <ele>251.862429</ele>
        <time>2026-06-01T19:33:07.073000Z</time>
      </trkpt>
      <trkpt lat="50.320295" lon="7.636533">
        <ele>252.258879</ele>
        <time>2026-06-01T19:33:15.606000Z</time>
      </trkpt>
      <trkpt lat="50.320208" lon="7.637036">
        <ele>254.408406</ele>
        <time>2026-06-01T19:34:01.128000Z</time>
      </trkpt>
      <trkpt lat="50.320129" lon="7.637315">
        <ele>255.667301</ele>
        <time>2026-06-01T19:34:26.502000Z</time>
      </trkpt>
      <trkpt lat="50.320061" lon="7.637432">
        <ele>256.319891</ele>
        <time>2026-06-01T19:34:39.394000Z</time>
      </trkpt>
      <trkpt lat="50.319904" lon="7.637602">
        <ele>257.552926</ele>
        <time>2026-06-01T19:35:02.587000Z</time>
      </trkpt>
      <trkpt lat="50.319577" lon="7.637726">
        <ele>259.124506</ele>
        <time>2026-06-01T19:35:39.080000Z</time>
      </trkpt>
      <trkpt lat="50.319336" lon="7.637745">
        <ele>257.407984</ele>
        <time>2026-06-01T19:36:04.299000Z</time>
      </trkpt>
      <trkpt lat="50.318916" lon="7.637628">
        <ele>254.373425</ele>
        <time>2026-06-01T19:36:53.291000Z</time>
      </trkpt>
      <trkpt lat="50.318267" lon="7.637225">
        <ele>249.40713</ele>
        <time>2026-06-01T19:38:19.239000Z</time>
      </trkpt>
      <trkpt lat="50.318098" lon="7.637179">
        <ele>248.186929</ele>
        <time>2026-06-01T19:38:40.266000Z</time>
      </trkpt>
      <trkpt lat="50.317973" lon="7.637183">
        <ele>247.297557</ele>
        <time>2026-06-01T19:38:55.467000Z</time>
      </trkpt>
      <trkpt lat="50.317676" lon="7.637728">
        <ele>246.161863</ele>
        <time>2026-06-01T19:39:48.884000Z</time>
      </trkpt>
      <trkpt lat="50.317566" lon="7.63866">
        <ele>245.362045</ele>
        <time>2026-06-01T19:40:52.024000Z</time>
      </trkpt>
      <trkpt lat="50.317476" lon="7.638938">
        <ele>245.099016</ele>
        <time>2026-06-01T19:41:15.357000Z</time>
      </trkpt>
      <trkpt lat="50.317443" lon="7.639002">
        <ele>245.029597</ele>
        <time>2026-06-01T19:41:21.736000Z</time>
      </trkpt>
      <trkpt lat="50.317137" lon="7.639245">
        <ele>244.57617</ele>
        <time>2026-06-01T19:42:02.047000Z</time>
      </trkpt>
      <trkpt lat="50.31704" lon="7.639394">
        <ele>244.396603</ele>
        <time>2026-06-01T19:42:17.471000Z</time>
      </trkpt>
      <trkpt lat="50.316962" lon="7.639895">
        <ele>244.145122</ele>
        <time>2026-06-01T19:42:52.687000Z</time>
      </trkpt>
      <trkpt lat="50.316789" lon="7.640197">
        <ele>244.007725</ele>
        <time>2026-06-01T19:43:18.595000Z</time>
      </trkpt>
      <trkpt lat="50.316355" lon="7.640827">
        <ele>243.693882</ele>
        <time>2026-06-01T19:44:19.256000Z</time>
      </trkpt>
      <trkpt lat="50.31604" lon="7.640979">
        <ele>243.519071</ele>
        <time>2026-06-01T19:44:54.201000Z</time>
      </trkpt>
      <trkpt lat="50.315843" lon="7.641277">
        <ele>243.37381</ele>
        <time>2026-06-01T19:45:23.987000Z</time>
      </trkpt>
      <trkpt lat="50.315449" lon="7.641741">
        <ele>245.106337</ele>
        <time>2026-06-01T19:46:14.616000Z</time>
      </trkpt>
      <trkpt lat="50.315257" lon="7.642068">
        <ele>246.441109</ele>
        <time>2026-06-01T19:46:45.928000Z</time>
      </trkpt>
      <trkpt lat="50.315213" lon="7.642295">
        <ele>247.153914</ele>
        <time>2026-06-01T19:47:03.795000Z</time>
      </trkpt>
      <trkpt lat="50.31521" lon="7.642472">
        <ele>247.68594</ele>
        <time>2026-06-01T19:47:17.434000Z</time>
      </trkpt>
      <trkpt lat="50.315258" lon="7.642715">
        <ele>248.450226</ele>
        <time>2026-06-01T19:47:37.658000Z</time>
      </trkpt>
      <trkpt lat="50.315469" lon="7.643348">
        <ele>250.595762</ele>
        <time>2026-06-01T19:48:36.758000Z</time>
      </trkpt>
      <trkpt lat="50.315592" lon="7.64345">
        <ele>251.250672</ele>
        <time>2026-06-01T19:48:55.183000Z</time>
      </trkpt>
      <trkpt lat="50.315775" lon="7.643601">
        <ele>252.350551</ele>
        <time>2026-06-01T19:49:22.416000Z</time>
      </trkpt>
      <trkpt lat="50.316093" lon="7.643682">
        <ele>254.296547</ele>
        <time>2026-06-01T19:50:04.013000Z</time>
      </trkpt>
      <trkpt lat="50.316516" lon="7.643981">
        <ele>257.099716</ele>
        <time>2026-06-01T19:51:01.567000Z</time>
      </trkpt>
      <trkpt lat="50.316943" lon="7.644487">
        <ele>260.333993</ele>
        <time>2026-06-01T19:52:03.966000Z</time>
      </trkpt>
      <trkpt lat="50.31704" lon="7.644624">
        <ele>261.122956</ele>
        <time>2026-06-01T19:52:18.736000Z</time>
      </trkpt>
      <trkpt lat="50.317515" lon="7.644836">
        <ele>263.530189</ele>
        <time>2026-06-01T19:53:13.891000Z</time>
      </trkpt>
      <trkpt lat="50.318" lon="7.645129">
        <ele>265.434962</ele>
        <time>2026-06-01T19:54:12.847000Z</time>
      </trkpt>
      <trkpt lat="50.319424" lon="7.645879">
        <ele>269.274609</ele>
        <time>2026-06-01T19:57:02.861000Z</time>
      </trkpt>
      <trkpt lat="50.319499" lon="7.646173">
        <ele>269.292935</ele>
        <time>2026-06-01T19:57:23.991000Z</time>
      </trkpt>
      <trkpt lat="50.319598" lon="7.64636">
        <ele>269.306996</ele>
        <time>2026-06-01T19:57:39.937000Z</time>
      </trkpt>
      <trkpt lat="50.319738" lon="7.646473">
        <ele>269.321274</ele>
        <time>2026-06-01T19:57:55.660000Z</time>
      </trkpt>
      <trkpt lat="50.320301" lon="7.646813">
        <ele>269.375975</ele>
        <time>2026-06-01T19:58:58.122000Z</time>
      </trkpt>
      <trkpt lat="50.321239" lon="7.647787">
        <ele>264.637962</ele>
        <time>2026-06-01T20:00:59.549000Z</time>
      </trkpt>
      <trkpt lat="50.321924" lon="7.648657">
        <ele>260.03216</ele>
        <time>2026-06-01T20:02:40.753000Z</time>
      </trkpt>
      <trkpt lat="50.322544" lon="7.649832">
        <ele>257.740412</ele>
        <time>2026-06-01T20:04:29.631000Z</time>
      </trkpt>
      <trkpt lat="50.322651" lon="7.649949">
        <ele>257.435358</ele>
        <time>2026-06-01T20:04:43.170000Z</time>
      </trkpt>
      <trkpt lat="50.322926" lon="7.650249">
        <ele>256.651941</ele>
        <time>2026-06-01T20:05:16.834000Z</time>
      </trkpt>
      <trkpt lat="50.323259" lon="7.650718">
        <ele>256.30736</ele>
        <time>2026-06-01T20:06:06.078000Z</time>
      </trkpt>
      <trkpt lat="50.32482" lon="7.652152">
        <ele>267.506937</ele>
        <time>2026-06-01T20:09:50.504000Z</time>
      </trkpt>
      <trkpt lat="50.325225" lon="7.652474">
        <ele>270.247342</ele>
        <time>2026-06-01T20:10:46.284000Z</time>
      </trkpt>
      <trkpt lat="50.325454" lon="7.652588">
        <ele>271.697151</ele>
        <time>2026-06-01T20:11:15.407000Z</time>
      </trkpt>
      <trkpt lat="50.325598" lon="7.652732">
        <ele>272.727964</ele>
        <time>2026-06-01T20:11:35.913000Z</time>
      </trkpt>
      <trkpt lat="50.326152" lon="7.653453">
        <ele>277.073835</ele>
        <time>2026-06-01T20:13:01.150000Z</time>
      </trkpt>
      <trkpt lat="50.326707" lon="7.654299">
        <ele>283.750221</ele>
        <time>2026-06-01T20:14:34.725000Z</time>
      </trkpt>
      <trkpt lat="50.326986" lon="7.654568">
        <ele>286.729679</ele>
        <time>2026-06-01T20:15:16.648000Z</time>
      </trkpt>
      <trkpt lat="50.327284" lon="7.654995">
        <ele>290.402643</ele>
        <time>2026-06-01T20:16:11.213000Z</time>
      </trkpt>
      <trkpt lat="50.327609" lon="7.655314">
        <ele>293.890629</ele>
        <time>2026-06-01T20:17:08.993000Z</time>
      </trkpt>
      <trkpt lat="50.327872" lon="7.65563">
        <ele>297.584316</ele>
        <time>2026-06-01T20:18:00.114000Z</time>
      </trkpt>
      <trkpt lat="50.32848" lon="7.655717">
        <ele>304.507572</ele>
        <time>2026-06-01T20:19:33.489000Z</time>
      </trkpt>
      <trkpt lat="50.328859" lon="7.655926">
        <ele>309.063859</ele>
        <time>2026-06-01T20:20:29.806000Z</time>
      </trkpt>
      <trkpt lat="50.329339" lon="7.656113">
        <ele>314.602066</ele>
        <time>2026-06-01T20:21:34.873000Z</time>
      </trkpt>
      <trkpt lat="50.329466" lon="7.656042">
        <ele>315.251689</ele>
        <time>2026-06-01T20:21:51.663000Z</time>
      </trkpt>
      <trkpt lat="50.329729" lon="7.655668">
        <ele>316.962903</ele>
        <time>2026-06-01T20:22:34.826000Z</time>
      </trkpt>
      <trkpt lat="50.329881" lon="7.65516">
        <ele>318.688284</ele>
        <time>2026-06-01T20:23:17.754000Z</time>
      </trkpt>
      <trkpt lat="50.329984" lon="7.653623">
        <ele>323.131568</ele>
        <time>2026-06-01T20:25:08.815000Z</time>
      </trkpt>
      <trkpt lat="50.330029" lon="7.653176">
        <ele>322.618826</ele>
        <time>2026-06-01T20:25:38.074000Z</time>
      </trkpt>
      <trkpt lat="50.330083" lon="7.652976">
        <ele>322.372775</ele>
        <time>2026-06-01T20:25:52.199000Z</time>
      </trkpt>
      <trkpt lat="50.330113" lon="7.652857">
        <ele>322.227806</ele>
        <time>2026-06-01T20:26:00.501000Z</time>
      </trkpt>
      <trkpt lat="50.330297" lon="7.65232">
        <ele>321.53724</ele>
        <time>2026-06-01T20:26:41.012000Z</time>
      </trkpt>
      <trkpt lat="50.3308" lon="7.651788">
        <ele>320.459996</ele>
        <time>2026-06-01T20:27:46.116000Z</time>
      </trkpt>
      <trkpt lat="50.331054" lon="7.651388">
        <ele>319.59445</ele>
        <time>2026-06-01T20:28:25.426000Z</time>
      </trkpt>
      <trkpt lat="50.331137" lon="7.651212">
        <ele>319.068308</ele>
        <time>2026-06-01T20:28:40.669000Z</time>
      </trkpt>
      <trkpt lat="50.331268" lon="7.650866">
        <ele>318.101043</ele>
        <time>2026-06-01T20:29:08.598000Z</time>
      </trkpt>
      <trkpt lat="50.331428" lon="7.650021">
        <ele>315.981789</ele>
        <time>2026-06-01T20:30:09.548000Z</time>
      </trkpt>
      <trkpt lat="50.331556" lon="7.649066">
        <ele>313.635481</ele>
        <time>2026-06-01T20:31:16.514000Z</time>
      </trkpt>
      <trkpt lat="50.331693" lon="7.648541">
        <ele>312.779895</ele>
        <time>2026-06-01T20:31:55.121000Z</time>
      </trkpt>
      <trkpt lat="50.332222" lon="7.647063">
        <ele>310.827472</ele>
        <time>2026-06-01T20:33:47.889000Z</time>
      </trkpt>
      <trkpt lat="50.332526" lon="7.646477">
        <ele>310.01448</ele>
        <time>2026-06-01T20:34:36.665000Z</time>
      </trkpt>
      <trkpt lat="50.332648" lon="7.646354">
        <ele>310.096664</ele>
        <time>2026-06-01T20:34:51.212000Z</time>
      </trkpt>
      <trkpt lat="50.332544" lon="7.645757">
        <ele>310.320431</ele>
        <time>2026-06-01T20:35:31.054000Z</time>
      </trkpt>
      <trkpt lat="50.332459" lon="7.644776">
        <ele>310.678408</ele>
        <time>2026-06-01T20:36:35.117000Z</time>
      </trkpt>
      <trkpt lat="50.332398" lon="7.644362">
        <ele>310.832045</ele>
        <time>2026-06-01T20:37:03.016000Z</time>
      </trkpt>
      <trkpt lat="50.332213" lon="7.643666">
        <ele>311.182106</ele>
        <time>2026-06-01T20:37:54.183000Z</time>
      </trkpt>
      <trkpt lat="50.332068" lon="7.643199">
        <ele>311.541101</ele>
        <time>2026-06-01T20:38:29.991000Z</time>
      </trkpt>
      <trkpt lat="50.332019" lon="7.642947">
        <ele>311.723208</ele>
        <time>2026-06-01T20:38:47.959000Z</time>
      </trkpt>
      <trkpt lat="50.331881" lon="7.641828">
        <ele>312.511064</ele>
        <time>2026-06-01T20:40:04.381000Z</time>
      </trkpt>
      <trkpt lat="50.331839" lon="7.641661">
        <ele>312.635147</ele>
        <time>2026-06-01T20:40:16.267000Z</time>
      </trkpt>
      <trkpt lat="50.331642" lon="7.641179">
        <ele>312.91909</ele>
        <time>2026-06-01T20:40:54.020000Z</time>
      </trkpt>
      <trkpt lat="50.330877" lon="7.639735">
        <ele>311.924588</ele>
        <time>2026-06-01T20:42:59.354000Z</time>
      </trkpt>
      <trkpt lat="50.330686" lon="7.639414">
        <ele>311.692022</ele>
        <time>2026-06-01T20:43:28.399000Z</time>
      </trkpt>
      <trkpt lat="50.330123" lon="7.638726">
        <ele>313.413818</ele>
        <time>2026-06-01T20:44:44.066000Z</time>
      </trkpt>
      <trkpt lat="50.330281" lon="7.638055">
        <ele>315.373824</ele>
        <time>2026-06-01T20:45:36.085000Z</time>
      </trkpt>
      <trkpt lat="50.330287" lon="7.637932">
        <ele>315.711891</ele>
        <time>2026-06-01T20:45:45.408000Z</time>
      </trkpt>
      <trkpt lat="50.330306" lon="7.637548">
        <ele>316.767408</ele>
        <time>2026-06-01T20:46:14.821000Z</time>
      </trkpt>
      <trkpt lat="50.330296" lon="7.637153">
        <ele>317.850765</ele>
        <time>2026-06-01T20:46:46.183000Z</time>
      </trkpt>
      <trkpt lat="50.329907" lon="7.636044">
        <ele>321.88422</ele>
        <time>2026-06-01T20:48:26.142000Z</time>
      </trkpt>
      <trkpt lat="50.329636" lon="7.635022">
        <ele>325.72524</ele>
        <time>2026-06-01T20:49:48.475000Z</time>
      </trkpt>
      <trkpt lat="50.329193" lon="7.633839">
        <ele>330.060378</ele>
        <time>2026-06-01T20:51:31.194000Z</time>
      </trkpt>
      <trkpt lat="50.329023" lon="7.633122">
        <ele>331.967757</ele>
        <time>2026-06-01T20:52:28.006000Z</time>
      </trkpt>
      <trkpt lat="50.328612" lon="7.632358">
        <ele>334.459296</ele>
        <time>2026-06-01T20:53:40.766000Z</time>
      </trkpt>
      <trkpt lat="50.328456" lon="7.632134">
        <ele>335.285988</ele>
        <time>2026-06-01T20:54:04.455000Z</time>
      </trkpt>
      <trkpt lat="50.328385" lon="7.632031">
        <ele>335.664016</ele>
        <time>2026-06-01T20:54:15.130000Z</time>
      </trkpt>
      <trkpt lat="50.328251" lon="7.631919">
        <ele>336.015865</ele>
        <time>2026-06-01T20:54:31.666000Z</time>
      </trkpt>
      <trkpt lat="50.327753" lon="7.631165">
        <ele>336.167874</ele>
        <time>2026-06-01T20:55:44.081000Z</time>
      </trkpt>
      <trkpt lat="50.327688" lon="7.63081">
        <ele>336.219618</ele>
        <time>2026-06-01T20:56:07.794000Z</time>
      </trkpt>
      <trkpt lat="50.327621" lon="7.629975">
        <ele>336.337532</ele>
        <time>2026-06-01T20:57:02.654000Z</time>
      </trkpt>
      <trkpt lat="50.327442" lon="7.629449">
        <ele>336.142847</ele>
        <time>2026-06-01T20:57:42.011000Z</time>
      </trkpt>
      <trkpt lat="50.327278" lon="7.629076">
        <ele>335.494483</ele>
        <time>2026-06-01T20:58:12.008000Z</time>
      </trkpt>
      <trkpt lat="50.327252" lon="7.628807">
        <ele>335.105002</ele>
        <time>2026-06-01T20:58:29.907000Z</time>
      </trkpt>
      <trkpt lat="50.327264" lon="7.628748">
        <ele>335.016356</ele>
        <time>2026-06-01T20:58:33.931000Z</time>
      </trkpt>
      <trkpt lat="50.327441" lon="7.627836">
        <ele>333.651767</ele>
        <time>2026-06-01T20:59:36.622000Z</time>
      </trkpt>
      <trkpt lat="50.327535" lon="7.626855">
        <ele>331.855101</ele>
        <time>2026-06-01T21:00:43.690000Z</time>
      </trkpt>
      <trkpt lat="50.327636" lon="7.626003">
        <ele>327.055134</ele>
        <time>2026-06-01T21:01:45.253000Z</time>
      </trkpt>
      <trkpt lat="50.327722" lon="7.625607">
        <ele>324.738219</ele>
        <time>2026-06-01T21:02:16.092000Z</time>
      </trkpt>
      <trkpt lat="50.327945" lon="7.624881">
        <ele>320.275601</ele>
        <time>2026-06-01T21:03:17.983000Z</time>
      </trkpt>
      <trkpt lat="50.327929" lon="7.624261">
        <ele>316.838594</ele>
        <time>2026-06-01T21:04:07.568000Z</time>
      </trkpt>
      <trkpt lat="50.327939" lon="7.623379">
        <ele>309.598075</ele>
        <time>2026-06-01T21:05:19.534000Z</time>
      </trkpt>
      <trkpt lat="50.32799" lon="7.622518">
        <ele>302.461484</ele>
        <time>2026-06-01T21:06:28.905000Z</time>
      </trkpt>
      <trkpt lat="50.327988" lon="7.622064">
        <ele>298.714411</ele>
        <time>2026-06-01T21:07:05.594000Z</time>
      </trkpt>
      <trkpt lat="50.327945" lon="7.620835">
        <ele>290.276688</ele>
        <time>2026-06-01T21:08:43.168000Z</time>
      </trkpt>
      <trkpt lat="50.328119" lon="7.620964">
        <ele>288.653504</ele>
        <time>2026-06-01T21:09:05.604000Z</time>
      </trkpt>
      <trkpt lat="50.328265" lon="7.621071">
        <ele>287.294368</ele>
        <time>2026-06-01T21:09:23.838000Z</time>
      </trkpt>
      <trkpt lat="50.328448" lon="7.621265">
        <ele>285.431175</ele>
        <time>2026-06-01T21:09:49.046000Z</time>
      </trkpt>
      <trkpt lat="50.328573" lon="7.621307">
        <ele>284.353209</ele>
        <time>2026-06-01T21:10:03.678000Z</time>
      </trkpt>
      <trkpt lat="50.32857" lon="7.621468">
        <ele>283.486207</ele>
        <time>2026-06-01T21:10:15.433000Z</time>
      </trkpt>
      <trkpt lat="50.32867" lon="7.621774">
        <ele>281.63579</ele>
        <time>2026-06-01T21:10:40.707000Z</time>
      </trkpt>
      <trkpt lat="50.328685" lon="7.621948">
        <ele>280.690682</ele>
        <time>2026-06-01T21:10:53.572000Z</time>
      </trkpt>
      <trkpt lat="50.328724" lon="7.622084">
        <ele>279.888153</ele>
        <time>2026-06-01T21:11:04.413000Z</time>
      </trkpt>
      <trkpt lat="50.328774" lon="7.622275">
        <ele>278.776955</ele>
        <time>2026-06-01T21:11:19.319000Z</time>
      </trkpt>
      <trkpt lat="50.329028" lon="7.622182">
        <ele>276.425336</ele>
        <time>2026-06-01T21:11:48.623000Z</time>
      </trkpt>
      <trkpt lat="50.329181" lon="7.622251">
        <ele>274.966778</ele>
        <time>2026-06-01T21:12:06.367000Z</time>
      </trkpt>
      <trkpt lat="50.329345" lon="7.622135">
        <ele>273.318323</ele>
        <time>2026-06-01T21:12:26.764000Z</time>
      </trkpt>
      <trkpt lat="50.329475" lon="7.621974">
        <ele>271.800162</ele>
        <time>2026-06-01T21:12:45.920000Z</time>
      </trkpt>
      <trkpt lat="50.329649" lon="7.621541">
        <ele>268.808001</ele>
        <time>2026-06-01T21:13:24.727000Z</time>
      </trkpt>
      <trkpt lat="50.329662" lon="7.621354">
        <ele>267.707944</ele>
        <time>2026-06-01T21:13:39.354000Z</time>
      </trkpt>
      <trkpt lat="50.32986" lon="7.620502">
        <ele>262.405493</ele>
        <time>2026-06-01T21:14:49.690000Z</time>
      </trkpt>
      <trkpt lat="50.330024" lon="7.620161">
        <ele>260.137603</ele>
        <time>2026-06-01T21:15:23.176000Z</time>
      </trkpt>
      <trkpt lat="50.330147" lon="7.619782">
        <ele>257.94284</ele>
        <time>2026-06-01T21:15:57.057000Z</time>
      </trkpt>
      <trkpt lat="50.330173" lon="7.619701">
        <ele>257.474825</ele>
        <time>2026-06-01T21:16:04.314000Z</time>
      </trkpt>
      <trkpt lat="50.330257" lon="7.619253">
        <ele>255.064506</ele>
        <time>2026-06-01T21:16:40.842000Z</time>
      </trkpt>
      <trkpt lat="50.330223" lon="7.618581">
        <ele>251.584691</ele>
        <time>2026-06-01T21:17:30.541000Z</time>
      </trkpt>
      <trkpt lat="50.330271" lon="7.61792">
        <ele>248.150532</ele>
        <time>2026-06-01T21:18:17.427000Z</time>
      </trkpt>
      <trkpt lat="50.330326" lon="7.617734">
        <ele>247.35647</ele>
        <time>2026-06-01T21:18:31.332000Z</time>
      </trkpt>
      <trkpt lat="50.330442" lon="7.617768">
        <ele>247.531179</ele>
        <time>2026-06-01T21:18:43.665000Z</time>
      </trkpt>
      <trkpt lat="50.330594" lon="7.617842">
        <ele>247.766819</ele>
        <time>2026-06-01T21:19:00.010000Z</time>
      </trkpt>
      <trkpt lat="50.330743" lon="7.617852">
        <ele>247.987605</ele>
        <time>2026-06-01T21:19:14.937000Z</time>
      </trkpt>
      <trkpt lat="50.331341" lon="7.617889">
        <ele>248.873587</ele>
        <time>2026-06-01T21:20:21.279000Z</time>
      </trkpt>
      <trkpt lat="50.331522" lon="7.61799">
        <ele>249.158035</ele>
        <time>2026-06-01T21:20:44.187000Z</time>
      </trkpt>
      <trkpt lat="50.332041" lon="7.618599">
        <ele>249.93805</ele>
        <time>2026-06-01T21:21:56.622000Z</time>
      </trkpt>
      <trkpt lat="50.332354" lon="7.618773">
        <ele>249.796162</ele>
        <time>2026-06-01T21:22:31.706000Z</time>
      </trkpt>
      <trkpt lat="50.332594" lon="7.618992">
        <ele>249.677505</ele>
        <time>2026-06-01T21:22:59.538000Z</time>
      </trkpt>
      <trkpt lat="50.332894" lon="7.619342">
        <ele>249.517705</ele>
        <time>2026-06-01T21:23:37.471000Z</time>
      </trkpt>
      <trkpt lat="50.333077" lon="7.619449">
        <ele>249.434257</ele>
        <time>2026-06-01T21:23:57.608000Z</time>
      </trkpt>
      <trkpt lat="50.333369" lon="7.619755">
        <ele>249.284173</ele>
        <time>2026-06-01T21:24:34.331000Z</time>
      </trkpt>
      <trkpt lat="50.333522" lon="7.619856">
        <ele>249.213243</ele>
        <time>2026-06-01T21:24:51.961000Z</time>
      </trkpt>
      <trkpt lat="50.333751" lon="7.620205">
        <ele>247.798935</ele>
        <time>2026-06-01T21:25:25.974000Z</time>
      </trkpt>
      <trkpt lat="50.334471" lon="7.620926">
        <ele>243.93145</ele>
        <time>2026-06-01T21:26:58.467000Z</time>
      </trkpt>
      <trkpt lat="50.334755" lon="7.621158">
        <ele>242.481845</ele>
        <time>2026-06-01T21:27:33.879000Z</time>
      </trkpt>
      <trkpt lat="50.33523" lon="7.621288">
        <ele>240.467835</ele>
        <time>2026-06-01T21:28:28.924000Z</time>
      </trkpt>
      <trkpt lat="50.335825" lon="7.621368">
        <ele>238.356013</ele>
        <time>2026-06-01T21:29:37.202000Z</time>
      </trkpt>
      <trkpt lat="50.335741" lon="7.621172">
        <ele>237.823135</ele>
        <time>2026-06-01T21:29:53.876000Z</time>
      </trkpt>
      <trkpt lat="50.336021" lon="7.621007">
        <ele>236.76525</ele>
        <time>2026-06-01T21:30:26.149000Z</time>
      </trkpt>
      <trkpt lat="50.336087" lon="7.620869">
        <ele>236.376023</ele>
        <time>2026-06-01T21:30:37.603000Z</time>
      </trkpt>
      <trkpt lat="50.33612" lon="7.620705">
        <ele>235.987892</ele>
        <time>2026-06-01T21:30:48.783000Z</time>
      </trkpt>
      <trkpt lat="50.336171" lon="7.620672">
        <ele>235.792766</ele>
        <time>2026-06-01T21:30:54.352000Z</time>
      </trkpt>
      <trkpt lat="50.336245" lon="7.620707">
        <ele>235.519416</ele>
        <time>2026-06-01T21:31:02.253000Z</time>
      </trkpt>
      <trkpt lat="50.336354" lon="7.620909">
        <ele>234.922374</ele>
        <time>2026-06-01T21:31:19.678000Z</time>
      </trkpt>
      <trkpt lat="50.336574" lon="7.621571">
        <ele>236.392748</ele>
        <time>2026-06-01T21:32:11.681000Z</time>
      </trkpt>
      <trkpt lat="50.336613" lon="7.621856">
        <ele>237.145745</ele>
        <time>2026-06-01T21:32:33.292000Z</time>
      </trkpt>
      <trkpt lat="50.336605" lon="7.622079">
        <ele>237.72275</ele>
        <time>2026-06-01T21:32:50.339000Z</time>
      </trkpt>
      <trkpt lat="50.336665" lon="7.622244">
        <ele>238.213332</ele>
        <time>2026-06-01T21:33:05.206000Z</time>
      </trkpt>
      <trkpt lat="50.336853" lon="7.622177">
        <ele>238.99369</ele>
        <time>2026-06-01T21:33:29.115000Z</time>
      </trkpt>
      <trkpt lat="50.337037" lon="7.622172">
        <ele>239.738532</ele>
        <time>2026-06-01T21:33:51.677000Z</time>
      </trkpt>
      <trkpt lat="50.337363" lon="7.622237">
        <ele>241.068642</ele>
        <time>2026-06-01T21:34:30.657000Z</time>
      </trkpt>
      <trkpt lat="50.337636" lon="7.622413">
        <ele>241.973068</ele>
        <time>2026-06-01T21:35:03.967000Z</time>
      </trkpt>
      <trkpt lat="50.337838" lon="7.62272">
        <ele>241.90768</ele>
        <time>2026-06-01T21:35:34.008000Z</time>
      </trkpt>
      <trkpt lat="50.337994" lon="7.62291">
        <ele>241.861769</ele>
        <time>2026-06-01T21:35:54.835000Z</time>
      </trkpt>
      <trkpt lat="50.338252" lon="7.623336">
        <ele>241.774679</ele>
        <time>2026-06-01T21:36:34.069000Z</time>
      </trkpt>
      <trkpt lat="50.338611" lon="7.624165">
        <ele>241.626113</ele>
        <time>2026-06-01T21:37:42.924000Z</time>
      </trkpt>
      <trkpt lat="50.338757" lon="7.624618">
        <ele>241.72207</ele>
        <time>2026-06-01T21:38:17.939000Z</time>
      </trkpt>
      <trkpt lat="50.338812" lon="7.624576">
        <ele>241.829165</ele>
        <time>2026-06-01T21:38:24.420000Z</time>
      </trkpt>
      <trkpt lat="50.339225" lon="7.62472">
        <ele>242.569748</ele>
        <time>2026-06-01T21:39:06.813000Z</time>
      </trkpt>
      <trkpt lat="50.3394" lon="7.624691">
        <ele>242.877769</ele>
        <time>2026-06-01T21:39:25.809000Z</time>
      </trkpt>
      <trkpt lat="50.338929" lon="7.626177">
        <ele>244.724748</ele>
        <time>2026-06-01T21:41:24.513000Z</time>
      </trkpt>
      <trkpt lat="50.338821" lon="7.626574">
        <ele>244.945983</ele>
        <time>2026-06-01T21:41:58.243000Z</time>
      </trkpt>
      <trkpt lat="50.33882" lon="7.626647">
        <ele>244.983415</ele>
        <time>2026-06-01T21:42:03.734000Z</time>
      </trkpt>
      <trkpt lat="50.338893" lon="7.626691">
        <ele>245.046238</ele>
        <time>2026-06-01T21:42:12.879000Z</time>
      </trkpt>
      <trkpt lat="50.338982" lon="7.626802">
        <ele>245.137606</ele>
        <time>2026-06-01T21:42:25.704000Z</time>
      </trkpt>
      <trkpt lat="50.339221" lon="7.627184">
        <ele>245.411832</ele>
        <time>2026-06-01T21:43:02.550000Z</time>
      </trkpt>
      <trkpt lat="50.339468" lon="7.62785">
        <ele>245.806705</ele>
        <time>2026-06-01T21:43:52.238000Z</time>
      </trkpt>
      <trkpt lat="50.339444" lon="7.628248">
        <ele>246.011643</ele>
        <time>2026-06-01T21:44:19.311000Z</time>
      </trkpt>
      <trkpt lat="50.339476" lon="7.628496">
        <ele>246.141349</ele>
        <time>2026-06-01T21:44:36.454000Z</time>
      </trkpt>
      <trkpt lat="50.339417" lon="7.628903">
        <ele>244.994385</ele>
        <time>2026-06-01T21:45:04.734000Z</time>
      </trkpt>
      <trkpt lat="50.339377" lon="7.629219">
        <ele>243.985458</ele>
        <time>2026-06-01T21:45:26.785000Z</time>
      </trkpt>
      <trkpt lat="50.339418" lon="7.629305">
        <ele>243.649278</ele>
        <time>2026-06-01T21:45:34.090000Z</time>
      </trkpt>
      <trkpt lat="50.339498" lon="7.62929">
        <ele>243.253921</ele>
        <time>2026-06-01T21:45:42.844000Z</time>
      </trkpt>
      <trkpt lat="50.33962" lon="7.62913">
        <ele>242.473236</ele>
        <time>2026-06-01T21:46:00.033000Z</time>
      </trkpt>
      <trkpt lat="50.339716" lon="7.629076">
        <ele>241.972731</ele>
        <time>2026-06-01T21:46:11.175000Z</time>
      </trkpt>
      <trkpt lat="50.339815" lon="7.628737">
        <ele>240.805194</ele>
        <time>2026-06-01T21:46:37.278000Z</time>
      </trkpt>
      <trkpt lat="50.339931" lon="7.628548">
        <ele>239.984007</ele>
        <time>2026-06-01T21:46:55.828000Z</time>
      </trkpt>
      <trkpt lat="50.34015" lon="7.628287">
        <ele>238.633844</ele>
        <time>2026-06-01T21:47:26.780000Z</time>
      </trkpt>
      <trkpt lat="50.340519" lon="7.627679">
        <ele>234.839283</ele>
        <time>2026-06-01T21:48:28.446000Z</time>
      </trkpt>
      <trkpt lat="50.341038" lon="7.627016">
        <ele>228.674057</ele>
        <time>2026-06-01T21:49:47.248000Z</time>
      </trkpt>
      <trkpt lat="50.341202" lon="7.626864">
        <ele>226.91975</ele>
        <time>2026-06-01T21:50:09.730000Z</time>
      </trkpt>
      <trkpt lat="50.341432" lon="7.626532">
        <ele>224.040545</ele>
        <time>2026-06-01T21:50:46.826000Z</time>
      </trkpt>
      <trkpt lat="50.341474" lon="7.626495">
        <ele>223.596929</ele>
        <time>2026-06-01T21:50:52.513000Z</time>
      </trkpt>
      <trkpt lat="50.341773" lon="7.62623">
        <ele>220.384362</ele>
        <time>2026-06-01T21:51:34.460000Z</time>
      </trkpt>
      <trkpt lat="50.342089" lon="7.626035">
        <ele>216.804341</ele>
        <time>2026-06-01T21:52:16.580000Z</time>
      </trkpt>
      <trkpt lat="50.342186" lon="7.625919">
        <ele>215.518076</ele>
        <time>2026-06-01T21:52:31.876000Z</time>
      </trkpt>
      <trkpt lat="50.34235" lon="7.625559">
        <ele>212.542517</ele>
        <time>2026-06-01T21:53:06.379000Z</time>
      </trkpt>
      <trkpt lat="50.342416" lon="7.625389">
        <ele>211.203877</ele>
        <time>2026-06-01T21:53:21.651000Z</time>
      </trkpt>
      <trkpt lat="50.342453" lon="7.625217">
        <ele>209.982809</ele>
        <time>2026-06-01T21:53:35.639000Z</time>
      </trkpt>
      <trkpt lat="50.342565" lon="7.624374">
        <ele>204.19008</ele>
        <time>2026-06-01T21:54:41.723000Z</time>
      </trkpt>
      <trkpt lat="50.342577" lon="7.62428">
        <ele>203.545184</ele>
        <time>2026-06-01T21:54:49.060000Z</time>
      </trkpt>
      <trkpt lat="50.342653" lon="7.624231">
        <ele>202.678888</ele>
        <time>2026-06-01T21:54:59.016000Z</time>
      </trkpt>
      <trkpt lat="50.342661" lon="7.624187">
        <ele>202.371108</ele>
        <time>2026-06-01T21:55:02.483000Z</time>
      </trkpt>
      <trkpt lat="50.342842" lon="7.623955">
        <ele>200.45249</ele>
        <time>2026-06-01T21:55:30.238000Z</time>
      </trkpt>
      <trkpt lat="50.342987" lon="7.623581">
        <ele>198.34974</ele>
        <time>2026-06-01T21:56:02.765000Z</time>
      </trkpt>
      <trkpt lat="50.343115" lon="7.622984">
        <ele>195.32352</ele>
        <time>2026-06-01T21:56:48.732000Z</time>
      </trkpt>
      <trkpt lat="50.343271" lon="7.622441">
        <ele>192.462157</ele>
        <time>2026-06-01T21:57:31.811000Z</time>
      </trkpt>
      <trkpt lat="50.343202" lon="7.622003">
        <ele>190.294349</ele>
        <time>2026-06-01T21:58:04.657000Z</time>
      </trkpt>
      <trkpt lat="50.34319" lon="7.621697">
        <ele>188.821214</ele>
        <time>2026-06-01T21:58:26.970000Z</time>
      </trkpt>
      <trkpt lat="50.343235" lon="7.621466">
        <ele>187.835006</ele>
        <time>2026-06-01T21:58:44.592000Z</time>
      </trkpt>
      <trkpt lat="50.343259" lon="7.621148">
        <ele>186.732392</ele>
        <time>2026-06-01T21:59:07.843000Z</time>
      </trkpt>
      <trkpt lat="50.343244" lon="7.620783">
        <ele>185.472968</ele>
        <time>2026-06-01T21:59:34.296000Z</time>
      </trkpt>
      <trkpt lat="50.343344" lon="7.620048">
        <ele>182.885236</ele>
        <time>2026-06-01T22:00:27.554000Z</time>
      </trkpt>
      <trkpt lat="50.343474" lon="7.619466">
        <ele>180.762011</ele>
        <time>2026-06-01T22:01:10.814000Z</time>
      </trkpt>
      <trkpt lat="50.343552" lon="7.619247">
        <ele>179.898435</ele>
        <time>2026-06-01T22:01:28.335000Z</time>
      </trkpt>
      <trkpt lat="50.343654" lon="7.618891">
        <ele>178.557732</ele>
        <time>2026-06-01T22:01:55.374000Z</time>
      </trkpt>
      <trkpt lat="50.343676" lon="7.618704">
        <ele>178.02186</ele>
        <time>2026-06-01T22:02:08.487000Z</time>
      </trkpt>
      <trkpt lat="50.34373" lon="7.618562">
        <ele>177.556025</ele>
        <time>2026-06-01T22:02:19.873000Z</time>
      </trkpt>
      <trkpt lat="50.343957" lon="7.618225">
        <ele>176.175169</ele>
        <time>2026-06-01T22:02:53.447000Z</time>
      </trkpt>
      <trkpt lat="50.343994" lon="7.618102">
        <ele>175.791963</ele>
        <time>2026-06-01T22:03:02.776000Z</time>
      </trkpt>
      <trkpt lat="50.344001" lon="7.617914">
        <ele>175.261256</ele>
        <time>2026-06-01T22:03:15.585000Z</time>
      </trkpt>
      <trkpt lat="50.343936" lon="7.617468">
        <ele>173.972017</ele>
        <time>2026-06-01T22:03:46.990000Z</time>
      </trkpt>
      <trkpt lat="50.34392" lon="7.616523">
        <ele>171.307956</ele>
        <time>2026-06-01T22:04:53.278000Z</time>
      </trkpt>
      <trkpt lat="50.343955" lon="7.616423">
        <ele>170.986544</ele>
        <time>2026-06-01T22:05:01.294000Z</time>
      </trkpt>
      <trkpt lat="50.344351" lon="7.615905">
        <ele>167.415543</ele>
        <time>2026-06-01T22:05:59Z</time>
      </trkpt>
      <trkpt lat="50.344444" lon="7.615861">
        <ele>166.697635</ele>
        <time>2026-06-01T22:06:10.039000Z</time>
      </trkpt>
      <trkpt lat="50.344519" lon="7.615738">
        <ele>165.895342</ele>
        <time>2026-06-01T22:06:22.320000Z</time>
      </trkpt>
      <trkpt lat="50.344611" lon="7.615511">
        <ele>164.627159</ele>
        <time>2026-06-01T22:06:41.953000Z</time>
      </trkpt>
      <trkpt lat="50.34498" lon="7.614224">
        <ele>157.973221</ele>
        <time>2026-06-01T22:08:26.743000Z</time>
      </trkpt>
      <trkpt lat="50.345078" lon="7.614056">
        <ele>156.762024</ele>
        <time>2026-06-01T22:08:43.876000Z</time>
      </trkpt>
      <trkpt lat="50.345239" lon="7.613533">
        <ele>153.159996</ele>
        <time>2026-06-01T22:09:27.829000Z</time>
      </trkpt>
      <trkpt lat="50.345461" lon="7.613223">
        <ele>150.269561</ele>
        <time>2026-06-01T22:10:03.654000Z</time>
      </trkpt>
      <trkpt lat="50.345872" lon="7.612479">
        <ele>144.165421</ele>
        <time>2026-06-01T22:11:19.571000Z</time>
      </trkpt>
      <trkpt lat="50.34594" lon="7.612351">
        <ele>143.132297</ele>
        <time>2026-06-01T22:11:32.432000Z</time>
      </trkpt>
      <trkpt lat="50.345965" lon="7.611782">
        <ele>139.660156</ele>
        <time>2026-06-01T22:12:15.810000Z</time>
      </trkpt>
      <trkpt lat="50.34594" lon="7.611653">
        <ele>139.03653</ele>
        <time>2026-06-01T22:12:25.984000Z</time>
      </trkpt>
      <trkpt lat="50.345627" lon="7.611292">
        <ele>136.219429</ele>
        <time>2026-06-01T22:13:11.552000Z</time>
      </trkpt>
      <trkpt lat="50.345431" lon="7.611196">
        <ele>134.730916</ele>
        <time>2026-06-01T22:13:35.195000Z</time>
      </trkpt>
      <trkpt lat="50.34537" lon="7.611133">
        <ele>134.201352</ele>
        <time>2026-06-01T22:13:43.671000Z</time>
      </trkpt>
      <trkpt lat="50.345085" lon="7.610424">
        <ele>130.325265</ele>
        <time>2026-06-01T22:14:44.061000Z</time>
      </trkpt>
      <trkpt lat="50.345076" lon="7.610246">
        <ele>129.499293</ele>
        <time>2026-06-01T22:14:56.796000Z</time>
      </trkpt>
      <trkpt lat="50.34513" lon="7.60965">
        <ele>126.714398</ele>
        <time>2026-06-01T22:15:39.653000Z</time>
      </trkpt>
      <trkpt lat="50.345207" lon="7.609457">
        <ele>125.658628</ele>
        <time>2026-06-01T22:15:55.868000Z</time>
      </trkpt>
      <trkpt lat="50.345342" lon="7.609324">
        <ele>124.499572</ele>
        <time>2026-06-01T22:16:13.525000Z</time>
      </trkpt>
      <trkpt lat="50.345453" lon="7.609095">
        <ele>123.16571</ele>
        <time>2026-06-01T22:16:34.048000Z</time>
      </trkpt>
      <trkpt lat="50.345702" lon="7.608319">
        <ele>119.136913</ele>
        <time>2026-06-01T22:17:37.149000Z</time>
      </trkpt>
      <trkpt lat="50.345835" lon="7.607831">
        <ele>116.675595</ele>
        <time>2026-06-01T22:18:16.266000Z</time>
      </trkpt>
      <trkpt lat="50.346033" lon="7.607342">
        <ele>113.989386</ele>
        <time>2026-06-01T22:18:59.540000Z</time>
      </trkpt>
      <trkpt lat="50.346043" lon="7.607267">
        <ele>113.55686</ele>
        <time>2026-06-01T22:19:05.347000Z</time>
      </trkpt>
      <trkpt lat="50.346143" lon="7.607044">
        <ele>111.390268</ele>
        <time>2026-06-01T22:19:25.838000Z</time>
      </trkpt>
      <trkpt lat="50.346185" lon="7.606843">
        <ele>109.708993</ele>
        <time>2026-06-01T22:19:41.859000Z</time>
      </trkpt>
      <trkpt lat="50.346185" lon="7.606711">
        <ele>108.659692</ele>
        <time>2026-06-01T22:19:51.859000Z</time>
      </trkpt>
      <trkpt lat="50.346176" lon="7.606682">
        <ele>108.403349</ele>
        <time>2026-06-01T22:19:54.287000Z</time>
      </trkpt>
      <trkpt lat="50.346172" lon="7.606667">
        <ele>108.274118</ele>
        <time>2026-06-01T22:19:55.489000Z</time>
      </trkpt>
      <trkpt lat="50.346497" lon="7.606357">
        <ele>103.534657</ele>
        <time>2026-06-01T22:20:42.599000Z</time>
      </trkpt>
      <trkpt lat="50.346787" lon="7.606252">
        <ele>99.827027</ele>
        <time>2026-06-01T22:21:20.369000Z</time>
      </trkpt>
      <trkpt lat="50.346955" lon="7.606243">
        <ele>97.733069</ele>
        <time>2026-06-01T22:21:42.027000Z</time>
      </trkpt>
      <trkpt lat="50.347162" lon="7.60635">
        <ele>95.017861</ele>
        <time>2026-06-01T22:22:09.610000Z</time>
      </trkpt>
      <trkpt lat="50.347247" lon="7.606323">
        <ele>93.937503</ele>
        <time>2026-06-01T22:22:20.866000Z</time>
      </trkpt>
      <trkpt lat="50.347375" lon="7.606265">
        <ele>92.27772</ele>
        <time>2026-06-01T22:22:38.121000Z</time>
      </trkpt>
      <trkpt lat="50.347853" lon="7.605556">
        <ele>85.172776</ele>
        <time>2026-06-01T22:24:02.891000Z</time>
      </trkpt>
      <trkpt lat="50.347891" lon="7.605465">
        <ele>84.438571</ele>
        <time>2026-06-01T22:24:11.636000Z</time>
      </trkpt>
      <trkpt lat="50.348068" lon="7.605522">
        <ele>82.526838</ele>
        <time>2026-06-01T22:24:34.391000Z</time>
      </trkpt>
      <trkpt lat="50.34815" lon="7.60532">
        <ele>80.910557</ele>
        <time>2026-06-01T22:24:53.315000Z</time>
      </trkpt>
      <trkpt lat="50.348219" lon="7.60516">
        <ele>79.60684</ele>
        <time>2026-06-01T22:25:08.111000Z</time>
      </trkpt>
      <trkpt lat="50.348342" lon="7.604884">
        <ele>77.334116</ele>
        <time>2026-06-01T22:25:33.314000Z</time>
      </trkpt>
      <trkpt lat="50.348405" lon="7.604743">
        <ele>76.172063</ele>
        <time>2026-06-01T22:25:45.909000Z</time>
      </trkpt>
      <trkpt lat="50.348599" lon="7.604867">
        <ele>73.955451</ele>
        <time>2026-06-01T22:26:09.435000Z</time>
      </trkpt>
      <trkpt lat="50.348703" lon="7.604938">
        <ele>72.755292</ele>
        <time>2026-06-01T22:26:21.835000Z</time>
      </trkpt>
      <trkpt lat="50.348865" lon="7.605015">
        <ele>72.14488</ele>
        <time>2026-06-01T22:26:40.350000Z</time>
      </trkpt>
      <trkpt lat="50.34906" lon="7.605174">
        <ele>71.862961</ele>
        <time>2026-06-01T22:27:04Z</time>
      </trkpt>
      <trkpt lat="50.349354" lon="7.605404">
        <ele>71.441527</ele>
        <time>2026-06-01T22:27:38.271000Z</time>
      </trkpt>
      <trkpt lat="50.349444" lon="7.605468">
        <ele>71.314772</ele>
        <time>2026-06-01T22:27:48.251000Z</time>
      </trkpt>
      <trkpt lat="50.349666" lon="7.605593">
        <ele>71.012231</ele>
        <time>2026-06-01T22:28:12.025000Z</time>
      </trkpt>
      <trkpt lat="50.349967" lon="7.605862">
        <ele>70.567833</ele>
        <time>2026-06-01T22:28:47.462000Z</time>
      </trkpt>
      <trkpt lat="50.350078" lon="7.60596">
        <ele>70.404435</ele>
        <time>2026-06-01T22:29:00.765000Z</time>
      </trkpt>
      <trkpt lat="50.350201" lon="7.606059">
        <ele>70.227096</ele>
        <time>2026-06-01T22:29:15.193000Z</time>
      </trkpt>
      <trkpt lat="50.350801" lon="7.606534">
        <ele>70.296305</ele>
        <time>2026-06-01T22:30:23.761000Z</time>
      </trkpt>
      <trkpt lat="50.350863" lon="7.606612">
        <ele>70.343664</ele>
        <time>2026-06-01T22:30:32.099000Z</time>
      </trkpt>
      <trkpt lat="50.350881" lon="7.606599">
        <ele>70.355469</ele>
        <time>2026-06-01T22:30:34.203000Z</time>
      </trkpt>
      <trkpt lat="50.351038" lon="7.606569">
        <ele>70.449681</ele>
        <time>2026-06-01T22:30:50.930000Z</time>
      </trkpt>
      <trkpt lat="50.351196" lon="7.606663">
        <ele>70.550349</ele>
        <time>2026-06-01T22:31:08.972000Z</time>
      </trkpt>
      <trkpt lat="50.351462" lon="7.606917">
        <ele>70.735889</ele>
        <time>2026-06-01T22:31:41.322000Z</time>
      </trkpt>
      <trkpt lat="50.351499" lon="7.606947">
        <ele>70.760704</ele>
        <time>2026-06-01T22:31:45.503000Z</time>
      </trkpt>
      <trkpt lat="50.35176" lon="7.607162">
        <ele>70.93634</ele>
        <time>2026-06-01T22:32:15.069000Z</time>
      </trkpt>
      <trkpt lat="50.351859" lon="7.60719">
        <ele>70.996263</ele>
        <time>2026-06-01T22:32:25.111000Z</time>
      </trkpt>
      <trkpt lat="50.351949" lon="7.607191">
        <ele>71.049874</ele>
        <time>2026-06-01T22:32:34.346000Z</time>
      </trkpt>
      <trkpt lat="50.352109" lon="7.607132">
        <ele>71.075177</ele>
        <time>2026-06-01T22:32:51.041000Z</time>
      </trkpt>
      <trkpt lat="50.352202" lon="7.607056">
        <ele>71.077542</ele>
        <time>2026-06-01T22:33:01.707000Z</time>
      </trkpt>
      <trkpt lat="50.352343" lon="7.606866">
        <ele>71.081735</ele>
        <time>2026-06-01T22:33:20.628000Z</time>
      </trkpt>
      <trkpt lat="50.352402" lon="7.606679">
        <ele>71.084737</ele>
        <time>2026-06-01T22:33:34.155000Z</time>
      </trkpt>
      <trkpt lat="50.353801" lon="7.602184">
        <ele>71.97886</ele>
        <time>2026-06-01T22:38:56.423000Z</time>
      </trkpt>
      <trkpt lat="50.35388" lon="7.601767">
        <ele>72.236202</ele>
        <time>2026-06-01T22:39:26.468000Z</time>
      </trkpt>
      <trkpt lat="50.35397" lon="7.601093">
        <ele>72.643578</ele>
        <time>2026-06-01T22:40:13.398000Z</time>
      </trkpt>
      <trkpt lat="50.353979" lon="7.600835">
        <ele>72.796438</ele>
        <time>2026-06-01T22:40:30.843000Z</time>
      </trkpt>
      <trkpt lat="50.353931" lon="7.600728">
        <ele>72.873819</ele>
        <time>2026-06-01T22:40:39.760000Z</time>
      </trkpt>
      <trkpt lat="50.353905" lon="7.600673">
        <ele>72.914314</ele>
        <time>2026-06-01T22:40:44.395000Z</time>
      </trkpt>
      <trkpt lat="50.353911" lon="7.600388">
        <ele>73.083012</ele>
        <time>2026-06-01T22:41:03.536000Z</time>
      </trkpt>
      <trkpt lat="50.353881" lon="7.600385">
        <ele>73.110885</ele>
        <time>2026-06-01T22:41:06.725000Z</time>
      </trkpt>
      <trkpt lat="50.353873" lon="7.600181">
        <ele>73.231798</ele>
        <time>2026-06-01T22:41:20.200000Z</time>
      </trkpt>
      <trkpt lat="50.353893" lon="7.600181">
        <ele>73.250343</ele>
        <time>2026-06-01T22:41:22.246000Z</time>
      </trkpt>
      <trkpt lat="50.354034" lon="7.600151">
        <ele>73.382278</ele>
        <time>2026-06-01T22:41:36.505000Z</time>
      </trkpt>
      <trkpt lat="50.354043" lon="7.600149">
        <ele>73.390706</ele>
        <time>2026-06-01T22:41:37.445000Z</time>
      </trkpt>
      <trkpt lat="50.354051" lon="7.600147">
        <ele>73.398218</ele>
        <time>2026-06-01T22:41:38.253000Z</time>
      </trkpt>
      <trkpt lat="50.354174" lon="7.600136">
        <ele>73.51245</ele>
        <time>2026-06-01T22:41:50.746000Z</time>
      </trkpt>
      <trkpt lat="50.354194" lon="7.60014">
        <ele>73.502498</ele>
        <time>2026-06-01T22:41:52.805000Z</time>
      </trkpt>
      <trkpt lat="50.354199" lon="7.599561">
        <ele>73.313845</ele>
        <time>2026-06-01T22:42:30.863000Z</time>
      </trkpt>
      <trkpt lat="50.354197" lon="7.599274">
        <ele>73.220336</ele>
        <time>2026-06-01T22:42:49.834000Z</time>
      </trkpt>
      <trkpt lat="50.354229" lon="7.599187">
        <ele>73.18762</ele>
        <time>2026-06-01T22:42:56.437000Z</time>
      </trkpt>
      <trkpt lat="50.354259" lon="7.599139">
        <ele>73.165729</ele>
        <time>2026-06-01T22:43:00.807000Z</time>
      </trkpt>
      <trkpt lat="50.354188" lon="7.5989">
        <ele>73.079838</ele>
        <time>2026-06-01T22:43:18.075000Z</time>
      </trkpt>
      <trkpt lat="50.354166" lon="7.598665">
        <ele>73.002456</ele>
        <time>2026-06-01T22:43:33.453000Z</time>
      </trkpt>
      <trkpt lat="50.354184" lon="7.598198">
        <ele>72.850033</ele>
        <time>2026-06-01T22:44:03.572000Z</time>
      </trkpt>
      <trkpt lat="50.35419" lon="7.598119">
        <ele>72.824113</ele>
        <time>2026-06-01T22:44:08.633000Z</time>
      </trkpt>
      <trkpt lat="50.354247" lon="7.598089">
        <ele>72.793411</ele>
        <time>2026-06-01T22:44:14.688000Z</time>
      </trkpt>
      <trkpt lat="50.354261" lon="7.598079">
        <ele>72.785555</ele>
        <time>2026-06-01T22:44:16.232000Z</time>
      </trkpt>
      <trkpt lat="50.354287" lon="7.598072">
        <ele>72.772084</ele>
        <time>2026-06-01T22:44:18.903000Z</time>
      </trkpt>
      <trkpt lat="50.354315" lon="7.598064">
        <ele>72.757551</ele>
        <time>2026-06-01T22:44:21.738000Z</time>
      </trkpt>
      <trkpt lat="50.354328" lon="7.598059">
        <ele>72.750716</ele>
        <time>2026-06-01T22:44:23.120000Z</time>
      </trkpt>
      <trkpt lat="50.354363" lon="7.598104">
        <ele>72.727601</ele>
        <time>2026-06-01T22:44:27.675000Z</time>
      </trkpt>
      <trkpt lat="50.354571" lon="7.598186">
        <ele>72.618084</ele>
        <time>2026-06-01T22:44:49.259000Z</time>
      </trkpt>
      <trkpt lat="50.354703" lon="7.5982">
        <ele>72.574648</ele>
        <time>2026-06-01T22:45:02.512000Z</time>
      </trkpt>
      <trkpt lat="50.355535" lon="7.598533">
        <ele>72.378068</ele>
        <time>2026-06-01T22:46:28.787000Z</time>
      </trkpt>
      <trkpt lat="50.355552" lon="7.59854">
        <ele>72.374044</ele>
        <time>2026-06-01T22:46:30.561000Z</time>
      </trkpt>
      <trkpt lat="50.355576" lon="7.598551">
        <ele>72.36832</ele>
        <time>2026-06-01T22:46:33.095000Z</time>
      </trkpt>
      <trkpt lat="50.35573" lon="7.598613">
        <ele>72.331921</ele>
        <time>2026-06-01T22:46:49.206000Z</time>
      </trkpt>
      <trkpt lat="50.356142" lon="7.59878">
        <ele>72.234499</ele>
        <time>2026-06-01T22:47:32.321000Z</time>
      </trkpt>
      <trkpt lat="50.356134" lon="7.598831">
        <ele>72.226829</ele>
        <time>2026-06-01T22:47:35.755000Z</time>
      </trkpt>
      <trkpt lat="50.356126" lon="7.598882">
        <ele>72.219158</ele>
        <time>2026-06-01T22:47:39.154000Z</time>
      </trkpt>
      <trkpt lat="50.35612" lon="7.598916">
        <ele>72.214005</ele>
        <time>2026-06-01T22:47:41.389000Z</time>
      </trkpt>
      <trkpt lat="50.356076" lon="7.599188">
        <ele>72.205491</ele>
        <time>2026-06-01T22:47:59.393000Z</time>
      </trkpt>
      <trkpt lat="50.356067" lon="7.599244">
        <ele>72.225974</ele>
        <time>2026-06-01T22:48:03.079000Z</time>
      </trkpt>
      <trkpt lat="50.35606" lon="7.599287">
        <ele>72.241714</ele>
        <time>2026-06-01T22:48:05.935000Z</time>
      </trkpt>
      <trkpt lat="50.356053" lon="7.599341">
        <ele>72.261258</ele>
        <time>2026-06-01T22:48:09.473000Z</time>
      </trkpt>
      <trkpt lat="50.35651" lon="7.599504">
        <ele>72.521806</ele>
        <time>2026-06-01T22:48:56.565000Z</time>
      </trkpt>
      <trkpt lat="50.356682" lon="7.599572">
        <ele>72.620418</ele>
        <time>2026-06-01T22:49:14.697000Z</time>
      </trkpt>
      <trkpt lat="50.356729" lon="7.599594">
        <ele>72.647686</ele>
        <time>2026-06-01T22:49:19.734000Z</time>
      </trkpt>
      <trkpt lat="50.357185" lon="7.599783">
        <ele>72.909896</ele>
        <time>2026-06-01T22:50:08.484000Z</time>
      </trkpt>
      <trkpt lat="50.357246" lon="7.599809">
        <ele>72.945039</ele>
        <time>2026-06-01T22:50:15.066000Z</time>
      </trkpt>
      <trkpt lat="50.357438" lon="7.599879">
        <ele>73.054624</ele>
        <time>2026-06-01T22:50:35.707000Z</time>
      </trkpt>
      <trkpt lat="50.357566" lon="7.599927">
        <ele>73.127789</ele>
        <time>2026-06-01T22:50:49.518000Z</time>
      </trkpt>
      <trkpt lat="50.357776" lon="7.600009">
        <ele>73.159051</ele>
        <time>2026-06-01T22:51:12.134000Z</time>
      </trkpt>
      <trkpt lat="50.357809" lon="7.600025">
        <ele>73.152233</ele>
        <time>2026-06-01T22:51:15.709000Z</time>
      </trkpt>
      <trkpt lat="50.357854" lon="7.600042">
        <ele>73.143096</ele>
        <time>2026-06-01T22:51:20.523000Z</time>
      </trkpt>
      <trkpt lat="50.357947" lon="7.60008">
        <ele>73.124126</ele>
        <time>2026-06-01T22:51:30.465000Z</time>
      </trkpt>
      <trkpt lat="50.357782" lon="7.60107">
        <ele>72.995276</ele>
        <time>2026-06-01T22:52:36.639000Z</time>
      </trkpt>
      <trkpt lat="50.357739" lon="7.601357">
        <ele>72.958151</ele>
        <time>2026-06-01T22:52:55.645000Z</time>
      </trkpt>
      <trkpt lat="50.35768" lon="7.601686">
        <ele>72.915116</ele>
        <time>2026-06-01T22:53:17.474000Z</time>
      </trkpt>
      <trkpt lat="50.357642" lon="7.601904">
        <ele>72.886658</ele>
        <time>2026-06-01T22:53:32.106000Z</time>
      </trkpt>
      <trkpt lat="50.357488" lon="7.602846">
        <ele>71.716275</ele>
        <time>2026-06-01T22:54:36.649000Z</time>
      </trkpt>
      <trkpt lat="50.357479" lon="7.602888">
        <ele>71.618135</ele>
        <time>2026-06-01T22:54:39.716000Z</time>
      </trkpt>
      <trkpt lat="50.357468" lon="7.602933">
        <ele>71.511391</ele>
        <time>2026-06-01T22:54:43.041000Z</time>
      </trkpt>
      <trkpt lat="50.357452" lon="7.603033">
        <ele>71.283024</ele>
        <time>2026-06-01T22:54:50.076000Z</time>
      </trkpt>
      <trkpt lat="50.357425" lon="7.603076">
        <ele>71.149383</ele>
        <time>2026-06-01T22:54:54.279000Z</time>
      </trkpt>
      <trkpt lat="50.357334" lon="7.603625">
        <ele>69.892933</ele>
        <time>2026-06-01T22:55:33.475000Z</time>
      </trkpt>
      <trkpt lat="50.357312" lon="7.603619">
        <ele>69.815403</ele>
        <time>2026-06-01T22:55:35.926000Z</time>
      </trkpt>
      <trkpt lat="50.357289" lon="7.603612">
        <ele>69.734057</ele>
        <time>2026-06-01T22:55:38.377000Z</time>
      </trkpt>
      <trkpt lat="50.357269" lon="7.603747">
        <ele>69.427065</ele>
        <time>2026-06-01T22:55:48.045000Z</time>
      </trkpt>
      <trkpt lat="50.357197" lon="7.603867">
        <ele>69.062175</ele>
        <time>2026-06-01T22:55:59.503000Z</time>
      </trkpt>
      <trkpt lat="50.357186" lon="7.603931">
        <ele>68.915356</ele>
        <time>2026-06-01T22:56:04.162000Z</time>
      </trkpt>
      <trkpt lat="50.357146" lon="7.604182">
        <ele>68.342286</ele>
        <time>2026-06-01T22:56:22.272000Z</time>
      </trkpt>
      <trkpt lat="50.357132" lon="7.604335">
        <ele>67.99991</ele>
        <time>2026-06-01T22:56:33.009000Z</time>
      </trkpt>
      <trkpt lat="50.357154" lon="7.604343">
        <ele>67.921499</ele>
        <time>2026-06-01T22:56:35.530000Z</time>
      </trkpt>
      <trkpt lat="50.357592" lon="7.604465">
        <ele>66.460132</ele>
        <time>2026-06-01T22:57:23.285000Z</time>
      </trkpt>
      <trkpt lat="50.357817" lon="7.604532">
        <ele>65.986538</ele>
        <time>2026-06-01T22:57:48.050000Z</time>
      </trkpt>
      <trkpt lat="50.358012" lon="7.604578">
        <ele>65.578761</ele>
        <time>2026-06-01T22:58:09.528000Z</time>
      </trkpt>
      <trkpt lat="50.358062" lon="7.60459">
        <ele>65.474162</ele>
        <time>2026-06-01T22:58:14.914000Z</time>
      </trkpt>
      <trkpt lat="50.358142" lon="7.604551">
        <ele>65.300915</ele>
        <time>2026-06-01T22:58:23.797000Z</time>
      </trkpt>
      <trkpt lat="50.358233" lon="7.60452">
        <ele>65.108345</ele>
        <time>2026-06-01T22:58:33.572000Z</time>
      </trkpt>
      <trkpt lat="50.35841" lon="7.604432">
        <ele>64.72436</ele>
        <time>2026-06-01T22:58:52.742000Z</time>
      </trkpt>
      <trkpt lat="50.35858" lon="7.604489">
        <ele>64.364868</ele>
        <time>2026-06-01T22:59:10.639000Z</time>
      </trkpt>
      <trkpt lat="50.358669" lon="7.604525">
        <ele>64.174798</ele>
        <time>2026-06-01T22:59:20.022000Z</time>
      </trkpt>
      <trkpt lat="50.35871" lon="7.604578">
        <ele>64.064902</ele>
        <time>2026-06-01T22:59:25.517000Z</time>
      </trkpt>
      <trkpt lat="50.358728" lon="7.604609">
        <ele>64.009603</ele>
        <time>2026-06-01T22:59:28.283000Z</time>
      </trkpt>
      <trkpt lat="50.358768" lon="7.604645">
        <ele>63.914222</ele>
        <time>2026-06-01T22:59:32.978000Z</time>
      </trkpt>
      <trkpt lat="50.359002" lon="7.604692">
        <ele>63.426383</ele>
        <time>2026-06-01T22:59:56.758000Z</time>
      </trkpt>
      <trkpt lat="50.359197" lon="7.604731">
        <ele>63.019878</ele>
        <time>2026-06-01T23:00:16.550000Z</time>
      </trkpt>
      <trkpt lat="50.359646" lon="7.604823">
        <ele>62.86324</ele>
        <time>2026-06-01T23:01:02.993000Z</time>
      </trkpt>
      <trkpt lat="50.359801" lon="7.604838">
        <ele>62.86324</ele>
        <time>2026-06-01T23:01:18.884000Z</time>
      </trkpt>
      <trkpt lat="50.359982" lon="7.604884">
        <ele>62.86324</ele>
        <time>2026-06-01T23:01:37.305000Z</time>
      </trkpt>
      <trkpt lat="50.360745" lon="7.605169">
        <ele>62.86324</ele>
        <time>2026-06-01T23:02:57.861000Z</time>
      </trkpt>
      <trkpt lat="50.360901" lon="7.605226">
        <ele>62.86324</ele>
        <time>2026-06-01T23:03:14.357000Z</time>
      </trkpt>
      <trkpt lat="50.3612" lon="7.605333">
        <ele>62.86324</ele>
        <time>2026-06-01T23:03:45.664000Z</time>
      </trkpt>
    </trkseg>
  </trk>
</gpx>