<?xml version="1.0" encoding="UTF-8"?>
<gpx xmlns="http://www.topografix.com/GPX/1/1" xmlns:xsi="http://www.w3.org/2001/XMLSchema-instance" xsi:schemaLocation="http://www.topografix.com/GPX/1/1 http://www.topografix.com/GPX/1/1/gpx.xsd" version="1.1" creator="https://www.komoot.de">
  <metadata>
    <name>from Lüdenscheid to Altena</name>
    <author>
      <link href="https://www.komoot.de">
        <text>komoot</text>
        <type>text/html</type>
      </link>
    </author>
  </metadata>
  <wpt lat="51.220554" lon="7.628857">
    <name>Lüdenscheid</name>
    <sym>Flag, Blue</sym>
  </wpt>
  <wpt lat="51.235508" lon="7.649144">
    <name>Bridge Over the A45</name>
    <sym>Bridge</sym>
  </wpt>
  <wpt lat="51.236771" lon="7.650283">
    <name>Bench With Panoramic View of Sauerland</name>
    <sym>Flag, Blue</sym>
  </wpt>
  <wpt lat="51.240217" lon="7.652814">
    <name>Forest Trail in Naturpark Sauerland-Rothaargebirge</name>
    <sym>Flag, Blue</sym>
  </wpt>
  <wpt lat="51.242388" lon="7.657585">
    <name>Grünewegs Siepen Stream Trail</name>
    <sym>Flag, Blue</sym>
  </wpt>
  <wpt lat="51.244028" lon="7.659259">
    <name>Musikantenweg</name>
    <sym>Flag, Blue</sym>
  </wpt>
  <wpt lat="51.245377" lon="7.65977">
    <name>Path Along the Fuelbecke Reservoir</name>
    <sym>Flag, Blue</sym>
  </wpt>
  <wpt lat="51.24774" lon="7.661757">
    <name>Old Grotto Wall</name>
    <sym>Flag, Blue</sym>
  </wpt>
  <wpt lat="51.248623" lon="7.661827">
    <name>Fuelbecke Reservoir</name>
    <sym>Flag, Blue</sym>
  </wpt>
  <wpt lat="51.254194" lon="7.66208">
    <name>Altroggenrahmede Church</name>
    <sym>Flag, Blue</sym>
  </wpt>
  <wpt lat="51.255581" lon="7.662183">
    <name>Rahmedebach Stream</name>
    <sym>Flag, Blue</sym>
  </wpt>
  <wpt lat="51.25627" lon="7.661603">
    <name>View of Altroggenrahmede</name>
    <sym>Flag, Blue</sym>
  </wpt>
  <wpt lat="51.260036" lon="7.656196">
    <name>View of the Fuelbecke dam</name>
    <sym>Flag, Blue</sym>
  </wpt>
  <wpt lat="51.271515" lon="7.645924">
    <name>Gasthof Spelsberg</name>
    <sym>Restaurant</sym>
  </wpt>
  <wpt lat="51.272684" lon="7.648107">
    <name>View from Großendrescheid</name>
    <sym>Flag, Blue</sym>
  </wpt>
  <wpt lat="51.274873" lon="7.652026">
    <name>Bench with a view of the Sauerland countryside</name>
    <sym>Flag, Blue</sym>
  </wpt>
  <wpt lat="51.278125" lon="7.656478">
    <name>Panoramic view over the Lenne Valley</name>
    <sym>Flag, Blue</sym>
  </wpt>
  <wpt lat="51.282459" lon="7.660235">
    <name>Mixed forest in Sauerland</name>
    <sym>Flag, Blue</sym>
  </wpt>
  <wpt lat="51.289041" lon="7.661023">
    <name>Highland Cattle in Sauerland</name>
    <sym>Flag, Blue</sym>
  </wpt>
  <wpt lat="51.290216" lon="7.660845">
    <name>Rustic Pine Forest</name>
    <sym>Flag, Blue</sym>
  </wpt>
  <wpt lat="51.29488" lon="7.660539">
    <name>Impressive woodpile at Dickenhagen</name>
    <sym>Flag, Blue</sym>
  </wpt>
  <wpt lat="51.290875" lon="7.666337">
    <name>Franzosenteich</name>
    <sym>Flag, Blue</sym>
  </wpt>
  <wpt lat="51.288544" lon="7.67274">
    <name>Forest Gate</name>
    <sym>Flag, Blue</sym>
  </wpt>
  <wpt lat="51.288066" lon="7.67892">
    <name>Stone Bridge Altena</name>
    <sym>Bridge</sym>
  </wpt>
  <wpt lat="51.288336" lon="7.678371">
    <name>View of the Steinerne Brücke</name>
    <sym>Flag, Blue</sym>
  </wpt>
  <wpt lat="51.292507" lon="7.672955">
    <name>Tourist Information Altena (Adventure Elevator to the Castle)</name>
    <sym>Picnic Area</sym>
  </wpt>
  <wpt lat="51.296079" lon="7.674412">
    <name>View of the Church in Altena</name>
    <sym>Flag, Blue</sym>
  </wpt>
  <wpt lat="51.296936" lon="7.673453">
    <name>The Wire Drawers Sculpture</name>
    <sym>Flag, Blue</sym>
  </wpt>
  <wpt lat="51.298596" lon="7.675144">
    <name>Altena Castle</name>
    <sym>Flag, Blue</sym>
  </wpt>
  <wpt lat="51.299985" lon="7.675093">
    <name>Altena Castle Courtyard</name>
    <sym>Flag, Blue</sym>
  </wpt>
  <wpt lat="51.301844" lon="7.668974">
    <name>Altena (Westfalen)</name>
    <sym>Flag, Blue</sym>
  </wpt>
  <trk>
    <name>from Lüdenscheid to Altena</name>
    <type>hike</type>
    <trkseg>
      <trkpt lat="51.220551" lon="7.628876">
        <ele>404.640543</ele>
        <time>2026-07-14T19:56:00.994000Z</time>
      </trkpt>
      <trkpt lat="51.220482" lon="7.628845">
        <ele>404.640543</ele>
        <time>2026-07-14T19:56:08.402000Z</time>
      </trkpt>
      <trkpt lat="51.220464" lon="7.628935">
        <ele>404.640543</ele>
        <time>2026-07-14T19:56:14.554000Z</time>
      </trkpt>
      <trkpt lat="51.220222" lon="7.628804">
        <ele>404.640543</ele>
        <time>2026-07-14T19:56:41.269000Z</time>
      </trkpt>
      <trkpt lat="51.22009" lon="7.62868">
        <ele>404.640543</ele>
        <time>2026-07-14T19:56:57.402000Z</time>
      </trkpt>
      <trkpt lat="51.220066" lon="7.628659">
        <ele>404.640543</ele>
        <time>2026-07-14T19:57:00.251000Z</time>
      </trkpt>
      <trkpt lat="51.22005" lon="7.628663">
        <ele>404.640543</ele>
        <time>2026-07-14T19:57:02.049000Z</time>
      </trkpt>
      <trkpt lat="51.220012" lon="7.628682">
        <ele>404.640543</ele>
        <time>2026-07-14T19:57:06.245000Z</time>
      </trkpt>
      <trkpt lat="51.219864" lon="7.628696">
        <ele>404.640543</ele>
        <time>2026-07-14T19:57:21.996000Z</time>
      </trkpt>
      <trkpt lat="51.219831" lon="7.628697">
        <ele>404.640543</ele>
        <time>2026-07-14T19:57:25.571000Z</time>
      </trkpt>
      <trkpt lat="51.219831" lon="7.62862">
        <ele>404.640543</ele>
        <time>2026-07-14T19:57:30.658000Z</time>
      </trkpt>
      <trkpt lat="51.219999" lon="7.628418">
        <ele>405.063067</ele>
        <time>2026-07-14T19:57:53.207000Z</time>
      </trkpt>
      <trkpt lat="51.22009" lon="7.628282">
        <ele>405.385376</ele>
        <time>2026-07-14T19:58:06.726000Z</time>
      </trkpt>
      <trkpt lat="51.220241" lon="7.628142">
        <ele>405.836888</ele>
        <time>2026-07-14T19:58:25.655000Z</time>
      </trkpt>
      <trkpt lat="51.220452" lon="7.628129">
        <ele>406.382894</ele>
        <time>2026-07-14T19:58:48.816000Z</time>
      </trkpt>
      <trkpt lat="51.22045" lon="7.628077">
        <ele>406.467269</ele>
        <time>2026-07-14T19:58:52.362000Z</time>
      </trkpt>
      <trkpt lat="51.221505" lon="7.628004">
        <ele>409.197827</ele>
        <time>2026-07-14T20:00:48.511000Z</time>
      </trkpt>
      <trkpt lat="51.222151" lon="7.627963">
        <ele>409.983636</ele>
        <time>2026-07-14T20:02:00.112000Z</time>
      </trkpt>
      <trkpt lat="51.222643" lon="7.627923">
        <ele>410.542374</ele>
        <time>2026-07-14T20:02:51.832000Z</time>
      </trkpt>
      <trkpt lat="51.222656" lon="7.627967">
        <ele>410.576932</ele>
        <time>2026-07-14T20:02:54.905000Z</time>
      </trkpt>
      <trkpt lat="51.222693" lon="7.628083">
        <ele>410.669401</ele>
        <time>2026-07-14T20:03:03.243000Z</time>
      </trkpt>
      <trkpt lat="51.222738" lon="7.628216">
        <ele>410.77678</ele>
        <time>2026-07-14T20:03:12.896000Z</time>
      </trkpt>
      <trkpt lat="51.222934" lon="7.628792">
        <ele>411.242419</ele>
        <time>2026-07-14T20:03:54.135000Z</time>
      </trkpt>
      <trkpt lat="51.223056" lon="7.628912">
        <ele>411.186736</ele>
        <time>2026-07-14T20:04:08.752000Z</time>
      </trkpt>
      <trkpt lat="51.223471" lon="7.628995">
        <ele>410.253167</ele>
        <time>2026-07-14T20:04:52.449000Z</time>
      </trkpt>
      <trkpt lat="51.224018" lon="7.629015">
        <ele>409.031878</ele>
        <time>2026-07-14T20:05:50.103000Z</time>
      </trkpt>
      <trkpt lat="51.224763" lon="7.629026">
        <ele>407.368878</ele>
        <time>2026-07-14T20:07:08.245000Z</time>
      </trkpt>
      <trkpt lat="51.224913" lon="7.628991">
        <ele>406.650594</ele>
        <time>2026-07-14T20:07:24.406000Z</time>
      </trkpt>
      <trkpt lat="51.225111" lon="7.628837">
        <ele>405.506266</ele>
        <time>2026-07-14T20:07:47.989000Z</time>
      </trkpt>
      <trkpt lat="51.225256" lon="7.628602">
        <ele>404.432796</ele>
        <time>2026-07-14T20:08:10.257000Z</time>
      </trkpt>
      <trkpt lat="51.225296" lon="7.628653">
        <ele>404.166837</ele>
        <time>2026-07-14T20:08:15.829000Z</time>
      </trkpt>
      <trkpt lat="51.225412" lon="7.628816">
        <ele>403.363978</ele>
        <time>2026-07-14T20:08:32.728000Z</time>
      </trkpt>
      <trkpt lat="51.2255" lon="7.628934">
        <ele>402.76691</ele>
        <time>2026-07-14T20:08:45.289000Z</time>
      </trkpt>
      <trkpt lat="51.225658" lon="7.6293">
        <ele>401.320442</ele>
        <time>2026-07-14T20:09:16.212000Z</time>
      </trkpt>
      <trkpt lat="51.22581" lon="7.629758">
        <ele>399.633819</ele>
        <time>2026-07-14T20:09:52.827000Z</time>
      </trkpt>
      <trkpt lat="51.225945" lon="7.630395">
        <ele>397.143515</ele>
        <time>2026-07-14T20:10:41.333000Z</time>
      </trkpt>
      <trkpt lat="51.22595" lon="7.630651">
        <ele>395.831071</ele>
        <time>2026-07-14T20:10:59.961000Z</time>
      </trkpt>
      <trkpt lat="51.226417" lon="7.631993">
        <ele>387.964026</ele>
        <time>2026-07-14T20:12:52.583000Z</time>
      </trkpt>
      <trkpt lat="51.226754" lon="7.632857">
        <ele>382.868824</ele>
        <time>2026-07-14T20:14:07.502000Z</time>
      </trkpt>
      <trkpt lat="51.226907" lon="7.633324">
        <ele>380.812138</ele>
        <time>2026-07-14T20:14:45.156000Z</time>
      </trkpt>
      <trkpt lat="51.227074" lon="7.63428">
        <ele>376.939153</ele>
        <time>2026-07-14T20:15:55.180000Z</time>
      </trkpt>
      <trkpt lat="51.2271" lon="7.634437">
        <ele>376.30544</ele>
        <time>2026-07-14T20:16:06.803000Z</time>
      </trkpt>
      <trkpt lat="51.227111" lon="7.634476">
        <ele>376.138528</ele>
        <time>2026-07-14T20:16:09.832000Z</time>
      </trkpt>
      <trkpt lat="51.227282" lon="7.634499">
        <ele>375.069204</ele>
        <time>2026-07-14T20:16:29.276000Z</time>
      </trkpt>
      <trkpt lat="51.227345" lon="7.634485">
        <ele>374.672849</ele>
        <time>2026-07-14T20:16:36.402000Z</time>
      </trkpt>
      <trkpt lat="51.227457" lon="7.63437">
        <ele>373.843118</ele>
        <time>2026-07-14T20:16:51.300000Z</time>
      </trkpt>
      <trkpt lat="51.227349" lon="7.634637">
        <ele>372.602777</ele>
        <time>2026-07-14T20:17:13.210000Z</time>
      </trkpt>
      <trkpt lat="51.227374" lon="7.634635">
        <ele>372.446799</ele>
        <time>2026-07-14T20:17:15.979000Z</time>
      </trkpt>
      <trkpt lat="51.227385" lon="7.634677">
        <ele>372.26915</ele>
        <time>2026-07-14T20:17:19.061000Z</time>
      </trkpt>
      <trkpt lat="51.227396" lon="7.634711">
        <ele>372.119814</ele>
        <time>2026-07-14T20:17:21.640000Z</time>
      </trkpt>
      <trkpt lat="51.22754" lon="7.634769">
        <ele>371.80808</ele>
        <time>2026-07-14T20:17:37.722000Z</time>
      </trkpt>
      <trkpt lat="51.227671" lon="7.634817">
        <ele>371.574038</ele>
        <time>2026-07-14T20:17:52.123000Z</time>
      </trkpt>
      <trkpt lat="51.227656" lon="7.634979">
        <ele>371.395462</ele>
        <time>2026-07-14T20:18:03.164000Z</time>
      </trkpt>
      <trkpt lat="51.227641" lon="7.635132">
        <ele>371.226589</ele>
        <time>2026-07-14T20:18:13.448000Z</time>
      </trkpt>
      <trkpt lat="51.228037" lon="7.635157">
        <ele>370.536487</ele>
        <time>2026-07-14T20:18:55.946000Z</time>
      </trkpt>
      <trkpt lat="51.228133" lon="7.635083">
        <ele>370.350863</ele>
        <time>2026-07-14T20:19:07.304000Z</time>
      </trkpt>
      <trkpt lat="51.228389" lon="7.635026">
        <ele>369.900772</ele>
        <time>2026-07-14T20:19:34.558000Z</time>
      </trkpt>
      <trkpt lat="51.228592" lon="7.634913">
        <ele>369.526422</ele>
        <time>2026-07-14T20:19:56.279000Z</time>
      </trkpt>
      <trkpt lat="51.228633" lon="7.635028">
        <ele>369.382122</ele>
        <time>2026-07-14T20:20:05.058000Z</time>
      </trkpt>
      <trkpt lat="51.228574" lon="7.635359">
        <ele>369.006849</ele>
        <time>2026-07-14T20:20:28.430000Z</time>
      </trkpt>
      <trkpt lat="51.228233" lon="7.635989">
        <ele>370.942459</ele>
        <time>2026-07-14T20:21:27.093000Z</time>
      </trkpt>
      <trkpt lat="51.228182" lon="7.636146">
        <ele>371.422319</ele>
        <time>2026-07-14T20:21:39.826000Z</time>
      </trkpt>
      <trkpt lat="51.228089" lon="7.636647">
        <ele>372.84006</ele>
        <time>2026-07-14T20:22:18.071000Z</time>
      </trkpt>
      <trkpt lat="51.228089" lon="7.637243">
        <ele>374.457087</ele>
        <time>2026-07-14T20:23:02.667000Z</time>
      </trkpt>
      <trkpt lat="51.228115" lon="7.637672">
        <ele>375.626459</ele>
        <time>2026-07-14T20:23:35.154000Z</time>
      </trkpt>
      <trkpt lat="51.228185" lon="7.63842">
        <ele>377.434012</ele>
        <time>2026-07-14T20:24:31.187000Z</time>
      </trkpt>
      <trkpt lat="51.228249" lon="7.638983">
        <ele>378.595971</ele>
        <time>2026-07-14T20:25:11.578000Z</time>
      </trkpt>
      <trkpt lat="51.22845" lon="7.639814">
        <ele>380.404967</ele>
        <time>2026-07-14T20:26:11.964000Z</time>
      </trkpt>
      <trkpt lat="51.228474" lon="7.640031">
        <ele>380.852443</ele>
        <time>2026-07-14T20:26:26.971000Z</time>
      </trkpt>
      <trkpt lat="51.228474" lon="7.64021">
        <ele>381.215933</ele>
        <time>2026-07-14T20:26:39.271000Z</time>
      </trkpt>
      <trkpt lat="51.228459" lon="7.640352">
        <ele>381.508362</ele>
        <time>2026-07-14T20:26:49.159000Z</time>
      </trkpt>
      <trkpt lat="51.228377" lon="7.640592">
        <ele>382.063544</ele>
        <time>2026-07-14T20:27:07.759000Z</time>
      </trkpt>
      <trkpt lat="51.228383" lon="7.641188">
        <ele>383.38848</ele>
        <time>2026-07-14T20:27:48.096000Z</time>
      </trkpt>
      <trkpt lat="51.228217" lon="7.642615">
        <ele>386.795185</ele>
        <time>2026-07-14T20:29:30.352000Z</time>
      </trkpt>
      <trkpt lat="51.228192" lon="7.642788">
        <ele>387.211917</ele>
        <time>2026-07-14T20:29:43.304000Z</time>
      </trkpt>
      <trkpt lat="51.228242" lon="7.642948">
        <ele>387.631628</ele>
        <time>2026-07-14T20:29:56.233000Z</time>
      </trkpt>
      <trkpt lat="51.228066" lon="7.64394">
        <ele>390.22054</ele>
        <time>2026-07-14T20:31:11.592000Z</time>
      </trkpt>
      <trkpt lat="51.227961" lon="7.644428">
        <ele>391.697056</ele>
        <time>2026-07-14T20:31:48.976000Z</time>
      </trkpt>
      <trkpt lat="51.227899" lon="7.644593">
        <ele>392.247671</ele>
        <time>2026-07-14T20:32:02.785000Z</time>
      </trkpt>
      <trkpt lat="51.227686" lon="7.64505">
        <ele>393.877803</ele>
        <time>2026-07-14T20:32:43.762000Z</time>
      </trkpt>
      <trkpt lat="51.227473" lon="7.645388">
        <ele>395.249923</ele>
        <time>2026-07-14T20:33:18.367000Z</time>
      </trkpt>
      <trkpt lat="51.227601" lon="7.645544">
        <ele>395.985689</ele>
        <time>2026-07-14T20:33:37.161000Z</time>
      </trkpt>
      <trkpt lat="51.227857" lon="7.646011">
        <ele>397.752928</ele>
        <time>2026-07-14T20:34:22.626000Z</time>
      </trkpt>
      <trkpt lat="51.228093" lon="7.646632">
        <ele>399.762259</ele>
        <time>2026-07-14T20:35:16.192000Z</time>
      </trkpt>
      <trkpt lat="51.228107" lon="7.646781">
        <ele>400.179025</ele>
        <time>2026-07-14T20:35:27.253000Z</time>
      </trkpt>
      <trkpt lat="51.228062" lon="7.646972">
        <ele>400.743508</ele>
        <time>2026-07-14T20:35:42.125000Z</time>
      </trkpt>
      <trkpt lat="51.227965" lon="7.646996">
        <ele>401.177085</ele>
        <time>2026-07-14T20:35:53.656000Z</time>
      </trkpt>
      <trkpt lat="51.227779" lon="7.647111">
        <ele>402.058108</ele>
        <time>2026-07-14T20:36:16.967000Z</time>
      </trkpt>
      <trkpt lat="51.22799" lon="7.647517">
        <ele>403.517526</ele>
        <time>2026-07-14T20:36:54.670000Z</time>
      </trkpt>
      <trkpt lat="51.228081" lon="7.647712">
        <ele>404.190221</ele>
        <time>2026-07-14T20:37:11.970000Z</time>
      </trkpt>
      <trkpt lat="51.228236" lon="7.648034">
        <ele>405.313647</ele>
        <time>2026-07-14T20:37:40.657000Z</time>
      </trkpt>
      <trkpt lat="51.228329" lon="7.648234">
        <ele>406.08837</ele>
        <time>2026-07-14T20:37:58.024000Z</time>
      </trkpt>
      <trkpt lat="51.228364" lon="7.648403">
        <ele>406.656302</ele>
        <time>2026-07-14T20:38:10.440000Z</time>
      </trkpt>
      <trkpt lat="51.228348" lon="7.648728">
        <ele>407.696443</ele>
        <time>2026-07-14T20:38:33.625000Z</time>
      </trkpt>
      <trkpt lat="51.228397" lon="7.648718">
        <ele>407.948129</ele>
        <time>2026-07-14T20:38:39.180000Z</time>
      </trkpt>
      <trkpt lat="51.228504" lon="7.648723">
        <ele>408.493528</ele>
        <time>2026-07-14T20:38:51.590000Z</time>
      </trkpt>
      <trkpt lat="51.228962" lon="7.648783">
        <ele>410.834883</ele>
        <time>2026-07-14T20:39:44.628000Z</time>
      </trkpt>
      <trkpt lat="51.229009" lon="7.648774">
        <ele>411.076064</ele>
        <time>2026-07-14T20:39:50.078000Z</time>
      </trkpt>
      <trkpt lat="51.229122" lon="7.648841">
        <ele>411.690205</ele>
        <time>2026-07-14T20:40:04.134000Z</time>
      </trkpt>
      <trkpt lat="51.229454" lon="7.648848">
        <ele>413.381896</ele>
        <time>2026-07-14T20:40:44.268000Z</time>
      </trkpt>
      <trkpt lat="51.229695" lon="7.648722">
        <ele>414.692906</ele>
        <time>2026-07-14T20:41:16.613000Z</time>
      </trkpt>
      <trkpt lat="51.229874" lon="7.648544">
        <ele>416.079551</ele>
        <time>2026-07-14T20:41:43.440000Z</time>
      </trkpt>
      <trkpt lat="51.230169" lon="7.648143">
        <ele>418.627057</ele>
        <time>2026-07-14T20:42:31.998000Z</time>
      </trkpt>
      <trkpt lat="51.230309" lon="7.648002">
        <ele>419.715478</ele>
        <time>2026-07-14T20:42:52.333000Z</time>
      </trkpt>
      <trkpt lat="51.230423" lon="7.64789">
        <ele>420.595636</ele>
        <time>2026-07-14T20:43:08.805000Z</time>
      </trkpt>
      <trkpt lat="51.230601" lon="7.647722">
        <ele>421.955292</ele>
        <time>2026-07-14T20:43:34.347000Z</time>
      </trkpt>
      <trkpt lat="51.230694" lon="7.64759">
        <ele>422.773488</ele>
        <time>2026-07-14T20:43:49.840000Z</time>
      </trkpt>
      <trkpt lat="51.230846" lon="7.647258">
        <ele>424.467008</ele>
        <time>2026-07-14T20:44:21.690000Z</time>
      </trkpt>
      <trkpt lat="51.23098" lon="7.64685">
        <ele>426.364104</ele>
        <time>2026-07-14T20:44:56.724000Z</time>
      </trkpt>
      <trkpt lat="51.231066" lon="7.646689">
        <ele>426.645284</ele>
        <time>2026-07-14T20:45:12.336000Z</time>
      </trkpt>
      <trkpt lat="51.231256" lon="7.646767">
        <ele>426.982567</ele>
        <time>2026-07-14T20:45:34.797000Z</time>
      </trkpt>
      <trkpt lat="51.231436" lon="7.647005">
        <ele>427.38434</ele>
        <time>2026-07-14T20:46:00.661000Z</time>
      </trkpt>
      <trkpt lat="51.231462" lon="7.647063">
        <ele>427.461132</ele>
        <time>2026-07-14T20:46:05.562000Z</time>
      </trkpt>
      <trkpt lat="51.231682" lon="7.647549">
        <ele>428.106745</ele>
        <time>2026-07-14T20:46:46.264000Z</time>
      </trkpt>
      <trkpt lat="51.232526" lon="7.648469">
        <ele>428.416873</ele>
        <time>2026-07-14T20:48:29.066000Z</time>
      </trkpt>
      <trkpt lat="51.233106" lon="7.649017">
        <ele>424.570326</ele>
        <time>2026-07-14T20:49:41.762000Z</time>
      </trkpt>
      <trkpt lat="51.233143" lon="7.649039">
        <ele>424.344972</ele>
        <time>2026-07-14T20:49:46.138000Z</time>
      </trkpt>
      <trkpt lat="51.233703" lon="7.648858">
        <ele>421.083751</ele>
        <time>2026-07-14T20:50:51.383000Z</time>
      </trkpt>
      <trkpt lat="51.233999" lon="7.648984">
        <ele>419.335232</ele>
        <time>2026-07-14T20:51:27.918000Z</time>
      </trkpt>
      <trkpt lat="51.234205" lon="7.649505">
        <ele>415.082729</ele>
        <time>2026-07-14T20:52:15.418000Z</time>
      </trkpt>
      <trkpt lat="51.23518" lon="7.649393">
        <ele>404.13038</ele>
        <time>2026-07-14T20:54:17.468000Z</time>
      </trkpt>
      <trkpt lat="51.235366" lon="7.649142">
        <ele>401.402101</ele>
        <time>2026-07-14T20:54:47.158000Z</time>
      </trkpt>
      <trkpt lat="51.235393" lon="7.648939">
        <ele>399.946234</ele>
        <time>2026-07-14T20:55:02.783000Z</time>
      </trkpt>
      <trkpt lat="51.235534" lon="7.649177">
        <ele>398.37809</ele>
        <time>2026-07-14T20:55:27.249000Z</time>
      </trkpt>
      <trkpt lat="51.235832" lon="7.649646">
        <ele>396.032216</ele>
        <time>2026-07-14T20:56:15.908000Z</time>
      </trkpt>
      <trkpt lat="51.235988" lon="7.6499">
        <ele>394.783094</ele>
        <time>2026-07-14T20:56:40.827000Z</time>
      </trkpt>
      <trkpt lat="51.236531" lon="7.650354">
        <ele>391.346448</ele>
        <time>2026-07-14T20:57:47.049000Z</time>
      </trkpt>
      <trkpt lat="51.2367" lon="7.650351">
        <ele>390.398779</ele>
        <time>2026-07-14T20:58:04.972000Z</time>
      </trkpt>
      <trkpt lat="51.236767" lon="7.650275">
        <ele>389.937993</ele>
        <time>2026-07-14T20:58:13.752000Z</time>
      </trkpt>
      <trkpt lat="51.2367" lon="7.650351">
        <ele>389.477207</ele>
        <time>2026-07-14T20:58:22.407000Z</time>
      </trkpt>
      <trkpt lat="51.23711" lon="7.650429">
        <ele>387.793309</ele>
        <time>2026-07-14T20:59:06.155000Z</time>
      </trkpt>
      <trkpt lat="51.237591" lon="7.650588">
        <ele>385.972629</ele>
        <time>2026-07-14T20:59:57.918000Z</time>
      </trkpt>
      <trkpt lat="51.238167" lon="7.650981">
        <ele>383.650961</ele>
        <time>2026-07-14T21:01:04.999000Z</time>
      </trkpt>
      <trkpt lat="51.238575" lon="7.651336">
        <ele>381.465227</ele>
        <time>2026-07-14T21:01:56.309000Z</time>
      </trkpt>
      <trkpt lat="51.238763" lon="7.651423">
        <ele>379.955334</ele>
        <time>2026-07-14T21:02:18.430000Z</time>
      </trkpt>
      <trkpt lat="51.239084" lon="7.65157">
        <ele>377.379345</ele>
        <time>2026-07-14T21:02:56.579000Z</time>
      </trkpt>
      <trkpt lat="51.239466" lon="7.652378">
        <ele>372.489419</ele>
        <time>2026-07-14T21:04:10.619000Z</time>
      </trkpt>
      <trkpt lat="51.239903" lon="7.652876">
        <ele>368.327291</ele>
        <time>2026-07-14T21:05:14.085000Z</time>
      </trkpt>
      <trkpt lat="51.240136" lon="7.652941">
        <ele>366.216871</ele>
        <time>2026-07-14T21:05:42.136000Z</time>
      </trkpt>
      <trkpt lat="51.240228" lon="7.652841">
        <ele>365.223962</ele>
        <time>2026-07-14T21:05:55.350000Z</time>
      </trkpt>
      <trkpt lat="51.240463" lon="7.652585">
        <ele>362.685953</ele>
        <time>2026-07-14T21:06:29.047000Z</time>
      </trkpt>
      <trkpt lat="51.240572" lon="7.652728">
        <ele>361.427407</ele>
        <time>2026-07-14T21:06:45.651000Z</time>
      </trkpt>
      <trkpt lat="51.240629" lon="7.653516">
        <ele>356.996383</ele>
        <time>2026-07-14T21:07:43.874000Z</time>
      </trkpt>
      <trkpt lat="51.240433" lon="7.654111">
        <ele>353.240716</ele>
        <time>2026-07-14T21:08:33.062000Z</time>
      </trkpt>
      <trkpt lat="51.240794" lon="7.654331">
        <ele>349.675701</ele>
        <time>2026-07-14T21:09:18.216000Z</time>
      </trkpt>
      <trkpt lat="51.240941" lon="7.654305">
        <ele>348.297357</ele>
        <time>2026-07-14T21:09:35.838000Z</time>
      </trkpt>
      <trkpt lat="51.241049" lon="7.654193">
        <ele>347.097328</ele>
        <time>2026-07-14T21:09:51.189000Z</time>
      </trkpt>
      <trkpt lat="51.241468" lon="7.653507">
        <ele>341.505599</ele>
        <time>2026-07-14T21:11:02.821000Z</time>
      </trkpt>
      <trkpt lat="51.24153" lon="7.65326">
        <ele>339.952982</ele>
        <time>2026-07-14T21:11:22.649000Z</time>
      </trkpt>
      <trkpt lat="51.241604" lon="7.653103">
        <ele>338.806394</ele>
        <time>2026-07-14T21:11:37.432000Z</time>
      </trkpt>
      <trkpt lat="51.241665" lon="7.653548">
        <ele>336.148587</ele>
        <time>2026-07-14T21:12:11.363000Z</time>
      </trkpt>
      <trkpt lat="51.241628" lon="7.654489">
        <ele>331.358436</ele>
        <time>2026-07-14T21:13:21.011000Z</time>
      </trkpt>
      <trkpt lat="51.241554" lon="7.655105">
        <ele>328.216642</ele>
        <time>2026-07-14T21:14:07.005000Z</time>
      </trkpt>
      <trkpt lat="51.241495" lon="7.655259">
        <ele>327.312285</ele>
        <time>2026-07-14T21:14:20.228000Z</time>
      </trkpt>
      <trkpt lat="51.241338" lon="7.655461">
        <ele>325.699311</ele>
        <time>2026-07-14T21:14:43.820000Z</time>
      </trkpt>
      <trkpt lat="51.241246" lon="7.655629">
        <ele>324.581293</ele>
        <time>2026-07-14T21:14:59.946000Z</time>
      </trkpt>
      <trkpt lat="51.2412" lon="7.655852">
        <ele>323.40522</ele>
        <time>2026-07-14T21:15:16.767000Z</time>
      </trkpt>
      <trkpt lat="51.241219" lon="7.65615">
        <ele>321.904825</ele>
        <time>2026-07-14T21:15:37.946000Z</time>
      </trkpt>
      <trkpt lat="51.241425" lon="7.656241">
        <ele>320.671716</ele>
        <time>2026-07-14T21:16:01.767000Z</time>
      </trkpt>
      <trkpt lat="51.241535" lon="7.65626">
        <ele>320.175258</ele>
        <time>2026-07-14T21:16:14.045000Z</time>
      </trkpt>
      <trkpt lat="51.241658" lon="7.656335">
        <ele>319.584499</ele>
        <time>2026-07-14T21:16:28.569000Z</time>
      </trkpt>
      <trkpt lat="51.241754" lon="7.656467">
        <ele>319.016126</ele>
        <time>2026-07-14T21:16:42.337000Z</time>
      </trkpt>
      <trkpt lat="51.241946" lon="7.657031">
        <ele>317.212713</ele>
        <time>2026-07-14T21:17:25.912000Z</time>
      </trkpt>
      <trkpt lat="51.242184" lon="7.657502">
        <ele>315.512421</ele>
        <time>2026-07-14T21:18:06.276000Z</time>
      </trkpt>
      <trkpt lat="51.242334" lon="7.657693">
        <ele>314.651677</ele>
        <time>2026-07-14T21:18:26.494000Z</time>
      </trkpt>
      <trkpt lat="51.242345" lon="7.657707">
        <ele>314.588567</ele>
        <time>2026-07-14T21:18:27.989000Z</time>
      </trkpt>
      <trkpt lat="51.242712" lon="7.658549">
        <ele>310.99919</ele>
        <time>2026-07-14T21:19:37.747000Z</time>
      </trkpt>
      <trkpt lat="51.242884" lon="7.658769">
        <ele>309.545329</ele>
        <time>2026-07-14T21:20:02.786000Z</time>
      </trkpt>
      <trkpt lat="51.24318" lon="7.658959">
        <ele>307.44051</ele>
        <time>2026-07-14T21:20:39.514000Z</time>
      </trkpt>
      <trkpt lat="51.243696" lon="7.659172">
        <ele>303.924053</ele>
        <time>2026-07-14T21:21:42.035000Z</time>
      </trkpt>
      <trkpt lat="51.243875" lon="7.659211">
        <ele>302.732058</ele>
        <time>2026-07-14T21:22:03.198000Z</time>
      </trkpt>
      <trkpt lat="51.244027" lon="7.659202">
        <ele>301.728459</ele>
        <time>2026-07-14T21:22:20.752000Z</time>
      </trkpt>
      <trkpt lat="51.244075" lon="7.659199">
        <ele>301.411508</ele>
        <time>2026-07-14T21:22:26.308000Z</time>
      </trkpt>
      <trkpt lat="51.244067" lon="7.659183">
        <ele>301.338097</ele>
        <time>2026-07-14T21:22:27.808000Z</time>
      </trkpt>
      <trkpt lat="51.244066" lon="7.659101">
        <ele>301.242949</ele>
        <time>2026-07-14T21:22:33.582000Z</time>
      </trkpt>
      <trkpt lat="51.244099" lon="7.658936">
        <ele>301.041996</ele>
        <time>2026-07-14T21:22:45.855000Z</time>
      </trkpt>
      <trkpt lat="51.244165" lon="7.658841">
        <ele>300.877353</ele>
        <time>2026-07-14T21:22:55.829000Z</time>
      </trkpt>
      <trkpt lat="51.244223" lon="7.658824">
        <ele>300.768071</ele>
        <time>2026-07-14T21:23:02.326000Z</time>
      </trkpt>
      <trkpt lat="51.244503" lon="7.658899">
        <ele>300.241923</ele>
        <time>2026-07-14T21:23:32.809000Z</time>
      </trkpt>
      <trkpt lat="51.244728" lon="7.659022">
        <ele>299.801206</ele>
        <time>2026-07-14T21:23:57.300000Z</time>
      </trkpt>
      <trkpt lat="51.244947" lon="7.659207">
        <ele>299.342097</ele>
        <time>2026-07-14T21:24:22.375000Z</time>
      </trkpt>
      <trkpt lat="51.245328" lon="7.65966">
        <ele>298.461911</ele>
        <time>2026-07-14T21:25:11.077000Z</time>
      </trkpt>
      <trkpt lat="51.245386" lon="7.659756">
        <ele>298.307131</ele>
        <time>2026-07-14T21:25:19.855000Z</time>
      </trkpt>
      <trkpt lat="51.245474" lon="7.659902">
        <ele>298.072006</ele>
        <time>2026-07-14T21:25:33.295000Z</time>
      </trkpt>
      <trkpt lat="51.245922" lon="7.660795">
        <ele>297.740267</ele>
        <time>2026-07-14T21:26:48.706000Z</time>
      </trkpt>
      <trkpt lat="51.246262" lon="7.661255">
        <ele>297.564716</ele>
        <time>2026-07-14T21:27:33.384000Z</time>
      </trkpt>
      <trkpt lat="51.246354" lon="7.661305">
        <ele>297.526427</ele>
        <time>2026-07-14T21:27:43.256000Z</time>
      </trkpt>
      <trkpt lat="51.246904" lon="7.661283">
        <ele>297.309655</ele>
        <time>2026-07-14T21:28:40.657000Z</time>
      </trkpt>
      <trkpt lat="51.247194" lon="7.661316">
        <ele>296.961393</ele>
        <time>2026-07-14T21:29:11.803000Z</time>
      </trkpt>
      <trkpt lat="51.24744" lon="7.661406">
        <ele>296.641429</ele>
        <time>2026-07-14T21:29:39.070000Z</time>
      </trkpt>
      <trkpt lat="51.24758" lon="7.661524">
        <ele>296.440742</ele>
        <time>2026-07-14T21:29:56.096000Z</time>
      </trkpt>
      <trkpt lat="51.247755" lon="7.661723">
        <ele>296.168402</ele>
        <time>2026-07-14T21:30:19.174000Z</time>
      </trkpt>
      <trkpt lat="51.24796" lon="7.661955">
        <ele>295.849887</ele>
        <time>2026-07-14T21:30:45.496000Z</time>
      </trkpt>
      <trkpt lat="51.248036" lon="7.661995">
        <ele>295.748437</ele>
        <time>2026-07-14T21:30:53.735000Z</time>
      </trkpt>
      <trkpt lat="51.248137" lon="7.66199">
        <ele>295.620323</ele>
        <time>2026-07-14T21:31:03.957000Z</time>
      </trkpt>
      <trkpt lat="51.248525" lon="7.661865">
        <ele>295.118497</ele>
        <time>2026-07-14T21:31:45.048000Z</time>
      </trkpt>
      <trkpt lat="51.248616" lon="7.661802">
        <ele>295.11969</ele>
        <time>2026-07-14T21:31:55.961000Z</time>
      </trkpt>
      <trkpt lat="51.248648" lon="7.66178">
        <ele>295.280694</ele>
        <time>2026-07-14T21:31:59.699000Z</time>
      </trkpt>
      <trkpt lat="51.248769" lon="7.661629">
        <ele>295.990295</ele>
        <time>2026-07-14T21:32:16.802000Z</time>
      </trkpt>
      <trkpt lat="51.248956" lon="7.66125">
        <ele>297.386352</ele>
        <time>2026-07-14T21:32:51.521000Z</time>
      </trkpt>
      <trkpt lat="51.248993" lon="7.661126">
        <ele>297.783737</ele>
        <time>2026-07-14T21:33:01.869000Z</time>
      </trkpt>
      <trkpt lat="51.248993" lon="7.661126">
        <ele>297.783737</ele>
        <time>2026-07-14T21:33:01.869000Z</time>
      </trkpt>
      <trkpt lat="51.249013" lon="7.660992">
        <ele>298.182245</ele>
        <time>2026-07-14T21:33:12.093000Z</time>
      </trkpt>
      <trkpt lat="51.249049" lon="7.660942">
        <ele>298.402705</ele>
        <time>2026-07-14T21:33:17.927000Z</time>
      </trkpt>
      <trkpt lat="51.249124" lon="7.660838">
        <ele>298.861681</ele>
        <time>2026-07-14T21:33:29.803000Z</time>
      </trkpt>
      <trkpt lat="51.249139" lon="7.660734">
        <ele>299.170419</ele>
        <time>2026-07-14T21:33:38.106000Z</time>
      </trkpt>
      <trkpt lat="51.249209" lon="7.660626">
        <ele>299.620163</ele>
        <time>2026-07-14T21:33:50.011000Z</time>
      </trkpt>
      <trkpt lat="51.249706" lon="7.660016">
        <ele>302.516674</ele>
        <time>2026-07-14T21:35:08.106000Z</time>
      </trkpt>
      <trkpt lat="51.250005" lon="7.65946">
        <ele>302.378194</ele>
        <time>2026-07-14T21:35:59.762000Z</time>
      </trkpt>
      <trkpt lat="51.25016" lon="7.659031">
        <ele>301.329693</ele>
        <time>2026-07-14T21:36:30.896000Z</time>
      </trkpt>
      <trkpt lat="51.25026" lon="7.658652">
        <ele>300.459093</ele>
        <time>2026-07-14T21:36:57.720000Z</time>
      </trkpt>
      <trkpt lat="51.25029" lon="7.658287">
        <ele>299.679861</ele>
        <time>2026-07-14T21:37:22.530000Z</time>
      </trkpt>
      <trkpt lat="51.25034" lon="7.658409">
        <ele>299.37119</ele>
        <time>2026-07-14T21:37:32.645000Z</time>
      </trkpt>
      <trkpt lat="51.250715" lon="7.658185">
        <ele>298.017291</ele>
        <time>2026-07-14T21:38:18.167000Z</time>
      </trkpt>
      <trkpt lat="51.251576" lon="7.659368">
        <ele>286.074049</ele>
        <time>2026-07-14T21:40:38.641000Z</time>
      </trkpt>
      <trkpt lat="51.251784" lon="7.659565">
        <ele>283.100294</ele>
        <time>2026-07-14T21:41:09.146000Z</time>
      </trkpt>
      <trkpt lat="51.252672" lon="7.660823">
        <ele>269.520919</ele>
        <time>2026-07-14T21:43:38.735000Z</time>
      </trkpt>
      <trkpt lat="51.253058" lon="7.661759">
        <ele>262.216481</ele>
        <time>2026-07-14T21:45:03.474000Z</time>
      </trkpt>
      <trkpt lat="51.253502" lon="7.66218">
        <ele>256.840938</ele>
        <time>2026-07-14T21:46:03.516000Z</time>
      </trkpt>
      <trkpt lat="51.25353" lon="7.66217">
        <ele>256.542217</ele>
        <time>2026-07-14T21:46:06.774000Z</time>
      </trkpt>
      <trkpt lat="51.253639" lon="7.661897">
        <ele>255.061684</ele>
        <time>2026-07-14T21:46:29.603000Z</time>
      </trkpt>
      <trkpt lat="51.253687" lon="7.661904">
        <ele>254.72017</ele>
        <time>2026-07-14T21:46:34.886000Z</time>
      </trkpt>
      <trkpt lat="51.253715" lon="7.661967">
        <ele>254.377516</ele>
        <time>2026-07-14T21:46:40.373000Z</time>
      </trkpt>
      <trkpt lat="51.25392" lon="7.662169">
        <ele>252.670996</ele>
        <time>2026-07-14T21:47:07.811000Z</time>
      </trkpt>
      <trkpt lat="51.254029" lon="7.66219">
        <ele>251.89309</ele>
        <time>2026-07-14T21:47:20.368000Z</time>
      </trkpt>
      <trkpt lat="51.254212" lon="7.662256">
        <ele>250.563837</ele>
        <time>2026-07-14T21:47:41.912000Z</time>
      </trkpt>
      <trkpt lat="51.254233" lon="7.662093">
        <ele>249.825854</ele>
        <time>2026-07-14T21:47:53.891000Z</time>
      </trkpt>
      <trkpt lat="51.254261" lon="7.661868">
        <ele>248.808554</ele>
        <time>2026-07-14T21:48:10.367000Z</time>
      </trkpt>
      <trkpt lat="51.254302" lon="7.661829">
        <ele>248.470468</ele>
        <time>2026-07-14T21:48:15.774000Z</time>
      </trkpt>
      <trkpt lat="51.254486" lon="7.661883">
        <ele>247.144942</ele>
        <time>2026-07-14T21:48:37.233000Z</time>
      </trkpt>
      <trkpt lat="51.25463" lon="7.661914">
        <ele>246.115422</ele>
        <time>2026-07-14T21:48:53.823000Z</time>
      </trkpt>
      <trkpt lat="51.254839" lon="7.6619">
        <ele>244.633268</ele>
        <time>2026-07-14T21:49:17.896000Z</time>
      </trkpt>
      <trkpt lat="51.25533" lon="7.661765">
        <ele>243.12842</ele>
        <time>2026-07-14T21:50:14.267000Z</time>
      </trkpt>
      <trkpt lat="51.255373" lon="7.662195">
        <ele>242.727729</ele>
        <time>2026-07-14T21:50:44.748000Z</time>
      </trkpt>
      <trkpt lat="51.255577" lon="7.662127">
        <ele>242.421338</ele>
        <time>2026-07-14T21:51:07.173000Z</time>
      </trkpt>
      <trkpt lat="51.255641" lon="7.662096">
        <ele>242.323012</ele>
        <time>2026-07-14T21:51:14.155000Z</time>
      </trkpt>
      <trkpt lat="51.255852" lon="7.662431">
        <ele>241.885679</ele>
        <time>2026-07-14T21:51:44.254000Z</time>
      </trkpt>
      <trkpt lat="51.256005" lon="7.662484">
        <ele>241.655503</ele>
        <time>2026-07-14T21:52:00.544000Z</time>
      </trkpt>
      <trkpt lat="51.255891" lon="7.661563">
        <ele>242.410976</ele>
        <time>2026-07-14T21:53:06.477000Z</time>
      </trkpt>
      <trkpt lat="51.255893" lon="7.660951">
        <ele>245.944642</ele>
        <time>2026-07-14T21:53:52.648000Z</time>
      </trkpt>
      <trkpt lat="51.255951" lon="7.661096">
        <ele>246.938248</ele>
        <time>2026-07-14T21:54:05.911000Z</time>
      </trkpt>
      <trkpt lat="51.256001" lon="7.661134">
        <ele>247.449057</ele>
        <time>2026-07-14T21:54:13.047000Z</time>
      </trkpt>
      <trkpt lat="51.256255" lon="7.661623">
        <ele>251.118245</ele>
        <time>2026-07-14T21:55:05.849000Z</time>
      </trkpt>
      <trkpt lat="51.256282" lon="7.661676">
        <ele>251.512825</ele>
        <time>2026-07-14T21:55:11.976000Z</time>
      </trkpt>
      <trkpt lat="51.256346" lon="7.661751">
        <ele>252.245048</ele>
        <time>2026-07-14T21:55:22.769000Z</time>
      </trkpt>
      <trkpt lat="51.256487" lon="7.661793">
        <ele>253.568292</ele>
        <time>2026-07-14T21:55:43.275000Z</time>
      </trkpt>
      <trkpt lat="51.256796" lon="7.661852">
        <ele>256.439336</ele>
        <time>2026-07-14T21:56:29.632000Z</time>
      </trkpt>
      <trkpt lat="51.256901" lon="7.661821">
        <ele>257.424438</ele>
        <time>2026-07-14T21:56:46.331000Z</time>
      </trkpt>
      <trkpt lat="51.257087" lon="7.661656">
        <ele>260.611398</ele>
        <time>2026-07-14T21:57:19.685000Z</time>
      </trkpt>
      <trkpt lat="51.25739" lon="7.661609">
        <ele>265.352643</ele>
        <time>2026-07-14T21:58:10.494000Z</time>
      </trkpt>
      <trkpt lat="51.257433" lon="7.661577">
        <ele>266.091414</ele>
        <time>2026-07-14T21:58:18.928000Z</time>
      </trkpt>
      <trkpt lat="51.257152" lon="7.660868">
        <ele>274.271181</ele>
        <time>2026-07-14T21:59:52.979000Z</time>
      </trkpt>
      <trkpt lat="51.257046" lon="7.66061">
        <ele>277.279368</ele>
        <time>2026-07-14T22:00:26.838000Z</time>
      </trkpt>
      <trkpt lat="51.25715" lon="7.660587">
        <ele>278.914552</ele>
        <time>2026-07-14T22:00:44.779000Z</time>
      </trkpt>
      <trkpt lat="51.257183" lon="7.660479">
        <ele>280.085985</ele>
        <time>2026-07-14T22:00:57.688000Z</time>
      </trkpt>
      <trkpt lat="51.257234" lon="7.659984">
        <ele>284.975644</ele>
        <time>2026-07-14T22:01:50.385000Z</time>
      </trkpt>
      <trkpt lat="51.257168" lon="7.659491">
        <ele>289.53449</ele>
        <time>2026-07-14T22:02:42.734000Z</time>
      </trkpt>
      <trkpt lat="51.257108" lon="7.659162">
        <ele>292.596754</ele>
        <time>2026-07-14T22:03:17.886000Z</time>
      </trkpt>
      <trkpt lat="51.257268" lon="7.658156">
        <ele>301.872224</ele>
        <time>2026-07-14T22:05:01.507000Z</time>
      </trkpt>
      <trkpt lat="51.257392" lon="7.657745">
        <ele>305.94946</ele>
        <time>2026-07-14T22:05:43.749000Z</time>
      </trkpt>
      <trkpt lat="51.257427" lon="7.657115">
        <ele>311.628624</ele>
        <time>2026-07-14T22:06:42.270000Z</time>
      </trkpt>
      <trkpt lat="51.257184" lon="7.655575">
        <ele>327.123</ele>
        <time>2026-07-14T22:09:27.543000Z</time>
      </trkpt>
      <trkpt lat="51.257199" lon="7.655253">
        <ele>330.273117</ele>
        <time>2026-07-14T22:10:03.284000Z</time>
      </trkpt>
      <trkpt lat="51.257384" lon="7.655054">
        <ele>333.749668</ele>
        <time>2026-07-14T22:10:43.003000Z</time>
      </trkpt>
      <trkpt lat="51.25791" lon="7.654906">
        <ele>341.661093</ele>
        <time>2026-07-14T22:12:17.481000Z</time>
      </trkpt>
      <trkpt lat="51.258431" lon="7.655017">
        <ele>348.612036</ele>
        <time>2026-07-14T22:13:49.004000Z</time>
      </trkpt>
      <trkpt lat="51.258721" lon="7.654833">
        <ele>352.738405</ele>
        <time>2026-07-14T22:14:37.698000Z</time>
      </trkpt>
      <trkpt lat="51.258941" lon="7.654857">
        <ele>355.65457</ele>
        <time>2026-07-14T22:15:09.383000Z</time>
      </trkpt>
      <trkpt lat="51.259205" lon="7.655116">
        <ele>359.751323</ele>
        <time>2026-07-14T22:15:50.857000Z</time>
      </trkpt>
      <trkpt lat="51.259394" lon="7.655442">
        <ele>363.303202</ele>
        <time>2026-07-14T22:16:27.406000Z</time>
      </trkpt>
      <trkpt lat="51.259723" lon="7.655838">
        <ele>366.466705</ele>
        <time>2026-07-14T22:17:20.738000Z</time>
      </trkpt>
      <trkpt lat="51.260045" lon="7.656174">
        <ele>369.420397</ele>
        <time>2026-07-14T22:18:09.702000Z</time>
      </trkpt>
      <trkpt lat="51.26018" lon="7.656315">
        <ele>370.659087</ele>
        <time>2026-07-14T22:18:30.032000Z</time>
      </trkpt>
      <trkpt lat="51.260326" lon="7.656411">
        <ele>371.871653</ele>
        <time>2026-07-14T22:18:49.894000Z</time>
      </trkpt>
      <trkpt lat="51.260458" lon="7.6564">
        <ele>372.886853</ele>
        <time>2026-07-14T22:19:06.397000Z</time>
      </trkpt>
      <trkpt lat="51.260661" lon="7.656265">
        <ele>374.575612</ele>
        <time>2026-07-14T22:19:33.542000Z</time>
      </trkpt>
      <trkpt lat="51.261264" lon="7.655746">
        <ele>378.529063</ele>
        <time>2026-07-14T22:20:56.461000Z</time>
      </trkpt>
      <trkpt lat="51.261571" lon="7.655546">
        <ele>379.924982</ele>
        <time>2026-07-14T22:21:35.893000Z</time>
      </trkpt>
      <trkpt lat="51.261779" lon="7.655403">
        <ele>380.878381</ele>
        <time>2026-07-14T22:22:02.408000Z</time>
      </trkpt>
      <trkpt lat="51.262373" lon="7.655114">
        <ele>383.49278</ele>
        <time>2026-07-14T22:23:12.669000Z</time>
      </trkpt>
      <trkpt lat="51.262524" lon="7.655005">
        <ele>384.190424</ele>
        <time>2026-07-14T22:23:30.642000Z</time>
      </trkpt>
      <trkpt lat="51.263104" lon="7.654358">
        <ele>384.744223</ele>
        <time>2026-07-14T22:24:42.949000Z</time>
      </trkpt>
      <trkpt lat="51.263284" lon="7.653997">
        <ele>384.848662</ele>
        <time>2026-07-14T22:25:12.319000Z</time>
      </trkpt>
      <trkpt lat="51.2634" lon="7.653638">
        <ele>384.940079</ele>
        <time>2026-07-14T22:25:38.153000Z</time>
      </trkpt>
      <trkpt lat="51.263421" lon="7.653421">
        <ele>384.989761</ele>
        <time>2026-07-14T22:25:52.180000Z</time>
      </trkpt>
      <trkpt lat="51.263404" lon="7.653144">
        <ele>385.052735</ele>
        <time>2026-07-14T22:26:09.755000Z</time>
      </trkpt>
      <trkpt lat="51.263278" lon="7.652551">
        <ele>385.471334</ele>
        <time>2026-07-14T22:26:49.127000Z</time>
      </trkpt>
      <trkpt lat="51.263219" lon="7.652127">
        <ele>386.555385</ele>
        <time>2026-07-14T22:27:17.404000Z</time>
      </trkpt>
      <trkpt lat="51.26318" lon="7.652031">
        <ele>386.841044</ele>
        <time>2026-07-14T22:27:24.940000Z</time>
      </trkpt>
      <trkpt lat="51.262958" lon="7.651708">
        <ele>388.038481</ele>
        <time>2026-07-14T22:27:57.443000Z</time>
      </trkpt>
      <trkpt lat="51.262899" lon="7.651461">
        <ele>388.698325</ele>
        <time>2026-07-14T22:28:16.057000Z</time>
      </trkpt>
      <trkpt lat="51.262891" lon="7.651163">
        <ele>389.442751</ele>
        <time>2026-07-14T22:28:37.703000Z</time>
      </trkpt>
      <trkpt lat="51.262932" lon="7.65089">
        <ele>390.143448</ele>
        <time>2026-07-14T22:28:58.633000Z</time>
      </trkpt>
      <trkpt lat="51.263022" lon="7.650558">
        <ele>391.046458</ele>
        <time>2026-07-14T22:29:26.243000Z</time>
      </trkpt>
      <trkpt lat="51.263263" lon="7.650005">
        <ele>393.143788</ele>
        <time>2026-07-14T22:30:18.919000Z</time>
      </trkpt>
      <trkpt lat="51.263689" lon="7.648873">
        <ele>399.973159</ele>
        <time>2026-07-14T22:32:03.592000Z</time>
      </trkpt>
      <trkpt lat="51.26374" lon="7.648656">
        <ele>401.171578</ele>
        <time>2026-07-14T22:32:22.314000Z</time>
      </trkpt>
      <trkpt lat="51.26398" lon="7.64794">
        <ele>405.370968</ele>
        <time>2026-07-14T22:33:28.900000Z</time>
      </trkpt>
      <trkpt lat="51.264225" lon="7.647343">
        <ele>409.445265</ele>
        <time>2026-07-14T22:34:27.314000Z</time>
      </trkpt>
      <trkpt lat="51.264347" lon="7.647006">
        <ele>411.872744</ele>
        <time>2026-07-14T22:34:59.092000Z</time>
      </trkpt>
      <trkpt lat="51.264448" lon="7.646816">
        <ele>413.427145</ele>
        <time>2026-07-14T22:35:19.599000Z</time>
      </trkpt>
      <trkpt lat="51.26455" lon="7.646734">
        <ele>414.564842</ele>
        <time>2026-07-14T22:35:34.750000Z</time>
      </trkpt>
      <trkpt lat="51.265303" lon="7.646053">
        <ele>423.185963</ele>
        <time>2026-07-14T22:37:32.224000Z</time>
      </trkpt>
      <trkpt lat="51.26607" lon="7.64548">
        <ele>430.598214</ele>
        <time>2026-07-14T22:39:26.039000Z</time>
      </trkpt>
      <trkpt lat="51.266451" lon="7.645194">
        <ele>434.131539</ele>
        <time>2026-07-14T22:40:20.763000Z</time>
      </trkpt>
      <trkpt lat="51.266777" lon="7.645128">
        <ele>436.889864</ele>
        <time>2026-07-14T22:41:02.054000Z</time>
      </trkpt>
      <trkpt lat="51.267457" lon="7.645121">
        <ele>441.440966</ele>
        <time>2026-07-14T22:42:24.091000Z</time>
      </trkpt>
      <trkpt lat="51.267732" lon="7.645073">
        <ele>442.632517</ele>
        <time>2026-07-14T22:42:56.235000Z</time>
      </trkpt>
      <trkpt lat="51.268031" lon="7.64489">
        <ele>444.011602</ele>
        <time>2026-07-14T22:43:33.403000Z</time>
      </trkpt>
      <trkpt lat="51.268394" lon="7.644605">
        <ele>445.753618</ele>
        <time>2026-07-14T22:44:19.858000Z</time>
      </trkpt>
      <trkpt lat="51.2689" lon="7.644081">
        <ele>447.971223</ele>
        <time>2026-07-14T22:45:27.036000Z</time>
      </trkpt>
      <trkpt lat="51.26918" lon="7.643909">
        <ele>447.979214</ele>
        <time>2026-07-14T22:45:59.110000Z</time>
      </trkpt>
      <trkpt lat="51.269514" lon="7.64383">
        <ele>447.988208</ele>
        <time>2026-07-14T22:46:34.153000Z</time>
      </trkpt>
      <trkpt lat="51.2698" lon="7.643917">
        <ele>447.995964</ele>
        <time>2026-07-14T22:47:03.365000Z</time>
      </trkpt>
      <trkpt lat="51.270247" lon="7.644175">
        <ele>448.008624</ele>
        <time>2026-07-14T22:47:52.202000Z</time>
      </trkpt>
      <trkpt lat="51.270455" lon="7.644172">
        <ele>448.014165</ele>
        <time>2026-07-14T22:48:13.936000Z</time>
      </trkpt>
      <trkpt lat="51.270807" lon="7.64468">
        <ele>446.907367</ele>
        <time>2026-07-14T22:49:03.754000Z</time>
      </trkpt>
      <trkpt lat="51.271327" lon="7.645275">
        <ele>445.02166</ele>
        <time>2026-07-14T22:50:12.075000Z</time>
      </trkpt>
      <trkpt lat="51.271453" lon="7.645473">
        <ele>444.500645</ele>
        <time>2026-07-14T22:50:31.015000Z</time>
      </trkpt>
      <trkpt lat="51.271548" lon="7.645734">
        <ele>443.943599</ele>
        <time>2026-07-14T22:50:51.255000Z</time>
      </trkpt>
      <trkpt lat="51.271519" lon="7.645926">
        <ele>443.579225</ele>
        <time>2026-07-14T22:51:04.495000Z</time>
      </trkpt>
      <trkpt lat="51.271498" lon="7.646065">
        <ele>443.31543</ele>
        <time>2026-07-14T22:51:14.095000Z</time>
      </trkpt>
      <trkpt lat="51.271503" lon="7.6462">
        <ele>443.065948</ele>
        <time>2026-07-14T22:51:23.180000Z</time>
      </trkpt>
      <trkpt lat="51.271545" lon="7.646311">
        <ele>442.82664</ele>
        <time>2026-07-14T22:51:31.878000Z</time>
      </trkpt>
      <trkpt lat="51.271712" lon="7.646397">
        <ele>442.441097</ele>
        <time>2026-07-14T22:51:50.438000Z</time>
      </trkpt>
      <trkpt lat="51.271886" lon="7.646396">
        <ele>442.095473</ele>
        <time>2026-07-14T22:52:08.805000Z</time>
      </trkpt>
      <trkpt lat="51.272059" lon="7.647011">
        <ele>441.257515</ele>
        <time>2026-07-14T22:52:53.048000Z</time>
      </trkpt>
      <trkpt lat="51.27213" lon="7.647434">
        <ele>440.713267</ele>
        <time>2026-07-14T22:53:21.381000Z</time>
      </trkpt>
      <trkpt lat="51.272379" lon="7.647714">
        <ele>440.108539</ele>
        <time>2026-07-14T22:53:52.585000Z</time>
      </trkpt>
      <trkpt lat="51.27268" lon="7.648115">
        <ele>439.330217</ele>
        <time>2026-07-14T22:54:33.026000Z</time>
      </trkpt>
      <trkpt lat="51.272759" lon="7.648219">
        <ele>439.13365</ele>
        <time>2026-07-14T22:54:43.590000Z</time>
      </trkpt>
      <trkpt lat="51.273124" lon="7.648986">
        <ele>438.530702</ele>
        <time>2026-07-14T22:55:45.880000Z</time>
      </trkpt>
      <trkpt lat="51.273627" lon="7.649869">
        <ele>437.783523</ele>
        <time>2026-07-14T22:57:03.515000Z</time>
      </trkpt>
      <trkpt lat="51.273798" lon="7.650116">
        <ele>437.553026</ele>
        <time>2026-07-14T22:57:27.036000Z</time>
      </trkpt>
      <trkpt lat="51.274322" lon="7.650706">
        <ele>438.19547</ele>
        <time>2026-07-14T22:58:34.050000Z</time>
      </trkpt>
      <trkpt lat="51.274523" lon="7.651039">
        <ele>438.770828</ele>
        <time>2026-07-14T22:59:05.958000Z</time>
      </trkpt>
      <trkpt lat="51.274752" lon="7.651633">
        <ele>439.638381</ele>
        <time>2026-07-14T22:59:54.720000Z</time>
      </trkpt>
      <trkpt lat="51.274919" lon="7.651966">
        <ele>440.169047</ele>
        <time>2026-07-14T23:00:24.683000Z</time>
      </trkpt>
      <trkpt lat="51.275017" lon="7.65216">
        <ele>440.479086</ele>
        <time>2026-07-14T23:00:42.131000Z</time>
      </trkpt>
      <trkpt lat="51.276716" lon="7.654896">
        <ele>440.799932</ele>
        <time>2026-07-14T23:04:47.451000Z</time>
      </trkpt>
      <trkpt lat="51.277087" lon="7.655554">
        <ele>439.255075</ele>
        <time>2026-07-14T23:05:45.930000Z</time>
      </trkpt>
      <trkpt lat="51.277154" lon="7.655622">
        <ele>439.033823</ele>
        <time>2026-07-14T23:05:54.476000Z</time>
      </trkpt>
      <trkpt lat="51.277563" lon="7.655944">
        <ele>437.762812</ele>
        <time>2026-07-14T23:06:44.132000Z</time>
      </trkpt>
      <trkpt lat="51.277679" lon="7.656071">
        <ele>437.370849</ele>
        <time>2026-07-14T23:06:59.581000Z</time>
      </trkpt>
      <trkpt lat="51.277851" lon="7.656217">
        <ele>436.813659</ele>
        <time>2026-07-14T23:07:21.144000Z</time>
      </trkpt>
      <trkpt lat="51.278137" lon="7.65644">
        <ele>435.687715</ele>
        <time>2026-07-14T23:07:56.362000Z</time>
      </trkpt>
      <trkpt lat="51.278207" lon="7.656495">
        <ele>435.411726</ele>
        <time>2026-07-14T23:08:05.006000Z</time>
      </trkpt>
      <trkpt lat="51.278262" lon="7.656611">
        <ele>435.08955</ele>
        <time>2026-07-14T23:08:15.053000Z</time>
      </trkpt>
      <trkpt lat="51.278302" lon="7.656637">
        <ele>434.936761</ele>
        <time>2026-07-14T23:08:19.797000Z</time>
      </trkpt>
      <trkpt lat="51.278632" lon="7.656948">
        <ele>433.581284</ele>
        <time>2026-07-14T23:09:01.847000Z</time>
      </trkpt>
      <trkpt lat="51.279622" lon="7.658035">
        <ele>430.860425</ele>
        <time>2026-07-14T23:11:08.116000Z</time>
      </trkpt>
      <trkpt lat="51.280229" lon="7.658464">
        <ele>431.541771</ele>
        <time>2026-07-14T23:12:17.209000Z</time>
      </trkpt>
      <trkpt lat="51.280778" lon="7.658944">
        <ele>432.184173</ele>
        <time>2026-07-14T23:13:26.276000Z</time>
      </trkpt>
      <trkpt lat="51.281633" lon="7.659573">
        <ele>433.417072</ele>
        <time>2026-07-14T23:15:09.673000Z</time>
      </trkpt>
      <trkpt lat="51.281907" lon="7.659732">
        <ele>433.817687</ele>
        <time>2026-07-14T23:15:40.073000Z</time>
      </trkpt>
      <trkpt lat="51.281938" lon="7.659826">
        <ele>433.909038</ele>
        <time>2026-07-14T23:15:46.906000Z</time>
      </trkpt>
      <trkpt lat="51.282468" lon="7.660204">
        <ele>434.706643</ele>
        <time>2026-07-14T23:16:45.054000Z</time>
      </trkpt>
      <trkpt lat="51.283242" lon="7.660756">
        <ele>435.175014</ele>
        <time>2026-07-14T23:18:10.664000Z</time>
      </trkpt>
      <trkpt lat="51.283395" lon="7.660927">
        <ele>435.259158</ele>
        <time>2026-07-14T23:18:29.469000Z</time>
      </trkpt>
      <trkpt lat="51.283593" lon="7.660972">
        <ele>435.349303</ele>
        <time>2026-07-14T23:18:49.920000Z</time>
      </trkpt>
      <trkpt lat="51.284114" lon="7.661418">
        <ele>435.615684</ele>
        <time>2026-07-14T23:19:51.319000Z</time>
      </trkpt>
      <trkpt lat="51.284234" lon="7.661468">
        <ele>435.760942</ele>
        <time>2026-07-14T23:20:04.323000Z</time>
      </trkpt>
      <trkpt lat="51.28454" lon="7.661466">
        <ele>436.378361</ele>
        <time>2026-07-14T23:20:36.689000Z</time>
      </trkpt>
      <trkpt lat="51.284701" lon="7.661502">
        <ele>436.706371</ele>
        <time>2026-07-14T23:20:54.144000Z</time>
      </trkpt>
      <trkpt lat="51.285113" lon="7.661738">
        <ele>437.5894</ele>
        <time>2026-07-14T23:21:41.710000Z</time>
      </trkpt>
      <trkpt lat="51.285435" lon="7.661953">
        <ele>438.293473</ele>
        <time>2026-07-14T23:22:19.447000Z</time>
      </trkpt>
      <trkpt lat="51.285707" lon="7.662004">
        <ele>438.846046</ele>
        <time>2026-07-14T23:22:48.838000Z</time>
      </trkpt>
      <trkpt lat="51.285903" lon="7.662166">
        <ele>439.285675</ele>
        <time>2026-07-14T23:23:12.473000Z</time>
      </trkpt>
      <trkpt lat="51.286109" lon="7.662284">
        <ele>439.576251</ele>
        <time>2026-07-14T23:23:36.076000Z</time>
      </trkpt>
      <trkpt lat="51.286884" lon="7.662542">
        <ele>440.627459</ele>
        <time>2026-07-14T23:25:02.092000Z</time>
      </trkpt>
      <trkpt lat="51.287336" lon="7.662429">
        <ele>441.234971</ele>
        <time>2026-07-14T23:25:50.323000Z</time>
      </trkpt>
      <trkpt lat="51.287543" lon="7.662249">
        <ele>441.547871</ele>
        <time>2026-07-14T23:26:14.257000Z</time>
      </trkpt>
      <trkpt lat="51.287845" lon="7.661913">
        <ele>440.273225</ele>
        <time>2026-07-14T23:26:51.928000Z</time>
      </trkpt>
      <trkpt lat="51.288199" lon="7.661416">
        <ele>437.941627</ele>
        <time>2026-07-14T23:27:42.493000Z</time>
      </trkpt>
      <trkpt lat="51.288505" lon="7.661077">
        <ele>436.099141</ele>
        <time>2026-07-14T23:28:24.090000Z</time>
      </trkpt>
      <trkpt lat="51.288893" lon="7.660773">
        <ele>433.960654</ele>
        <time>2026-07-14T23:29:13.686000Z</time>
      </trkpt>
      <trkpt lat="51.288999" lon="7.660733">
        <ele>433.421613</ele>
        <time>2026-07-14T23:29:26.390000Z</time>
      </trkpt>
      <trkpt lat="51.289098" lon="7.660697">
        <ele>432.919119</ele>
        <time>2026-07-14T23:29:38.312000Z</time>
      </trkpt>
      <trkpt lat="51.28927" lon="7.660682">
        <ele>431.518389</ele>
        <time>2026-07-14T23:29:58.692000Z</time>
      </trkpt>
      <trkpt lat="51.289453" lon="7.660717">
        <ele>429.886503</ele>
        <time>2026-07-14T23:30:20.454000Z</time>
      </trkpt>
      <trkpt lat="51.289759" lon="7.660637">
        <ele>427.141113</ele>
        <time>2026-07-14T23:30:56.791000Z</time>
      </trkpt>
      <trkpt lat="51.28991" lon="7.660655">
        <ele>425.800404</ele>
        <time>2026-07-14T23:31:14.382000Z</time>
      </trkpt>
      <trkpt lat="51.290211" lon="7.660862">
        <ele>422.899231</ele>
        <time>2026-07-14T23:31:52.684000Z</time>
      </trkpt>
      <trkpt lat="51.290443" lon="7.66102">
        <ele>420.666487</ele>
        <time>2026-07-14T23:32:22.243000Z</time>
      </trkpt>
      <trkpt lat="51.29071" lon="7.661111">
        <ele>418.249286</ele>
        <time>2026-07-14T23:32:54.534000Z</time>
      </trkpt>
      <trkpt lat="51.290978" lon="7.661128">
        <ele>415.773244</ele>
        <time>2026-07-14T23:33:26.581000Z</time>
      </trkpt>
      <trkpt lat="51.291424" lon="7.6611">
        <ele>411.404981</ele>
        <time>2026-07-14T23:34:20.431000Z</time>
      </trkpt>
      <trkpt lat="51.292195" lon="7.66087">
        <ele>403.729202</ele>
        <time>2026-07-14T23:35:55.634000Z</time>
      </trkpt>
      <trkpt lat="51.292757" lon="7.660908">
        <ele>398.719146</ele>
        <time>2026-07-14T23:37:02.663000Z</time>
      </trkpt>
      <trkpt lat="51.293747" lon="7.660559">
        <ele>393.667137</ele>
        <time>2026-07-14T23:38:55.776000Z</time>
      </trkpt>
      <trkpt lat="51.294424" lon="7.660457">
        <ele>390.278443</ele>
        <time>2026-07-14T23:40:06.709000Z</time>
      </trkpt>
      <trkpt lat="51.294715" lon="7.660521">
        <ele>388.80491</ele>
        <time>2026-07-14T23:40:37.255000Z</time>
      </trkpt>
      <trkpt lat="51.294877" lon="7.660565">
        <ele>387.980571</ele>
        <time>2026-07-14T23:40:54.497000Z</time>
      </trkpt>
      <trkpt lat="51.294715" lon="7.660521">
        <ele>387.156232</ele>
        <time>2026-07-14T23:41:12.001000Z</time>
      </trkpt>
      <trkpt lat="51.294732" lon="7.660794">
        <ele>386.295595</ele>
        <time>2026-07-14T23:41:30.642000Z</time>
      </trkpt>
      <trkpt lat="51.294192" lon="7.661246">
        <ele>383.237944</ele>
        <time>2026-07-14T23:42:38.612000Z</time>
      </trkpt>
      <trkpt lat="51.293888" lon="7.661958">
        <ele>379.921548</ele>
        <time>2026-07-14T23:43:41.125000Z</time>
      </trkpt>
      <trkpt lat="51.293777" lon="7.662109">
        <ele>378.562965</ele>
        <time>2026-07-14T23:43:58.258000Z</time>
      </trkpt>
      <trkpt lat="51.292911" lon="7.66274">
        <ele>369.690969</ele>
        <time>2026-07-14T23:45:49.954000Z</time>
      </trkpt>
      <trkpt lat="51.292479" lon="7.663116">
        <ele>365.105681</ele>
        <time>2026-07-14T23:46:48.564000Z</time>
      </trkpt>
      <trkpt lat="51.292123" lon="7.663515">
        <ele>358.745423</ele>
        <time>2026-07-14T23:47:42.744000Z</time>
      </trkpt>
      <trkpt lat="51.291848" lon="7.66387">
        <ele>353.230994</ele>
        <time>2026-07-14T23:48:28.205000Z</time>
      </trkpt>
      <trkpt lat="51.291624" lon="7.664283">
        <ele>347.896731</ele>
        <time>2026-07-14T23:49:13.073000Z</time>
      </trkpt>
      <trkpt lat="51.291546" lon="7.664683">
        <ele>343.808444</ele>
        <time>2026-07-14T23:49:48.004000Z</time>
      </trkpt>
      <trkpt lat="51.291964" lon="7.665365">
        <ele>334.592609</ele>
        <time>2026-07-14T23:51:11.713000Z</time>
      </trkpt>
      <trkpt lat="51.292284" lon="7.665682">
        <ele>329.030194</ele>
        <time>2026-07-14T23:52:05.766000Z</time>
      </trkpt>
      <trkpt lat="51.29237" lon="7.665819">
        <ele>327.236414</ele>
        <time>2026-07-14T23:52:22.975000Z</time>
      </trkpt>
      <trkpt lat="51.292561" lon="7.666318">
        <ele>321.83013</ele>
        <time>2026-07-14T23:53:12.899000Z</time>
      </trkpt>
      <trkpt lat="51.2926" lon="7.666563">
        <ele>319.49398</ele>
        <time>2026-07-14T23:53:33.526000Z</time>
      </trkpt>
      <trkpt lat="51.292594" lon="7.666967">
        <ele>315.759717</ele>
        <time>2026-07-14T23:54:05.653000Z</time>
      </trkpt>
      <trkpt lat="51.292536" lon="7.667243">
        <ele>313.06915</ele>
        <time>2026-07-14T23:54:28.245000Z</time>
      </trkpt>
      <trkpt lat="51.292471" lon="7.667387">
        <ele>311.428057</ele>
        <time>2026-07-14T23:54:41.646000Z</time>
      </trkpt>
      <trkpt lat="51.292405" lon="7.667468">
        <ele>310.198667</ele>
        <time>2026-07-14T23:54:51.557000Z</time>
      </trkpt>
      <trkpt lat="51.292298" lon="7.66748">
        <ele>309.924625</ele>
        <time>2026-07-14T23:55:04.057000Z</time>
      </trkpt>
      <trkpt lat="51.29207" lon="7.667364">
        <ele>310.181713</ele>
        <time>2026-07-14T23:55:30.508000Z</time>
      </trkpt>
      <trkpt lat="51.29163" lon="7.666951">
        <ele>310.729925</ele>
        <time>2026-07-14T23:56:24.525000Z</time>
      </trkpt>
      <trkpt lat="51.291437" lon="7.666521">
        <ele>311.085582</ele>
        <time>2026-07-14T23:57:04.882000Z</time>
      </trkpt>
      <trkpt lat="51.291264" lon="7.666057">
        <ele>311.448577</ele>
        <time>2026-07-14T23:57:46.225000Z</time>
      </trkpt>
      <trkpt lat="51.291085" lon="7.665816">
        <ele>311.70001</ele>
        <time>2026-07-14T23:58:14.362000Z</time>
      </trkpt>
      <trkpt lat="51.290857" lon="7.665781">
        <ele>310.718816</ele>
        <time>2026-07-14T23:58:40.987000Z</time>
      </trkpt>
      <trkpt lat="51.290786" lon="7.665831">
        <ele>310.226477</ele>
        <time>2026-07-14T23:58:49.733000Z</time>
      </trkpt>
      <trkpt lat="51.290759" lon="7.665915">
        <ele>309.851649</ele>
        <time>2026-07-14T23:58:56.230000Z</time>
      </trkpt>
      <trkpt lat="51.290784" lon="7.666351">
        <ele>308.114036</ele>
        <time>2026-07-14T23:59:24.953000Z</time>
      </trkpt>
      <trkpt lat="51.29079" lon="7.666452">
        <ele>307.711393</ele>
        <time>2026-07-14T23:59:31.460000Z</time>
      </trkpt>
      <trkpt lat="51.290455" lon="7.667436">
        <ele>303.264993</ele>
        <time>2026-07-15T00:00:53.632000Z</time>
      </trkpt>
      <trkpt lat="51.290402" lon="7.66781">
        <ele>301.743056</ele>
        <time>2026-07-15T00:01:25.108000Z</time>
      </trkpt>
      <trkpt lat="51.290369" lon="7.668206">
        <ele>299.925417</ele>
        <time>2026-07-15T00:01:57.869000Z</time>
      </trkpt>
      <trkpt lat="51.290321" lon="7.66952">
        <ele>288.525814</ele>
        <time>2026-07-15T00:03:45.424000Z</time>
      </trkpt>
      <trkpt lat="51.290279" lon="7.669647">
        <ele>287.281574</ele>
        <time>2026-07-15T00:03:57.094000Z</time>
      </trkpt>
      <trkpt lat="51.289303" lon="7.670781">
        <ele>269.523455</ele>
        <time>2026-07-15T00:06:26.023000Z</time>
      </trkpt>
      <trkpt lat="51.289229" lon="7.670836">
        <ele>268.149695</ele>
        <time>2026-07-15T00:06:36.053000Z</time>
      </trkpt>
      <trkpt lat="51.289093" lon="7.671007">
        <ele>265.237139</ele>
        <time>2026-07-15T00:06:57.436000Z</time>
      </trkpt>
      <trkpt lat="51.288875" lon="7.671374">
        <ele>259.908173</ele>
        <time>2026-07-15T00:07:37.879000Z</time>
      </trkpt>
      <trkpt lat="51.288811" lon="7.671525">
        <ele>257.987709</ele>
        <time>2026-07-15T00:07:52.912000Z</time>
      </trkpt>
      <trkpt lat="51.28876" lon="7.671696">
        <ele>255.993131</ele>
        <time>2026-07-15T00:08:08.966000Z</time>
      </trkpt>
      <trkpt lat="51.288585" lon="7.672588">
        <ele>246.150636</ele>
        <time>2026-07-15T00:09:36.288000Z</time>
      </trkpt>
      <trkpt lat="51.288544" lon="7.67274">
        <ele>244.100416</ele>
        <time>2026-07-15T00:09:53.106000Z</time>
      </trkpt>
      <trkpt lat="51.288131" lon="7.674285">
        <ele>219.230869</ele>
        <time>2026-07-15T00:12:52.211000Z</time>
      </trkpt>
      <trkpt lat="51.287876" lon="7.674974">
        <ele>207.380694</ele>
        <time>2026-07-15T00:14:12.161000Z</time>
      </trkpt>
      <trkpt lat="51.287847" lon="7.675235">
        <ele>203.45699</ele>
        <time>2026-07-15T00:14:38.397000Z</time>
      </trkpt>
      <trkpt lat="51.287973" lon="7.67519">
        <ele>201.15275</ele>
        <time>2026-07-15T00:14:58.510000Z</time>
      </trkpt>
      <trkpt lat="51.288156" lon="7.675056">
        <ele>198.019429</ele>
        <time>2026-07-15T00:15:29.191000Z</time>
      </trkpt>
      <trkpt lat="51.287874" lon="7.675594">
        <ele>191.185154</ele>
        <time>2026-07-15T00:16:31.518000Z</time>
      </trkpt>
      <trkpt lat="51.287754" lon="7.676022">
        <ele>186.618614</ele>
        <time>2026-07-15T00:17:09.185000Z</time>
      </trkpt>
      <trkpt lat="51.287746" lon="7.676256">
        <ele>184.337009</ele>
        <time>2026-07-15T00:17:27.247000Z</time>
      </trkpt>
      <trkpt lat="51.287784" lon="7.676495">
        <ele>181.936109</ele>
        <time>2026-07-15T00:17:46.494000Z</time>
      </trkpt>
      <trkpt lat="51.287856" lon="7.676583">
        <ele>180.52532</ele>
        <time>2026-07-15T00:17:57.955000Z</time>
      </trkpt>
      <trkpt lat="51.28794" lon="7.676638">
        <ele>179.112281</ele>
        <time>2026-07-15T00:18:09.488000Z</time>
      </trkpt>
      <trkpt lat="51.287883" lon="7.676856">
        <ele>176.811839</ele>
        <time>2026-07-15T00:18:28.002000Z</time>
      </trkpt>
      <trkpt lat="51.28783" lon="7.6772">
        <ele>174.287608</ele>
        <time>2026-07-15T00:18:54.901000Z</time>
      </trkpt>
      <trkpt lat="51.287797" lon="7.677239">
        <ele>174.127605</ele>
        <time>2026-07-15T00:18:59.755000Z</time>
      </trkpt>
      <trkpt lat="51.287554" lon="7.677183">
        <ele>173.170325</ele>
        <time>2026-07-15T00:19:27.775000Z</time>
      </trkpt>
      <trkpt lat="51.287243" lon="7.676919">
        <ele>171.797398</ele>
        <time>2026-07-15T00:20:06.008000Z</time>
      </trkpt>
      <trkpt lat="51.287155" lon="7.676797">
        <ele>171.343257</ele>
        <time>2026-07-15T00:20:18.334000Z</time>
      </trkpt>
      <trkpt lat="51.287092" lon="7.676822">
        <ele>171.090159</ele>
        <time>2026-07-15T00:20:25.237000Z</time>
      </trkpt>
      <trkpt lat="51.287061" lon="7.676972">
        <ele>170.704917</ele>
        <time>2026-07-15T00:20:35.577000Z</time>
      </trkpt>
      <trkpt lat="51.287167" lon="7.677332">
        <ele>169.734599</ele>
        <time>2026-07-15T00:21:01.345000Z</time>
      </trkpt>
      <trkpt lat="51.287301" lon="7.67753">
        <ele>169.023175</ele>
        <time>2026-07-15T00:21:20.086000Z</time>
      </trkpt>
      <trkpt lat="51.287523" lon="7.677872">
        <ele>167.821169</ele>
        <time>2026-07-15T00:21:51.010000Z</time>
      </trkpt>
      <trkpt lat="51.287359" lon="7.678321">
        <ele>167.119765</ele>
        <time>2026-07-15T00:22:24.431000Z</time>
      </trkpt>
      <trkpt lat="51.287433" lon="7.678315">
        <ele>166.989717</ele>
        <time>2026-07-15T00:22:31.911000Z</time>
      </trkpt>
      <trkpt lat="51.287454" lon="7.678211">
        <ele>166.869754</ele>
        <time>2026-07-15T00:22:38.765000Z</time>
      </trkpt>
      <trkpt lat="51.28765" lon="7.678262">
        <ele>166.521218</ele>
        <time>2026-07-15T00:22:59.520000Z</time>
      </trkpt>
      <trkpt lat="51.287689" lon="7.678224">
        <ele>166.44106</ele>
        <time>2026-07-15T00:23:04.268000Z</time>
      </trkpt>
      <trkpt lat="51.287792" lon="7.678288">
        <ele>166.247108</ele>
        <time>2026-07-15T00:23:16.146000Z</time>
      </trkpt>
      <trkpt lat="51.287623" lon="7.678865">
        <ele>165.547724</ele>
        <time>2026-07-15T00:23:58.742000Z</time>
      </trkpt>
      <trkpt lat="51.287644" lon="7.678869">
        <ele>165.510606</ele>
        <time>2026-07-15T00:24:01.014000Z</time>
      </trkpt>
      <trkpt lat="51.288063" lon="7.678953">
        <ele>164.769439</ele>
        <time>2026-07-15T00:24:45.722000Z</time>
      </trkpt>
      <trkpt lat="51.2882" lon="7.678981">
        <ele>164.527026</ele>
        <time>2026-07-15T00:24:59.857000Z</time>
      </trkpt>
      <trkpt lat="51.288246" lon="7.67899">
        <ele>164.445687</ele>
        <time>2026-07-15T00:25:04.501000Z</time>
      </trkpt>
      <trkpt lat="51.288311" lon="7.678621">
        <ele>164.476339</ele>
        <time>2026-07-15T00:25:28.665000Z</time>
      </trkpt>
      <trkpt lat="51.288382" lon="7.67841">
        <ele>164.508838</ele>
        <time>2026-07-15T00:25:43.881000Z</time>
      </trkpt>
      <trkpt lat="51.288311" lon="7.678621">
        <ele>164.541338</ele>
        <time>2026-07-15T00:25:59.363000Z</time>
      </trkpt>
      <trkpt lat="51.288613" lon="7.678768">
        <ele>164.609805</ele>
        <time>2026-07-15T00:26:31.126000Z</time>
      </trkpt>
      <trkpt lat="51.288695" lon="7.678776">
        <ele>164.627622</ele>
        <time>2026-07-15T00:26:39.737000Z</time>
      </trkpt>
      <trkpt lat="51.288779" lon="7.678787">
        <ele>164.645902</ele>
        <time>2026-07-15T00:26:48.527000Z</time>
      </trkpt>
      <trkpt lat="51.289024" lon="7.678689">
        <ele>164.700676</ele>
        <time>2026-07-15T00:27:15.700000Z</time>
      </trkpt>
      <trkpt lat="51.289297" lon="7.678605">
        <ele>164.760972</ele>
        <time>2026-07-15T00:27:45.488000Z</time>
      </trkpt>
      <trkpt lat="51.289316" lon="7.678431">
        <ele>164.78493</ele>
        <time>2026-07-15T00:27:57.229000Z</time>
      </trkpt>
      <trkpt lat="51.289353" lon="7.678278">
        <ele>164.80718</ele>
        <time>2026-07-15T00:28:07.924000Z</time>
      </trkpt>
      <trkpt lat="51.289384" lon="7.678255">
        <ele>164.814591</ele>
        <time>2026-07-15T00:28:11.523000Z</time>
      </trkpt>
      <trkpt lat="51.289383" lon="7.67802">
        <ele>164.718748</ele>
        <time>2026-07-15T00:28:26.282000Z</time>
      </trkpt>
      <trkpt lat="51.289391" lon="7.677503">
        <ele>164.487054</ele>
        <time>2026-07-15T00:28:58.863000Z</time>
      </trkpt>
      <trkpt lat="51.289552" lon="7.67678">
        <ele>164.143219</ele>
        <time>2026-07-15T00:29:48.623000Z</time>
      </trkpt>
      <trkpt lat="51.289602" lon="7.676364">
        <ele>163.953435</ele>
        <time>2026-07-15T00:30:16.224000Z</time>
      </trkpt>
      <trkpt lat="51.289838" lon="7.676182">
        <ele>163.765734</ele>
        <time>2026-07-15T00:30:43.401000Z</time>
      </trkpt>
      <trkpt lat="51.289955" lon="7.675945">
        <ele>163.63046</ele>
        <time>2026-07-15T00:31:02.666000Z</time>
      </trkpt>
      <trkpt lat="51.289926" lon="7.67578">
        <ele>163.553675</ele>
        <time>2026-07-15T00:31:13.520000Z</time>
      </trkpt>
      <trkpt lat="51.290065" lon="7.675594">
        <ele>163.469175</ele>
        <time>2026-07-15T00:31:31.759000Z</time>
      </trkpt>
      <trkpt lat="51.290217" lon="7.675163">
        <ele>163.343737</ele>
        <time>2026-07-15T00:32:02.707000Z</time>
      </trkpt>
      <trkpt lat="51.290181" lon="7.674973">
        <ele>163.293408</ele>
        <time>2026-07-15T00:32:15.354000Z</time>
      </trkpt>
      <trkpt lat="51.290223" lon="7.674885">
        <ele>163.265345</ele>
        <time>2026-07-15T00:32:22.486000Z</time>
      </trkpt>
      <trkpt lat="51.290229" lon="7.674773">
        <ele>163.236848</ele>
        <time>2026-07-15T00:32:29.566000Z</time>
      </trkpt>
      <trkpt lat="51.290571" lon="7.674245">
        <ele>163.04414</ele>
        <time>2026-07-15T00:33:18.033000Z</time>
      </trkpt>
      <trkpt lat="51.291103" lon="7.673767">
        <ele>162.802748</ele>
        <time>2026-07-15T00:34:19.278000Z</time>
      </trkpt>
      <trkpt lat="51.291306" lon="7.6736">
        <ele>162.941651</ele>
        <time>2026-07-15T00:34:42.392000Z</time>
      </trkpt>
      <trkpt lat="51.29236" lon="7.673132">
        <ele>163.607228</ele>
        <time>2026-07-15T00:36:32.006000Z</time>
      </trkpt>
      <trkpt lat="51.292584" lon="7.673075">
        <ele>163.745237</ele>
        <time>2026-07-15T00:36:56.429000Z</time>
      </trkpt>
      <trkpt lat="51.29258" lon="7.672949">
        <ele>163.793241</ele>
        <time>2026-07-15T00:37:04.681000Z</time>
      </trkpt>
      <trkpt lat="51.292584" lon="7.673075">
        <ele>163.841245</ele>
        <time>2026-07-15T00:37:13.487000Z</time>
      </trkpt>
      <trkpt lat="51.292827" lon="7.673088">
        <ele>164.263184</ele>
        <time>2026-07-15T00:37:39.912000Z</time>
      </trkpt>
      <trkpt lat="51.293025" lon="7.673262">
        <ele>164.794541</ele>
        <time>2026-07-15T00:38:05.204000Z</time>
      </trkpt>
      <trkpt lat="51.293263" lon="7.673374">
        <ele>165.378023</ele>
        <time>2026-07-15T00:38:32.577000Z</time>
      </trkpt>
      <trkpt lat="51.293717" lon="7.673487">
        <ele>166.458636</ele>
        <time>2026-07-15T00:39:23.124000Z</time>
      </trkpt>
      <trkpt lat="51.293997" lon="7.673567">
        <ele>167.127592</ele>
        <time>2026-07-15T00:39:54.251000Z</time>
      </trkpt>
      <trkpt lat="51.294108" lon="7.673635">
        <ele>167.407152</ele>
        <time>2026-07-15T00:40:07.359000Z</time>
      </trkpt>
      <trkpt lat="51.294151" lon="7.67355">
        <ele>167.567945</ele>
        <time>2026-07-15T00:40:14.782000Z</time>
      </trkpt>
      <trkpt lat="51.294205" lon="7.673517">
        <ele>167.703905</ele>
        <time>2026-07-15T00:40:21.131000Z</time>
      </trkpt>
      <trkpt lat="51.294444" lon="7.673502">
        <ele>168.174579</ele>
        <time>2026-07-15T00:40:47.064000Z</time>
      </trkpt>
      <trkpt lat="51.294498" lon="7.673471">
        <ele>168.222639</ele>
        <time>2026-07-15T00:40:53.098000Z</time>
      </trkpt>
      <trkpt lat="51.294584" lon="7.673549">
        <ele>168.305459</ele>
        <time>2026-07-15T00:41:03.306000Z</time>
      </trkpt>
      <trkpt lat="51.294936" lon="7.673664">
        <ele>168.606409</ele>
        <time>2026-07-15T00:41:39.533000Z</time>
      </trkpt>
      <trkpt lat="51.295235" lon="7.673684">
        <ele>168.857092</ele>
        <time>2026-07-15T00:42:09.956000Z</time>
      </trkpt>
      <trkpt lat="51.295423" lon="7.673659">
        <ele>169.015118</ele>
        <time>2026-07-15T00:42:29.666000Z</time>
      </trkpt>
      <trkpt lat="51.295567" lon="7.673615">
        <ele>169.137924</ele>
        <time>2026-07-15T00:42:45.548000Z</time>
      </trkpt>
      <trkpt lat="51.295838" lon="7.673534">
        <ele>169.368864</ele>
        <time>2026-07-15T00:43:15.313000Z</time>
      </trkpt>
      <trkpt lat="51.296145" lon="7.673607">
        <ele>169.628856</ele>
        <time>2026-07-15T00:43:48.247000Z</time>
      </trkpt>
      <trkpt lat="51.296139" lon="7.673669">
        <ele>169.580795</ele>
        <time>2026-07-15T00:43:52.162000Z</time>
      </trkpt>
      <trkpt lat="51.296135" lon="7.67371">
        <ele>169.546308</ele>
        <time>2026-07-15T00:43:54.835000Z</time>
      </trkpt>
      <trkpt lat="51.296074" lon="7.67389">
        <ele>169.376153</ele>
        <time>2026-07-15T00:44:07.875000Z</time>
      </trkpt>
      <trkpt lat="51.296065" lon="7.674034">
        <ele>169.255878</ele>
        <time>2026-07-15T00:44:17.221000Z</time>
      </trkpt>
      <trkpt lat="51.296068" lon="7.674123">
        <ele>169.181803</ele>
        <time>2026-07-15T00:44:22.927000Z</time>
      </trkpt>
      <trkpt lat="51.29611" lon="7.674249">
        <ele>169.063135</ele>
        <time>2026-07-15T00:44:32.133000Z</time>
      </trkpt>
      <trkpt lat="51.296189" lon="7.674282">
        <ele>168.954611</ele>
        <time>2026-07-15T00:44:40.529000Z</time>
      </trkpt>
      <trkpt lat="51.296215" lon="7.6743">
        <ele>168.916955</ele>
        <time>2026-07-15T00:44:43.429000Z</time>
      </trkpt>
      <trkpt lat="51.296192" lon="7.674337">
        <ele>168.873595</ele>
        <time>2026-07-15T00:44:46.787000Z</time>
      </trkpt>
      <trkpt lat="51.296167" lon="7.674349">
        <ele>168.838902</ele>
        <time>2026-07-15T00:44:49.504000Z</time>
      </trkpt>
      <trkpt lat="51.296075" lon="7.674392">
        <ele>168.711507</ele>
        <time>2026-07-15T00:44:59.244000Z</time>
      </trkpt>
      <trkpt lat="51.296167" lon="7.674349">
        <ele>168.584113</ele>
        <time>2026-07-15T00:45:08.977000Z</time>
      </trkpt>
      <trkpt lat="51.296192" lon="7.674337">
        <ele>168.54942</ele>
        <time>2026-07-15T00:45:11.652000Z</time>
      </trkpt>
      <trkpt lat="51.296215" lon="7.6743">
        <ele>168.50606</ele>
        <time>2026-07-15T00:45:14.962000Z</time>
      </trkpt>
      <trkpt lat="51.296189" lon="7.674282">
        <ele>168.468404</ele>
        <time>2026-07-15T00:45:17.833000Z</time>
      </trkpt>
      <trkpt lat="51.29611" lon="7.674249">
        <ele>168.35988</ele>
        <time>2026-07-15T00:45:26.175000Z</time>
      </trkpt>
      <trkpt lat="51.296068" lon="7.674123">
        <ele>168.241212</ele>
        <time>2026-07-15T00:45:35.311000Z</time>
      </trkpt>
      <trkpt lat="51.296065" lon="7.674034">
        <ele>168.167137</ele>
        <time>2026-07-15T00:45:41.074000Z</time>
      </trkpt>
      <trkpt lat="51.296074" lon="7.67389">
        <ele>168.046862</ele>
        <time>2026-07-15T00:45:50.650000Z</time>
      </trkpt>
      <trkpt lat="51.296135" lon="7.67371">
        <ele>167.876707</ele>
        <time>2026-07-15T00:46:03.844000Z</time>
      </trkpt>
      <trkpt lat="51.296139" lon="7.673669">
        <ele>167.84222</ele>
        <time>2026-07-15T00:46:06.679000Z</time>
      </trkpt>
      <trkpt lat="51.296145" lon="7.673607">
        <ele>167.790078</ele>
        <time>2026-07-15T00:46:10.790000Z</time>
      </trkpt>
      <trkpt lat="51.296464" lon="7.673634">
        <ele>167.365494</ele>
        <time>2026-07-15T00:46:45.566000Z</time>
      </trkpt>
      <trkpt lat="51.296836" lon="7.673592">
        <ele>168.435194</ele>
        <time>2026-07-15T00:47:25.935000Z</time>
      </trkpt>
      <trkpt lat="51.296974" lon="7.673574">
        <ele>169.029776</ele>
        <time>2026-07-15T00:47:39.896000Z</time>
      </trkpt>
      <trkpt lat="51.296975" lon="7.673496">
        <ele>169.239262</ele>
        <time>2026-07-15T00:47:44.829000Z</time>
      </trkpt>
      <trkpt lat="51.296939" lon="7.673501">
        <ele>169.394439</ele>
        <time>2026-07-15T00:47:48.931000Z</time>
      </trkpt>
      <trkpt lat="51.296975" lon="7.673496">
        <ele>169.549615</ele>
        <time>2026-07-15T00:47:52.975000Z</time>
      </trkpt>
      <trkpt lat="51.296974" lon="7.673574">
        <ele>169.759102</ele>
        <time>2026-07-15T00:47:58.398000Z</time>
      </trkpt>
      <trkpt lat="51.297025" lon="7.673571">
        <ele>169.978259</ele>
        <time>2026-07-15T00:48:04.182000Z</time>
      </trkpt>
      <trkpt lat="51.297478" lon="7.67357">
        <ele>171.92358</ele>
        <time>2026-07-15T00:48:57.867000Z</time>
      </trkpt>
      <trkpt lat="51.297597" lon="7.673587">
        <ele>172.436636</ele>
        <time>2026-07-15T00:49:12.366000Z</time>
      </trkpt>
      <trkpt lat="51.297563" lon="7.673949">
        <ele>173.419555</ele>
        <time>2026-07-15T00:49:41.092000Z</time>
      </trkpt>
      <trkpt lat="51.297823" lon="7.674116">
        <ele>174.622755</ele>
        <time>2026-07-15T00:50:17.485000Z</time>
      </trkpt>
      <trkpt lat="51.297934" lon="7.674125">
        <ele>175.30605</ele>
        <time>2026-07-15T00:50:32.073000Z</time>
      </trkpt>
      <trkpt lat="51.297934" lon="7.674189">
        <ele>175.737626</ele>
        <time>2026-07-15T00:50:37.931000Z</time>
      </trkpt>
      <trkpt lat="51.297856" lon="7.674334">
        <ele>177.027475</ele>
        <time>2026-07-15T00:50:54.159000Z</time>
      </trkpt>
      <trkpt lat="51.297608" lon="7.674432">
        <ele>179.782524</ele>
        <time>2026-07-15T00:51:32.319000Z</time>
      </trkpt>
      <trkpt lat="51.29746" lon="7.674611">
        <ele>181.783698</ele>
        <time>2026-07-15T00:52:00.423000Z</time>
      </trkpt>
      <trkpt lat="51.297444" lon="7.674633">
        <ele>182.011262</ele>
        <time>2026-07-15T00:52:03.634000Z</time>
      </trkpt>
      <trkpt lat="51.297684" lon="7.674715">
        <ele>184.658006</ele>
        <time>2026-07-15T00:52:36.565000Z</time>
      </trkpt>
      <trkpt lat="51.2979" lon="7.674844">
        <ele>187.144633</ele>
        <time>2026-07-15T00:53:06.851000Z</time>
      </trkpt>
      <trkpt lat="51.298117" lon="7.6749">
        <ele>189.515193</ele>
        <time>2026-07-15T00:53:35.981000Z</time>
      </trkpt>
      <trkpt lat="51.2982" lon="7.674992">
        <ele>190.604296</ele>
        <time>2026-07-15T00:53:49.857000Z</time>
      </trkpt>
      <trkpt lat="51.298181" lon="7.675009">
        <ele>190.839093</ele>
        <time>2026-07-15T00:53:52.809000Z</time>
      </trkpt>
      <trkpt lat="51.298123" lon="7.675039">
        <ele>191.496508</ele>
        <time>2026-07-15T00:54:01.200000Z</time>
      </trkpt>
      <trkpt lat="51.298113" lon="7.675082">
        <ele>191.805879</ele>
        <time>2026-07-15T00:54:05.385000Z</time>
      </trkpt>
      <trkpt lat="51.298443" lon="7.675131">
        <ele>194.533163</ele>
        <time>2026-07-15T00:54:53.390000Z</time>
      </trkpt>
      <trkpt lat="51.298587" lon="7.675106">
        <ele>194.796252</ele>
        <time>2026-07-15T00:55:14.848000Z</time>
      </trkpt>
      <trkpt lat="51.298604" lon="7.675114">
        <ele>194.828439</ele>
        <time>2026-07-15T00:55:17.538000Z</time>
      </trkpt>
      <trkpt lat="51.298609" lon="7.67512">
        <ele>194.839793</ele>
        <time>2026-07-15T00:55:18.514000Z</time>
      </trkpt>
      <trkpt lat="51.298622" lon="7.675149">
        <ele>194.880318</ele>
        <time>2026-07-15T00:55:21.722000Z</time>
      </trkpt>
      <trkpt lat="51.298669" lon="7.675109">
        <ele>194.97702</ele>
        <time>2026-07-15T00:55:29.214000Z</time>
      </trkpt>
      <trkpt lat="51.298684" lon="7.675103">
        <ele>195.005104</ele>
        <time>2026-07-15T00:55:31.438000Z</time>
      </trkpt>
      <trkpt lat="51.298833" lon="7.67507">
        <ele>195.278322</ele>
        <time>2026-07-15T00:55:53.061000Z</time>
      </trkpt>
      <trkpt lat="51.298913" lon="7.675072">
        <ele>195.423647</ele>
        <time>2026-07-15T00:56:04.603000Z</time>
      </trkpt>
      <trkpt lat="51.298964" lon="7.675094">
        <ele>195.51959</ele>
        <time>2026-07-15T00:56:11.779000Z</time>
      </trkpt>
      <trkpt lat="51.29916" lon="7.67521">
        <ele>195.899186</ele>
        <time>2026-07-15T00:56:38.888000Z</time>
      </trkpt>
      <trkpt lat="51.299316" lon="7.675295">
        <ele>196.198527</ele>
        <time>2026-07-15T00:56:58.036000Z</time>
      </trkpt>
      <trkpt lat="51.299404" lon="7.675307">
        <ele>196.358945</ele>
        <time>2026-07-15T00:57:07.987000Z</time>
      </trkpt>
      <trkpt lat="51.299454" lon="7.675309">
        <ele>196.449791</ele>
        <time>2026-07-15T00:57:13.184000Z</time>
      </trkpt>
      <trkpt lat="51.29952" lon="7.675308">
        <ele>196.569675</ele>
        <time>2026-07-15T00:57:19.951000Z</time>
      </trkpt>
      <trkpt lat="51.299624" lon="7.675283">
        <ele>196.760696</ele>
        <time>2026-07-15T00:57:30.759000Z</time>
      </trkpt>
      <trkpt lat="51.299697" lon="7.675208">
        <ele>196.918289</ele>
        <time>2026-07-15T00:57:40.008000Z</time>
      </trkpt>
      <trkpt lat="51.299934" lon="7.675132">
        <ele>197.357329</ele>
        <time>2026-07-15T00:58:08.167000Z</time>
      </trkpt>
      <trkpt lat="51.299988" lon="7.675116">
        <ele>197.45708</ele>
        <time>2026-07-15T00:58:14.848000Z</time>
      </trkpt>
      <trkpt lat="51.299934" lon="7.675132">
        <ele>197.556831</ele>
        <time>2026-07-15T00:58:21.892000Z</time>
      </trkpt>
      <trkpt lat="51.299911" lon="7.674943">
        <ele>196.233976</ele>
        <time>2026-07-15T00:58:38.146000Z</time>
      </trkpt>
      <trkpt lat="51.299911" lon="7.674943">
        <ele>196.233976</ele>
        <time>2026-07-15T00:58:38.146000Z</time>
      </trkpt>
      <trkpt lat="51.299907" lon="7.674925">
        <ele>196.028052</ele>
        <time>2026-07-15T00:58:39.915000Z</time>
      </trkpt>
      <trkpt lat="51.299868" lon="7.674752">
        <ele>194.045665</ele>
        <time>2026-07-15T00:58:56.276000Z</time>
      </trkpt>
      <trkpt lat="51.299813" lon="7.674693">
        <ele>192.903892</ele>
        <time>2026-07-15T00:59:06.030000Z</time>
      </trkpt>
      <trkpt lat="51.29971" lon="7.674676">
        <ele>191.118675</ele>
        <time>2026-07-15T00:59:21.300000Z</time>
      </trkpt>
      <trkpt lat="51.299588" lon="7.674488">
        <ele>188.197863</ele>
        <time>2026-07-15T00:59:47.046000Z</time>
      </trkpt>
      <trkpt lat="51.299527" lon="7.674207">
        <ele>184.991394</ele>
        <time>2026-07-15T01:00:15.715000Z</time>
      </trkpt>
      <trkpt lat="51.299481" lon="7.673862">
        <ele>181.188774</ele>
        <time>2026-07-15T01:00:49.985000Z</time>
      </trkpt>
      <trkpt lat="51.299431" lon="7.673547">
        <ele>177.68545</ele>
        <time>2026-07-15T01:01:22.503000Z</time>
      </trkpt>
      <trkpt lat="51.299523" lon="7.673515">
        <ele>176.062234</ele>
        <time>2026-07-15T01:01:37.416000Z</time>
      </trkpt>
      <trkpt lat="51.299761" lon="7.673406">
        <ele>171.794043</ele>
        <time>2026-07-15T01:02:13.597000Z</time>
      </trkpt>
      <trkpt lat="51.300109" lon="7.67321">
        <ele>166.255934</ele>
        <time>2026-07-15T01:03:00.982000Z</time>
      </trkpt>
      <trkpt lat="51.300522" lon="7.672849">
        <ele>163.77258</ele>
        <time>2026-07-15T01:03:54.744000Z</time>
      </trkpt>
      <trkpt lat="51.300983" lon="7.672424">
        <ele>160.96501</ele>
        <time>2026-07-15T01:04:51.211000Z</time>
      </trkpt>
      <trkpt lat="51.301113" lon="7.67229">
        <ele>160.148971</ele>
        <time>2026-07-15T01:05:07.512000Z</time>
      </trkpt>
      <trkpt lat="51.301059" lon="7.672282">
        <ele>159.862826</ele>
        <time>2026-07-15T01:05:13.267000Z</time>
      </trkpt>
      <trkpt lat="51.301008" lon="7.672209">
        <ele>159.501704</ele>
        <time>2026-07-15T01:05:20.435000Z</time>
      </trkpt>
      <trkpt lat="51.30095" lon="7.672056">
        <ele>158.911434</ele>
        <time>2026-07-15T01:05:32.103000Z</time>
      </trkpt>
      <trkpt lat="51.30123" lon="7.671761">
        <ele>157.142314</ele>
        <time>2026-07-15T01:06:06.768000Z</time>
      </trkpt>
      <trkpt lat="51.301357" lon="7.671655">
        <ele>157.128433</ele>
        <time>2026-07-15T01:06:21.529000Z</time>
      </trkpt>
      <trkpt lat="51.301334" lon="7.671556">
        <ele>157.128433</ele>
        <time>2026-07-15T01:06:28.303000Z</time>
      </trkpt>
      <trkpt lat="51.301335" lon="7.671508">
        <ele>157.128433</ele>
        <time>2026-07-15T01:06:31.436000Z</time>
      </trkpt>
      <trkpt lat="51.301365" lon="7.671473">
        <ele>157.128433</ele>
        <time>2026-07-15T01:06:35.290000Z</time>
      </trkpt>
      <trkpt lat="51.301379" lon="7.671448">
        <ele>157.128433</ele>
        <time>2026-07-15T01:06:37.511000Z</time>
      </trkpt>
      <trkpt lat="51.301365" lon="7.671423">
        <ele>157.128433</ele>
        <time>2026-07-15T01:06:39.748000Z</time>
      </trkpt>
      <trkpt lat="51.301076" lon="7.670846">
        <ele>157.128433</ele>
        <time>2026-07-15T01:07:27.014000Z</time>
      </trkpt>
      <trkpt lat="51.30106" lon="7.670813">
        <ele>157.128433</ele>
        <time>2026-07-15T01:07:29.716000Z</time>
      </trkpt>
      <trkpt lat="51.301822" lon="7.66957">
        <ele>157.128433</ele>
        <time>2026-07-15T01:09:22.884000Z</time>
      </trkpt>
      <trkpt lat="51.30183" lon="7.669494">
        <ele>157.128433</ele>
        <time>2026-07-15T01:09:27.845000Z</time>
      </trkpt>
      <trkpt lat="51.301983" lon="7.669119">
        <ele>157.128433</ele>
        <time>2026-07-15T01:09:56.157000Z</time>
      </trkpt>
    </trkseg>
  </trk>
</gpx>