<?xml version="1.0" encoding="UTF-8"?>
<gpx xmlns="http://www.topografix.com/GPX/1/1" xmlns:xsi="http://www.w3.org/2001/XMLSchema-instance" xsi:schemaLocation="http://www.topografix.com/GPX/1/1 http://www.topografix.com/GPX/1/1/gpx.xsd" version="1.1" creator="https://www.komoot.de">
  <metadata>
    <name>Hiking around Porta Westfalica 26/07/2026</name>
    <author>
      <link href="https://www.komoot.de">
        <text>komoot</text>
        <type>text/html</type>
      </link>
    </author>
  </metadata>
  <wpt lat="52.250438" lon="8.906328">
    <name>Forest Path to Kaiser Wilhelm Monument</name>
    <sym>Flag, Blue</sym>
  </wpt>
  <wpt lat="52.249591" lon="8.899977">
    <name>E11 Wittekindsweg (European Long-Distance Trail)</name>
    <sym>Flag, Blue</sym>
  </wpt>
  <wpt lat="52.249558" lon="8.893916">
    <name>Forest Path in Natur- und Geopark TERRA.vita</name>
    <sym>Flag, Blue</sym>
  </wpt>
  <wpt lat="52.250839" lon="8.87926">
    <name>Beech Forest in Natur- und Geopark TERRA.vita</name>
    <sym>Flag, Blue</sym>
  </wpt>
  <wpt lat="52.251694" lon="8.852639">
    <name>Zum Wilden Schmied – Restaurant and Viewpoint</name>
    <sym>Restaurant</sym>
  </wpt>
  <wpt lat="52.250982" lon="8.860347">
    <name>View of the Weser Valley from Natur- und Geopark TERRA.vita</name>
    <sym>Flag, Blue</sym>
  </wpt>
  <wpt lat="52.25221" lon="8.854755">
    <name>Ridge of the Wiehen Hills</name>
    <sym>Flag, Blue</sym>
  </wpt>
  <wpt lat="52.24827" lon="8.881802">
    <name>Wittekindsberg Cross Church Archaeological Site</name>
    <sym>Flag, Blue</sym>
  </wpt>
  <wpt lat="52.247123" lon="8.883962">
    <name>Wittekindsburg and View over the Weser Valley</name>
    <sym>Flag, Blue</sym>
  </wpt>
  <wpt lat="52.246115" lon="8.890456">
    <name>Moltke Tower (Moltketurm)</name>
    <sym>Flag, Blue</sym>
  </wpt>
  <wpt lat="52.247888" lon="8.901638">
    <name>Forest Path in Natur- und Geopark TERRA.vita</name>
    <sym>Flag, Blue</sym>
  </wpt>
  <wpt lat="52.245165" lon="8.90605">
    <name>Kaiser Wilhelm Monument, Porta Westfalica</name>
    <sym>Flag, Blue</sym>
  </wpt>
  <wpt lat="52.24266" lon="8.916833">
    <name>View of the Kaiser Wilhelm Monument and the Weser from Weser Bridge</name>
    <sym>Flag, Blue</sym>
  </wpt>
  <wpt lat="52.241331" lon="8.919679">
    <name>View of the Kaiser Wilhelm Monument</name>
    <sym>Flag, Blue</sym>
  </wpt>
  <trk>
    <name>Hiking around Porta Westfalica 26/07/2026</name>
    <type>hike</type>
    <trkseg>
      <trkpt lat="52.243723" lon="8.92121">
        <ele>58.080063</ele>
        <time>2026-07-17T10:01:34.105000Z</time>
      </trkpt>
      <trkpt lat="52.243586" lon="8.921203">
        <ele>58.080063</ele>
        <time>2026-07-17T10:01:47.907000Z</time>
      </trkpt>
      <trkpt lat="52.243484" lon="8.921306">
        <ele>58.080063</ele>
        <time>2026-07-17T10:01:59.995000Z</time>
      </trkpt>
      <trkpt lat="52.243142" lon="8.921247">
        <ele>58.080063</ele>
        <time>2026-07-17T10:02:35.684000Z</time>
      </trkpt>
      <trkpt lat="52.242922" lon="8.921197">
        <ele>58.080063</ele>
        <time>2026-07-17T10:02:58.819000Z</time>
      </trkpt>
      <trkpt lat="52.242109" lon="8.920814">
        <ele>55.751662</ele>
        <time>2026-07-17T10:04:28.126000Z</time>
      </trkpt>
      <trkpt lat="52.241289" lon="8.920198">
        <ele>53.021742</ele>
        <time>2026-07-17T10:06:05.791000Z</time>
      </trkpt>
      <trkpt lat="52.241229" lon="8.919998">
        <ele>52.617026</ele>
        <time>2026-07-17T10:06:20.127000Z</time>
      </trkpt>
      <trkpt lat="52.241245" lon="8.919814">
        <ele>52.359637</ele>
        <time>2026-07-17T10:06:32.058000Z</time>
      </trkpt>
      <trkpt lat="52.241314" lon="8.919659">
        <ele>52.094237</ele>
        <time>2026-07-17T10:06:44.275000Z</time>
      </trkpt>
      <trkpt lat="52.241356" lon="8.919565">
        <ele>51.933079</ele>
        <time>2026-07-17T10:06:51.713000Z</time>
      </trkpt>
      <trkpt lat="52.242258" lon="8.917692">
        <ele>48.632959</ele>
        <time>2026-07-17T10:09:24.310000Z</time>
      </trkpt>
      <trkpt lat="52.242647" lon="8.916817">
        <ele>47.689417</ele>
        <time>2026-07-17T10:10:32.848000Z</time>
      </trkpt>
      <trkpt lat="52.243258" lon="8.915441">
        <ele>46.243242</ele>
        <time>2026-07-17T10:12:20.038000Z</time>
      </trkpt>
      <trkpt lat="52.243496" lon="8.91501">
        <ele>46.386722</ele>
        <time>2026-07-17T10:12:56.004000Z</time>
      </trkpt>
      <trkpt lat="52.243562" lon="8.914939">
        <ele>46.493413</ele>
        <time>2026-07-17T10:13:03.962000Z</time>
      </trkpt>
      <trkpt lat="52.243689" lon="8.914916">
        <ele>46.665912</ele>
        <time>2026-07-17T10:13:16.797000Z</time>
      </trkpt>
      <trkpt lat="52.243698" lon="8.914852">
        <ele>46.720192</ele>
        <time>2026-07-17T10:13:20.835000Z</time>
      </trkpt>
      <trkpt lat="52.243707" lon="8.91481">
        <ele>46.756973</ele>
        <time>2026-07-17T10:13:23.551000Z</time>
      </trkpt>
      <trkpt lat="52.243718" lon="8.91476">
        <ele>46.80089</ele>
        <time>2026-07-17T10:13:26.871000Z</time>
      </trkpt>
      <trkpt lat="52.243783" lon="8.914592">
        <ele>46.965159</ele>
        <time>2026-07-17T10:13:39.297000Z</time>
      </trkpt>
      <trkpt lat="52.243799" lon="8.914552">
        <ele>47.004653</ele>
        <time>2026-07-17T10:13:42.317000Z</time>
      </trkpt>
      <trkpt lat="52.243824" lon="8.914494">
        <ele>47.063284</ele>
        <time>2026-07-17T10:13:46.805000Z</time>
      </trkpt>
      <trkpt lat="52.243962" lon="8.914298">
        <ele>47.310175</ele>
        <time>2026-07-17T10:14:05.806000Z</time>
      </trkpt>
      <trkpt lat="52.244397" lon="8.913806">
        <ele>48.024489</ele>
        <time>2026-07-17T10:15:02.660000Z</time>
      </trkpt>
      <trkpt lat="52.244762" lon="8.913483">
        <ele>48.858158</ele>
        <time>2026-07-17T10:15:48.725000Z</time>
      </trkpt>
      <trkpt lat="52.244821" lon="8.913464">
        <ele>49.203115</ele>
        <time>2026-07-17T10:15:55.466000Z</time>
      </trkpt>
      <trkpt lat="52.244902" lon="8.913525">
        <ele>49.71477</ele>
        <time>2026-07-17T10:16:05.737000Z</time>
      </trkpt>
      <trkpt lat="52.244946" lon="8.913489">
        <ele>49.997067</ele>
        <time>2026-07-17T10:16:11.361000Z</time>
      </trkpt>
      <trkpt lat="52.245006" lon="8.91344">
        <ele>50.381873</ele>
        <time>2026-07-17T10:16:19.044000Z</time>
      </trkpt>
      <trkpt lat="52.245052" lon="8.9134">
        <ele>50.680811</ele>
        <time>2026-07-17T10:16:25.050000Z</time>
      </trkpt>
      <trkpt lat="52.245074" lon="8.913283">
        <ele>51.110685</ele>
        <time>2026-07-17T10:16:33.727000Z</time>
      </trkpt>
      <trkpt lat="52.245143" lon="8.913203">
        <ele>51.596081</ele>
        <time>2026-07-17T10:16:43.438000Z</time>
      </trkpt>
      <trkpt lat="52.245117" lon="8.913098">
        <ele>51.993882</ele>
        <time>2026-07-17T10:16:51.347000Z</time>
      </trkpt>
      <trkpt lat="52.2451" lon="8.913024">
        <ele>52.27148</ele>
        <time>2026-07-17T10:16:56.945000Z</time>
      </trkpt>
      <trkpt lat="52.245075" lon="8.912979">
        <ele>52.484894</ele>
        <time>2026-07-17T10:17:01.124000Z</time>
      </trkpt>
      <trkpt lat="52.245078" lon="8.912922">
        <ele>52.68583</ele>
        <time>2026-07-17T10:17:05.195000Z</time>
      </trkpt>
      <trkpt lat="52.245081" lon="8.91284">
        <ele>52.974347</ele>
        <time>2026-07-17T10:17:11.129000Z</time>
      </trkpt>
      <trkpt lat="52.245061" lon="8.91261">
        <ele>53.790268</ele>
        <time>2026-07-17T10:17:27.997000Z</time>
      </trkpt>
      <trkpt lat="52.245044" lon="8.912429">
        <ele>54.433419</ele>
        <time>2026-07-17T10:17:41.527000Z</time>
      </trkpt>
      <trkpt lat="52.245049" lon="8.912403">
        <ele>54.529136</ele>
        <time>2026-07-17T10:17:43.625000Z</time>
      </trkpt>
      <trkpt lat="52.245334" lon="8.912557">
        <ele>56.251127</ele>
        <time>2026-07-17T10:18:21.049000Z</time>
      </trkpt>
      <trkpt lat="52.245433" lon="8.912359">
        <ele>57.148962</ele>
        <time>2026-07-17T10:18:41.049000Z</time>
      </trkpt>
      <trkpt lat="52.245418" lon="8.912251">
        <ele>57.537918</ele>
        <time>2026-07-17T10:18:49.678000Z</time>
      </trkpt>
      <trkpt lat="52.24528" lon="8.912025">
        <ele>58.658943</ele>
        <time>2026-07-17T10:19:14.670000Z</time>
      </trkpt>
      <trkpt lat="52.245468" lon="8.911546">
        <ele>60.785347</ele>
        <time>2026-07-17T10:19:59.352000Z</time>
      </trkpt>
      <trkpt lat="52.245452" lon="8.911398">
        <ele>61.349959</ele>
        <time>2026-07-17T10:20:10.880000Z</time>
      </trkpt>
      <trkpt lat="52.245529" lon="8.911062">
        <ele>62.697774</ele>
        <time>2026-07-17T10:20:38.323000Z</time>
      </trkpt>
      <trkpt lat="52.245925" lon="8.911078">
        <ele>65.128298</ele>
        <time>2026-07-17T10:21:26.460000Z</time>
      </trkpt>
      <trkpt lat="52.24654" lon="8.911142">
        <ele>68.909473</ele>
        <time>2026-07-17T10:22:40.909000Z</time>
      </trkpt>
      <trkpt lat="52.246663" lon="8.911206">
        <ele>69.70155</ele>
        <time>2026-07-17T10:22:55.725000Z</time>
      </trkpt>
      <trkpt lat="52.246697" lon="8.91119">
        <ele>69.877425</ele>
        <time>2026-07-17T10:22:59.656000Z</time>
      </trkpt>
      <trkpt lat="52.247656" lon="8.910688">
        <ele>72.087187</ele>
        <time>2026-07-17T10:24:48.698000Z</time>
      </trkpt>
      <trkpt lat="52.248503" lon="8.910121">
        <ele>73.938136</ele>
        <time>2026-07-17T10:26:25.220000Z</time>
      </trkpt>
      <trkpt lat="52.24925" lon="8.909748">
        <ele>74.73478</ele>
        <time>2026-07-17T10:27:43.994000Z</time>
      </trkpt>
      <trkpt lat="52.249637" lon="8.909401">
        <ele>75.185026</ele>
        <time>2026-07-17T10:28:29.061000Z</time>
      </trkpt>
      <trkpt lat="52.249791" lon="8.909454">
        <ele>75.345533</ele>
        <time>2026-07-17T10:28:45.457000Z</time>
      </trkpt>
      <trkpt lat="52.249837" lon="8.909224">
        <ele>75.49661</ele>
        <time>2026-07-17T10:29:01.152000Z</time>
      </trkpt>
      <trkpt lat="52.249916" lon="8.909005">
        <ele>75.774079</ele>
        <time>2026-07-17T10:29:17.843000Z</time>
      </trkpt>
      <trkpt lat="52.250064" lon="8.908769">
        <ele>77.255303</ele>
        <time>2026-07-17T10:29:40.575000Z</time>
      </trkpt>
      <trkpt lat="52.250245" lon="8.908551">
        <ele>78.865816</ele>
        <time>2026-07-17T10:30:06.305000Z</time>
      </trkpt>
      <trkpt lat="52.250298" lon="8.908493">
        <ele>79.322686</ele>
        <time>2026-07-17T10:30:13.768000Z</time>
      </trkpt>
      <trkpt lat="52.250823" lon="8.907961">
        <ele>83.747204</ele>
        <time>2026-07-17T10:31:31.867000Z</time>
      </trkpt>
      <trkpt lat="52.250957" lon="8.907749">
        <ele>85.083178</ele>
        <time>2026-07-17T10:31:56.606000Z</time>
      </trkpt>
      <trkpt lat="52.251007" lon="8.907611">
        <ele>85.786229</ele>
        <time>2026-07-17T10:32:09.674000Z</time>
      </trkpt>
      <trkpt lat="52.250847" lon="8.907482">
        <ele>87.064048</ele>
        <time>2026-07-17T10:32:33.635000Z</time>
      </trkpt>
      <trkpt lat="52.250764" lon="8.906878">
        <ele>90.663135</ele>
        <time>2026-07-17T10:33:24.577000Z</time>
      </trkpt>
      <trkpt lat="52.250603" lon="8.906256">
        <ele>95.701215</ele>
        <time>2026-07-17T10:34:21.280000Z</time>
      </trkpt>
      <trkpt lat="52.250527" lon="8.906215">
        <ele>96.676558</ele>
        <time>2026-07-17T10:34:32.939000Z</time>
      </trkpt>
      <trkpt lat="52.250429" lon="8.906243">
        <ele>97.888923</ele>
        <time>2026-07-17T10:34:47.532000Z</time>
      </trkpt>
      <trkpt lat="52.250406" lon="8.90625">
        <ele>98.174026</ele>
        <time>2026-07-17T10:34:51.110000Z</time>
      </trkpt>
      <trkpt lat="52.250159" lon="8.906427">
        <ele>101.4609</ele>
        <time>2026-07-17T10:35:30.964000Z</time>
      </trkpt>
      <trkpt lat="52.250071" lon="8.90642">
        <ele>102.534543</ele>
        <time>2026-07-17T10:35:44.112000Z</time>
      </trkpt>
      <trkpt lat="52.250017" lon="8.906375">
        <ele>103.273282</ele>
        <time>2026-07-17T10:35:52.914000Z</time>
      </trkpt>
      <trkpt lat="52.249916" lon="8.906201">
        <ele>105.062132</ele>
        <time>2026-07-17T10:36:14.621000Z</time>
      </trkpt>
      <trkpt lat="52.249849" lon="8.905948">
        <ele>107.118664</ele>
        <time>2026-07-17T10:36:39.807000Z</time>
      </trkpt>
      <trkpt lat="52.249781" lon="8.905584">
        <ele>109.957915</ele>
        <time>2026-07-17T10:37:15.049000Z</time>
      </trkpt>
      <trkpt lat="52.249722" lon="8.905405">
        <ele>111.733803</ele>
        <time>2026-07-17T10:37:34.037000Z</time>
      </trkpt>
      <trkpt lat="52.249648" lon="8.904904">
        <ele>116.537391</ele>
        <time>2026-07-17T10:38:24.128000Z</time>
      </trkpt>
      <trkpt lat="52.24958" lon="8.904683">
        <ele>118.842759</ele>
        <time>2026-07-17T10:38:49.526000Z</time>
      </trkpt>
      <trkpt lat="52.248891" lon="8.902931">
        <ele>138.129248</ele>
        <time>2026-07-17T10:42:27.968000Z</time>
      </trkpt>
      <trkpt lat="52.248791" lon="8.902727">
        <ele>139.879201</ele>
        <time>2026-07-17T10:42:56.078000Z</time>
      </trkpt>
      <trkpt lat="52.248742" lon="8.902706">
        <ele>140.433277</ele>
        <time>2026-07-17T10:43:04.830000Z</time>
      </trkpt>
      <trkpt lat="52.248707" lon="8.902727">
        <ele>140.841099</ele>
        <time>2026-07-17T10:43:11.172000Z</time>
      </trkpt>
      <trkpt lat="52.248662" lon="8.902947">
        <ele>142.394326</ele>
        <time>2026-07-17T10:43:34.608000Z</time>
      </trkpt>
      <trkpt lat="52.248641" lon="8.902959">
        <ele>142.637663</ele>
        <time>2026-07-17T10:43:38.178000Z</time>
      </trkpt>
      <trkpt lat="52.248569" lon="8.902717">
        <ele>144.43938</ele>
        <time>2026-07-17T10:44:04.111000Z</time>
      </trkpt>
      <trkpt lat="52.248407" lon="8.90245">
        <ele>146.956552</ele>
        <time>2026-07-17T10:44:38.710000Z</time>
      </trkpt>
      <trkpt lat="52.248234" lon="8.901985">
        <ele>150.600188</ele>
        <time>2026-07-17T10:45:24.822000Z</time>
      </trkpt>
      <trkpt lat="52.248146" lon="8.901862">
        <ele>151.866995</ele>
        <time>2026-07-17T10:45:40.468000Z</time>
      </trkpt>
      <trkpt lat="52.24833" lon="8.901611">
        <ele>154.489046</ele>
        <time>2026-07-17T10:46:11.471000Z</time>
      </trkpt>
      <trkpt lat="52.248383" lon="8.901455">
        <ele>155.683735</ele>
        <time>2026-07-17T10:46:25.423000Z</time>
      </trkpt>
      <trkpt lat="52.24843" lon="8.900763">
        <ele>156.260943</ele>
        <time>2026-07-17T10:47:14.755000Z</time>
      </trkpt>
      <trkpt lat="52.248344" lon="8.900398">
        <ele>155.133456</ele>
        <time>2026-07-17T10:47:38.899000Z</time>
      </trkpt>
      <trkpt lat="52.248353" lon="8.900341">
        <ele>154.963754</ele>
        <time>2026-07-17T10:47:42.722000Z</time>
      </trkpt>
      <trkpt lat="52.248445" lon="8.900182">
        <ele>154.333057</ele>
        <time>2026-07-17T10:47:57.342000Z</time>
      </trkpt>
      <trkpt lat="52.248408" lon="8.899865">
        <ele>153.402723</ele>
        <time>2026-07-17T10:48:19.545000Z</time>
      </trkpt>
      <trkpt lat="52.248356" lon="8.899786">
        <ele>153.068322</ele>
        <time>2026-07-17T10:48:27.500000Z</time>
      </trkpt>
      <trkpt lat="52.248484" lon="8.899674">
        <ele>152.384563</ele>
        <time>2026-07-17T10:48:44.278000Z</time>
      </trkpt>
      <trkpt lat="52.248649" lon="8.899336">
        <ele>151.138318</ele>
        <time>2026-07-17T10:49:16.077000Z</time>
      </trkpt>
      <trkpt lat="52.248737" lon="8.899266">
        <ele>150.67742</ele>
        <time>2026-07-17T10:49:28.136000Z</time>
      </trkpt>
      <trkpt lat="52.248845" lon="8.899309">
        <ele>150.153984</ele>
        <time>2026-07-17T10:49:41.672000Z</time>
      </trkpt>
      <trkpt lat="52.248936" lon="8.899391">
        <ele>149.664604</ele>
        <time>2026-07-17T10:49:54.453000Z</time>
      </trkpt>
      <trkpt lat="52.249154" lon="8.899756">
        <ele>148.483225</ele>
        <time>2026-07-17T10:50:32.401000Z</time>
      </trkpt>
      <trkpt lat="52.249204" lon="8.899914">
        <ele>148.149571</ele>
        <time>2026-07-17T10:50:45.593000Z</time>
      </trkpt>
      <trkpt lat="52.249268" lon="8.900001">
        <ele>147.894437</ele>
        <time>2026-07-17T10:50:55.589000Z</time>
      </trkpt>
      <trkpt lat="52.249559" lon="8.899917">
        <ele>146.988959</ele>
        <time>2026-07-17T10:51:30.183000Z</time>
      </trkpt>
      <trkpt lat="52.249614" lon="8.899774">
        <ele>146.672156</ele>
        <time>2026-07-17T10:51:42.016000Z</time>
      </trkpt>
      <trkpt lat="52.249456" lon="8.89964">
        <ele>146.126654</ele>
        <time>2026-07-17T10:52:01.495000Z</time>
      </trkpt>
      <trkpt lat="52.249435" lon="8.899524">
        <ele>145.899731</ele>
        <time>2026-07-17T10:52:09.463000Z</time>
      </trkpt>
      <trkpt lat="52.249398" lon="8.899413">
        <ele>145.662639</ele>
        <time>2026-07-17T10:52:17.564000Z</time>
      </trkpt>
      <trkpt lat="52.249378" lon="8.899235">
        <ele>145.323145</ele>
        <time>2026-07-17T10:52:28.913000Z</time>
      </trkpt>
      <trkpt lat="52.249357" lon="8.898415">
        <ele>143.78353</ele>
        <time>2026-07-17T10:53:25.260000Z</time>
      </trkpt>
      <trkpt lat="52.249309" lon="8.898338">
        <ele>143.577382</ele>
        <time>2026-07-17T10:53:33.655000Z</time>
      </trkpt>
      <trkpt lat="52.249235" lon="8.898313">
        <ele>143.66425</ele>
        <time>2026-07-17T10:53:43.176000Z</time>
      </trkpt>
      <trkpt lat="52.248938" lon="8.898461">
        <ele>144.561605</ele>
        <time>2026-07-17T10:54:22.872000Z</time>
      </trkpt>
      <trkpt lat="52.248886" lon="8.898444">
        <ele>144.71486</ele>
        <time>2026-07-17T10:54:29.498000Z</time>
      </trkpt>
      <trkpt lat="52.24886" lon="8.898359">
        <ele>144.882975</ele>
        <time>2026-07-17T10:54:36.700000Z</time>
      </trkpt>
      <trkpt lat="52.248838" lon="8.897937">
        <ele>145.632318</ele>
        <time>2026-07-17T10:55:08.444000Z</time>
      </trkpt>
      <trkpt lat="52.248673" lon="8.897602">
        <ele>146.393027</ele>
        <time>2026-07-17T10:55:38.934000Z</time>
      </trkpt>
      <trkpt lat="52.248663" lon="8.897433">
        <ele>146.693432</ele>
        <time>2026-07-17T10:55:50.401000Z</time>
      </trkpt>
      <trkpt lat="52.248565" lon="8.896963">
        <ele>147.571907</ele>
        <time>2026-07-17T10:56:21.966000Z</time>
      </trkpt>
      <trkpt lat="52.248576" lon="8.896887">
        <ele>147.71008</ele>
        <time>2026-07-17T10:56:26.817000Z</time>
      </trkpt>
      <trkpt lat="52.248628" lon="8.896809">
        <ele>147.914109</ele>
        <time>2026-07-17T10:56:34.058000Z</time>
      </trkpt>
      <trkpt lat="52.248892" lon="8.896703">
        <ele>148.699755</ele>
        <time>2026-07-17T10:57:02.413000Z</time>
      </trkpt>
      <trkpt lat="52.249064" lon="8.896544">
        <ele>149.324548</ele>
        <time>2026-07-17T10:57:23.553000Z</time>
      </trkpt>
      <trkpt lat="52.249419" lon="8.896527">
        <ele>150.448643</ele>
        <time>2026-07-17T10:58:01.368000Z</time>
      </trkpt>
      <trkpt lat="52.249637" lon="8.896541">
        <ele>151.13917</ele>
        <time>2026-07-17T10:58:23.942000Z</time>
      </trkpt>
      <trkpt lat="52.249852" lon="8.896389">
        <ele>151.880675</ele>
        <time>2026-07-17T10:58:47.562000Z</time>
      </trkpt>
      <trkpt lat="52.250118" lon="8.896044">
        <ele>152.955729</ele>
        <time>2026-07-17T10:59:25.222000Z</time>
      </trkpt>
      <trkpt lat="52.250059" lon="8.895803">
        <ele>153.458675</ele>
        <time>2026-07-17T10:59:44.579000Z</time>
      </trkpt>
      <trkpt lat="52.249928" lon="8.895632">
        <ele>153.98944</ele>
        <time>2026-07-17T11:00:06.129000Z</time>
      </trkpt>
      <trkpt lat="52.249506" lon="8.893951">
        <ele>171.031533</ele>
        <time>2026-07-17T11:03:18.776000Z</time>
      </trkpt>
      <trkpt lat="52.249463" lon="8.893783">
        <ele>172.918718</ele>
        <time>2026-07-17T11:03:41.120000Z</time>
      </trkpt>
      <trkpt lat="52.248934" lon="8.892894">
        <ele>185.647938</ele>
        <time>2026-07-17T11:06:11.300000Z</time>
      </trkpt>
      <trkpt lat="52.248777" lon="8.892252">
        <ele>191.882119</ele>
        <time>2026-07-17T11:07:32.657000Z</time>
      </trkpt>
      <trkpt lat="52.248705" lon="8.891692">
        <ele>197.042244</ele>
        <time>2026-07-17T11:08:39.444000Z</time>
      </trkpt>
      <trkpt lat="52.248391" lon="8.890721">
        <ele>206.944969</ele>
        <time>2026-07-17T11:10:23.915000Z</time>
      </trkpt>
      <trkpt lat="52.248299" lon="8.890549">
        <ele>209.004612</ele>
        <time>2026-07-17T11:10:42.663000Z</time>
      </trkpt>
      <trkpt lat="52.248261" lon="8.890483">
        <ele>209.821632</ele>
        <time>2026-07-17T11:10:50.272000Z</time>
      </trkpt>
      <trkpt lat="52.248244" lon="8.890073">
        <ele>211.917125</ele>
        <time>2026-07-17T11:11:22.798000Z</time>
      </trkpt>
      <trkpt lat="52.248335" lon="8.886426">
        <ele>217.011708</ele>
        <time>2026-07-17T11:15:26.781000Z</time>
      </trkpt>
      <trkpt lat="52.248631" lon="8.885954">
        <ele>216.086952</ele>
        <time>2026-07-17T11:16:11.078000Z</time>
      </trkpt>
      <trkpt lat="52.249273" lon="8.884524">
        <ele>213.211331</ele>
        <time>2026-07-17T11:18:12.112000Z</time>
      </trkpt>
      <trkpt lat="52.249729" lon="8.88377">
        <ele>210.739879</ele>
        <time>2026-07-17T11:19:21.885000Z</time>
      </trkpt>
      <trkpt lat="52.249802" lon="8.883605">
        <ele>210.265168</ele>
        <time>2026-07-17T11:19:34.983000Z</time>
      </trkpt>
      <trkpt lat="52.249823" lon="8.883558">
        <ele>210.129486</ele>
        <time>2026-07-17T11:19:38.649000Z</time>
      </trkpt>
      <trkpt lat="52.24991" lon="8.882992">
        <ele>208.768684</ele>
        <time>2026-07-17T11:20:16.531000Z</time>
      </trkpt>
      <trkpt lat="52.249891" lon="8.882537">
        <ele>207.705219</ele>
        <time>2026-07-17T11:20:46.324000Z</time>
      </trkpt>
      <trkpt lat="52.249812" lon="8.882098">
        <ele>206.316194</ele>
        <time>2026-07-17T11:21:16.275000Z</time>
      </trkpt>
      <trkpt lat="52.250099" lon="8.88109">
        <ele>202.691255</ele>
        <time>2026-07-17T11:22:29.839000Z</time>
      </trkpt>
      <trkpt lat="52.250252" lon="8.880635">
        <ele>200.998539</ele>
        <time>2026-07-17T11:23:05.445000Z</time>
      </trkpt>
      <trkpt lat="52.250377" lon="8.880085">
        <ele>199.085532</ele>
        <time>2026-07-17T11:23:46.890000Z</time>
      </trkpt>
      <trkpt lat="52.250781" lon="8.87919">
        <ele>194.236702</ele>
        <time>2026-07-17T11:25:05.106000Z</time>
      </trkpt>
      <trkpt lat="52.251455" lon="8.877695">
        <ele>185.106928</ele>
        <time>2026-07-17T11:27:17.461000Z</time>
      </trkpt>
      <trkpt lat="52.251543" lon="8.876987">
        <ele>182.45816</ele>
        <time>2026-07-17T11:28:10.356000Z</time>
      </trkpt>
      <trkpt lat="52.251588" lon="8.876837">
        <ele>182.03477</ele>
        <time>2026-07-17T11:28:22.425000Z</time>
      </trkpt>
      <trkpt lat="52.25244" lon="8.876332">
        <ele>178.282255</ele>
        <time>2026-07-17T11:30:01.381000Z</time>
      </trkpt>
      <trkpt lat="52.25247" lon="8.874612">
        <ele>174.527187</ele>
        <time>2026-07-17T11:31:47.286000Z</time>
      </trkpt>
      <trkpt lat="52.252829" lon="8.874287">
        <ele>173.329911</ele>
        <time>2026-07-17T11:32:29.648000Z</time>
      </trkpt>
      <trkpt lat="52.252884" lon="8.873737">
        <ele>172.334741</ele>
        <time>2026-07-17T11:33:05.929000Z</time>
      </trkpt>
      <trkpt lat="52.253002" lon="8.873109">
        <ele>171.161668</ele>
        <time>2026-07-17T11:33:52.205000Z</time>
      </trkpt>
      <trkpt lat="52.253019" lon="8.872788">
        <ele>170.331892</ele>
        <time>2026-07-17T11:34:15.117000Z</time>
      </trkpt>
      <trkpt lat="52.253076" lon="8.87271">
        <ele>169.720136</ele>
        <time>2026-07-17T11:34:23.632000Z</time>
      </trkpt>
      <trkpt lat="52.25317" lon="8.87276">
        <ele>168.906809</ele>
        <time>2026-07-17T11:34:34.861000Z</time>
      </trkpt>
      <trkpt lat="52.253236" lon="8.872745">
        <ele>168.358581</ele>
        <time>2026-07-17T11:34:42.351000Z</time>
      </trkpt>
      <trkpt lat="52.253487" lon="8.872456">
        <ele>165.832126</ele>
        <time>2026-07-17T11:35:17.392000Z</time>
      </trkpt>
      <trkpt lat="52.253624" lon="8.872228">
        <ele>164.223076</ele>
        <time>2026-07-17T11:35:40.043000Z</time>
      </trkpt>
      <trkpt lat="52.253713" lon="8.872142">
        <ele>163.372337</ele>
        <time>2026-07-17T11:35:51.995000Z</time>
      </trkpt>
      <trkpt lat="52.253738" lon="8.871698">
        <ele>161.126722</ele>
        <time>2026-07-17T11:36:24.357000Z</time>
      </trkpt>
      <trkpt lat="52.253766" lon="8.871197">
        <ele>158.592977</ele>
        <time>2026-07-17T11:37:01.701000Z</time>
      </trkpt>
      <trkpt lat="52.253871" lon="8.870639">
        <ele>155.71162</ele>
        <time>2026-07-17T11:37:43.408000Z</time>
      </trkpt>
      <trkpt lat="52.253944" lon="8.870307">
        <ele>154.313987</ele>
        <time>2026-07-17T11:38:08.251000Z</time>
      </trkpt>
      <trkpt lat="52.254121" lon="8.869971">
        <ele>152.55775</ele>
        <time>2026-07-17T11:38:39.944000Z</time>
      </trkpt>
      <trkpt lat="52.254179" lon="8.869868">
        <ele>152.003284</ele>
        <time>2026-07-17T11:38:50.265000Z</time>
      </trkpt>
      <trkpt lat="52.254065" lon="8.869595">
        <ele>150.694004</ele>
        <time>2026-07-17T11:39:13.811000Z</time>
      </trkpt>
      <trkpt lat="52.254058" lon="8.869478">
        <ele>150.228253</ele>
        <time>2026-07-17T11:39:22.283000Z</time>
      </trkpt>
      <trkpt lat="52.254102" lon="8.86899">
        <ele>148.273985</ele>
        <time>2026-07-17T11:39:57.067000Z</time>
      </trkpt>
      <trkpt lat="52.254112" lon="8.868594">
        <ele>146.703738</ele>
        <time>2026-07-17T11:40:24.969000Z</time>
      </trkpt>
      <trkpt lat="52.25425" lon="8.868228">
        <ele>145.000698</ele>
        <time>2026-07-17T11:40:53.724000Z</time>
      </trkpt>
      <trkpt lat="52.254145" lon="8.867432">
        <ele>146.307632</ele>
        <time>2026-07-17T11:41:43.689000Z</time>
      </trkpt>
      <trkpt lat="52.254324" lon="8.867579">
        <ele>147.350125</ele>
        <time>2026-07-17T11:42:05.089000Z</time>
      </trkpt>
      <trkpt lat="52.254416" lon="8.86729">
        <ele>148.387719</ele>
        <time>2026-07-17T11:42:27.831000Z</time>
      </trkpt>
      <trkpt lat="52.254483" lon="8.866971">
        <ele>149.461981</ele>
        <time>2026-07-17T11:42:52.626000Z</time>
      </trkpt>
      <trkpt lat="52.254473" lon="8.866556">
        <ele>150.784912</ele>
        <time>2026-07-17T11:43:24.382000Z</time>
      </trkpt>
      <trkpt lat="52.25428" lon="8.865687">
        <ele>153.890814</ele>
        <time>2026-07-17T11:44:39.677000Z</time>
      </trkpt>
      <trkpt lat="52.254276" lon="8.865474">
        <ele>155.889371</ele>
        <time>2026-07-17T11:44:59.285000Z</time>
      </trkpt>
      <trkpt lat="52.254302" lon="8.865161">
        <ele>158.851738</ele>
        <time>2026-07-17T11:45:28.890000Z</time>
      </trkpt>
      <trkpt lat="52.254413" lon="8.864664">
        <ele>163.813364</ele>
        <time>2026-07-17T11:46:20.565000Z</time>
      </trkpt>
      <trkpt lat="52.254402" lon="8.864536">
        <ele>165.025577</ele>
        <time>2026-07-17T11:46:33.463000Z</time>
      </trkpt>
      <trkpt lat="52.25434" lon="8.864151">
        <ele>168.759135</ele>
        <time>2026-07-17T11:47:14.761000Z</time>
      </trkpt>
      <trkpt lat="52.254266" lon="8.863823">
        <ele>172.037538</ele>
        <time>2026-07-17T11:47:52.615000Z</time>
      </trkpt>
      <trkpt lat="52.253989" lon="8.862939">
        <ele>181.35093</ele>
        <time>2026-07-17T11:49:45.846000Z</time>
      </trkpt>
      <trkpt lat="52.253904" lon="8.862614">
        <ele>184.660448</ele>
        <time>2026-07-17T11:50:26.639000Z</time>
      </trkpt>
      <trkpt lat="52.253713" lon="8.861896">
        <ele>191.991422</ele>
        <time>2026-07-17T11:51:53.392000Z</time>
      </trkpt>
      <trkpt lat="52.253592" lon="8.861306">
        <ele>197.818196</ele>
        <time>2026-07-17T11:52:57.439000Z</time>
      </trkpt>
      <trkpt lat="52.25353" lon="8.860849">
        <ele>202.20155</ele>
        <time>2026-07-17T11:53:41.777000Z</time>
      </trkpt>
      <trkpt lat="52.253541" lon="8.859842">
        <ele>210.800799</ele>
        <time>2026-07-17T11:55:11.635000Z</time>
      </trkpt>
      <trkpt lat="52.25347" lon="8.859291">
        <ele>214.569168</ele>
        <time>2026-07-17T11:56:01.330000Z</time>
      </trkpt>
      <trkpt lat="52.253388" lon="8.858854">
        <ele>217.628098</ele>
        <time>2026-07-17T11:56:41.009000Z</time>
      </trkpt>
      <trkpt lat="52.253292" lon="8.858829">
        <ele>218.690864</ele>
        <time>2026-07-17T11:56:54.695000Z</time>
      </trkpt>
      <trkpt lat="52.253091" lon="8.858491">
        <ele>221.844534</ele>
        <time>2026-07-17T11:57:34.097000Z</time>
      </trkpt>
      <trkpt lat="52.252923" lon="8.858329">
        <ele>223.977314</ele>
        <time>2026-07-17T11:58:00.457000Z</time>
      </trkpt>
      <trkpt lat="52.252841" lon="8.857736">
        <ele>228.046004</ele>
        <time>2026-07-17T11:58:50.367000Z</time>
      </trkpt>
      <trkpt lat="52.252579" lon="8.856578">
        <ele>231.460037</ele>
        <time>2026-07-17T12:00:25.012000Z</time>
      </trkpt>
      <trkpt lat="52.252444" lon="8.855817">
        <ele>233.52005</ele>
        <time>2026-07-17T12:01:19.441000Z</time>
      </trkpt>
      <trkpt lat="52.252378" lon="8.855054">
        <ele>235.523575</ele>
        <time>2026-07-17T12:02:10.370000Z</time>
      </trkpt>
      <trkpt lat="52.252246" lon="8.854864">
        <ele>235.863196</ele>
        <time>2026-07-17T12:02:28.451000Z</time>
      </trkpt>
      <trkpt lat="52.252209" lon="8.854756">
        <ele>235.664161</ele>
        <time>2026-07-17T12:02:36.102000Z</time>
      </trkpt>
      <trkpt lat="52.252204" lon="8.854739">
        <ele>235.63383</ele>
        <time>2026-07-17T12:02:37.262000Z</time>
      </trkpt>
      <trkpt lat="52.25223" lon="8.853958">
        <ele>234.375957</ele>
        <time>2026-07-17T12:03:28.955000Z</time>
      </trkpt>
      <trkpt lat="52.252192" lon="8.853743">
        <ele>234.016069</ele>
        <time>2026-07-17T12:03:44.916000Z</time>
      </trkpt>
      <trkpt lat="52.252195" lon="8.853437">
        <ele>233.523891</ele>
        <time>2026-07-17T12:04:06.583000Z</time>
      </trkpt>
      <trkpt lat="52.252173" lon="8.853311">
        <ele>233.313175</ele>
        <time>2026-07-17T12:04:15.465000Z</time>
      </trkpt>
      <trkpt lat="52.252044" lon="8.852765">
        <ele>232.371963</ele>
        <time>2026-07-17T12:04:53.409000Z</time>
      </trkpt>
      <trkpt lat="52.251723" lon="8.852863">
        <ele>231.514093</ele>
        <time>2026-07-17T12:05:26.545000Z</time>
      </trkpt>
      <trkpt lat="52.251654" lon="8.852751">
        <ele>231.290002</ele>
        <time>2026-07-17T12:05:36.428000Z</time>
      </trkpt>
      <trkpt lat="52.251657" lon="8.852637">
        <ele>231.269663</ele>
        <time>2026-07-17T12:05:43.600000Z</time>
      </trkpt>
      <trkpt lat="52.251654" lon="8.852751">
        <ele>231.249324</ele>
        <time>2026-07-17T12:05:50.861000Z</time>
      </trkpt>
      <trkpt lat="52.251723" lon="8.852863">
        <ele>231.221001</ele>
        <time>2026-07-17T12:06:00.778000Z</time>
      </trkpt>
      <trkpt lat="52.252044" lon="8.852765">
        <ele>231.125918</ele>
        <time>2026-07-17T12:06:33.867000Z</time>
      </trkpt>
      <trkpt lat="52.252173" lon="8.853311">
        <ele>231.021598</ele>
        <time>2026-07-17T12:07:10.174000Z</time>
      </trkpt>
      <trkpt lat="52.252195" lon="8.853437">
        <ele>230.998243</ele>
        <time>2026-07-17T12:07:18.728000Z</time>
      </trkpt>
      <trkpt lat="52.252192" lon="8.853743">
        <ele>230.943692</ele>
        <time>2026-07-17T12:07:40.117000Z</time>
      </trkpt>
      <trkpt lat="52.252119" lon="8.854029">
        <ele>230.888459</ele>
        <time>2026-07-17T12:08:01.448000Z</time>
      </trkpt>
      <trkpt lat="52.252104" lon="8.854298">
        <ele>230.840312</ele>
        <time>2026-07-17T12:08:18.567000Z</time>
      </trkpt>
      <trkpt lat="52.251951" lon="8.854935">
        <ele>229.988641</ele>
        <time>2026-07-17T12:09:03.375000Z</time>
      </trkpt>
      <trkpt lat="52.251971" lon="8.855511">
        <ele>228.439316</ele>
        <time>2026-07-17T12:09:43.150000Z</time>
      </trkpt>
      <trkpt lat="52.251933" lon="8.85579">
        <ele>227.671746</ele>
        <time>2026-07-17T12:10:03.007000Z</time>
      </trkpt>
      <trkpt lat="52.251802" lon="8.856369">
        <ele>226.014054</ele>
        <time>2026-07-17T12:10:45.078000Z</time>
      </trkpt>
      <trkpt lat="52.251657" lon="8.856783">
        <ele>224.733166</ele>
        <time>2026-07-17T12:11:16.988000Z</time>
      </trkpt>
      <trkpt lat="52.251594" lon="8.857205">
        <ele>223.566672</ele>
        <time>2026-07-17T12:11:45.650000Z</time>
      </trkpt>
      <trkpt lat="52.251502" lon="8.857418">
        <ele>222.870451</ele>
        <time>2026-07-17T12:12:02.716000Z</time>
      </trkpt>
      <trkpt lat="52.251501" lon="8.857545">
        <ele>222.62601</ele>
        <time>2026-07-17T12:12:11.083000Z</time>
      </trkpt>
      <trkpt lat="52.251415" lon="8.858083">
        <ele>221.555875</ele>
        <time>2026-07-17T12:12:47.935000Z</time>
      </trkpt>
      <trkpt lat="52.251369" lon="8.85867">
        <ele>220.416931</ele>
        <time>2026-07-17T12:13:28.178000Z</time>
      </trkpt>
      <trkpt lat="52.251359" lon="8.859135">
        <ele>219.52145</ele>
        <time>2026-07-17T12:13:59.348000Z</time>
      </trkpt>
      <trkpt lat="52.251332" lon="8.859275">
        <ele>219.238956</ele>
        <time>2026-07-17T12:14:09.030000Z</time>
      </trkpt>
      <trkpt lat="52.251056" lon="8.860057">
        <ele>217.501733</ele>
        <time>2026-07-17T12:15:06.657000Z</time>
      </trkpt>
      <trkpt lat="52.250926" lon="8.860239">
        <ele>217.453784</ele>
        <time>2026-07-17T12:15:23.992000Z</time>
      </trkpt>
      <trkpt lat="52.251056" lon="8.860057">
        <ele>217.921904</ele>
        <time>2026-07-17T12:15:41.457000Z</time>
      </trkpt>
      <trkpt lat="52.251332" lon="8.859275">
        <ele>219.432772</ele>
        <time>2026-07-17T12:16:40.750000Z</time>
      </trkpt>
      <trkpt lat="52.251359" lon="8.859135">
        <ele>219.678458</ele>
        <time>2026-07-17T12:16:50.899000Z</time>
      </trkpt>
      <trkpt lat="52.251369" lon="8.85867">
        <ele>220.45726</ele>
        <time>2026-07-17T12:17:23.977000Z</time>
      </trkpt>
      <trkpt lat="52.251415" lon="8.858083">
        <ele>221.447804</ele>
        <time>2026-07-17T12:18:07.029000Z</time>
      </trkpt>
      <trkpt lat="52.251501" lon="8.857545">
        <ele>222.580575</ele>
        <time>2026-07-17T12:18:45.873000Z</time>
      </trkpt>
      <trkpt lat="52.251502" lon="8.857418">
        <ele>222.975875</ele>
        <time>2026-07-17T12:18:54.618000Z</time>
      </trkpt>
      <trkpt lat="52.251594" lon="8.857205">
        <ele>223.787191</ele>
        <time>2026-07-17T12:19:12.498000Z</time>
      </trkpt>
      <trkpt lat="52.251657" lon="8.856783">
        <ele>225.139085</ele>
        <time>2026-07-17T12:19:42.636000Z</time>
      </trkpt>
      <trkpt lat="52.251802" lon="8.856369">
        <ele>226.623556</ele>
        <time>2026-07-17T12:20:16.438000Z</time>
      </trkpt>
      <trkpt lat="52.251933" lon="8.85579">
        <ele>228.544718</ele>
        <time>2026-07-17T12:21:01.520000Z</time>
      </trkpt>
      <trkpt lat="52.251971" lon="8.855511">
        <ele>229.434283</ele>
        <time>2026-07-17T12:21:22.991000Z</time>
      </trkpt>
      <trkpt lat="52.251951" lon="8.854935">
        <ele>231.229856</ele>
        <time>2026-07-17T12:22:06.205000Z</time>
      </trkpt>
      <trkpt lat="52.252104" lon="8.854298">
        <ele>232.291135</ele>
        <time>2026-07-17T12:22:56.474000Z</time>
      </trkpt>
      <trkpt lat="52.252119" lon="8.854029">
        <ele>232.698337</ele>
        <time>2026-07-17T12:23:16.210000Z</time>
      </trkpt>
      <trkpt lat="52.252192" lon="8.853743">
        <ele>233.165461</ele>
        <time>2026-07-17T12:23:38.657000Z</time>
      </trkpt>
      <trkpt lat="52.25223" lon="8.853958">
        <ele>233.502814</ele>
        <time>2026-07-17T12:23:54.608000Z</time>
      </trkpt>
      <trkpt lat="52.252204" lon="8.854739">
        <ele>234.681923</ele>
        <time>2026-07-17T12:24:46.420000Z</time>
      </trkpt>
      <trkpt lat="52.252209" lon="8.854756">
        <ele>234.710355</ele>
        <time>2026-07-17T12:24:47.567000Z</time>
      </trkpt>
      <trkpt lat="52.252204" lon="8.854739">
        <ele>234.738787</ele>
        <time>2026-07-17T12:24:48.717000Z</time>
      </trkpt>
      <trkpt lat="52.25223" lon="8.853958">
        <ele>235.308367</ele>
        <time>2026-07-17T12:25:38.904000Z</time>
      </trkpt>
      <trkpt lat="52.252192" lon="8.853743">
        <ele>234.623832</ele>
        <time>2026-07-17T12:25:53.928000Z</time>
      </trkpt>
      <trkpt lat="52.252119" lon="8.854029">
        <ele>233.675975</ele>
        <time>2026-07-17T12:26:14.939000Z</time>
      </trkpt>
      <trkpt lat="52.252104" lon="8.854298">
        <ele>232.84971</ele>
        <time>2026-07-17T12:26:33.363000Z</time>
      </trkpt>
      <trkpt lat="52.251951" lon="8.854935">
        <ele>230.756545</ele>
        <time>2026-07-17T12:27:20.177000Z</time>
      </trkpt>
      <trkpt lat="52.251971" lon="8.855511">
        <ele>228.991749</ele>
        <time>2026-07-17T12:28:00.125000Z</time>
      </trkpt>
      <trkpt lat="52.251933" lon="8.85579">
        <ele>228.117431</ele>
        <time>2026-07-17T12:28:19.983000Z</time>
      </trkpt>
      <trkpt lat="52.251802" lon="8.856369">
        <ele>226.226796</ele>
        <time>2026-07-17T12:29:02.054000Z</time>
      </trkpt>
      <trkpt lat="52.251657" lon="8.856783">
        <ele>224.760761</ele>
        <time>2026-07-17T12:29:33.964000Z</time>
      </trkpt>
      <trkpt lat="52.251594" lon="8.857205">
        <ele>223.425657</ele>
        <time>2026-07-17T12:30:02.626000Z</time>
      </trkpt>
      <trkpt lat="52.251502" lon="8.857418">
        <ele>222.624416</ele>
        <time>2026-07-17T12:30:19.692000Z</time>
      </trkpt>
      <trkpt lat="52.251501" lon="8.857545">
        <ele>222.234025</ele>
        <time>2026-07-17T12:30:28.059000Z</time>
      </trkpt>
      <trkpt lat="52.251415" lon="8.858083">
        <ele>220.524936</ele>
        <time>2026-07-17T12:31:04.911000Z</time>
      </trkpt>
      <trkpt lat="52.251369" lon="8.85867">
        <ele>218.705953</ele>
        <time>2026-07-17T12:31:45.154000Z</time>
      </trkpt>
      <trkpt lat="52.251359" lon="8.859135">
        <ele>217.208451</ele>
        <time>2026-07-17T12:32:17.767000Z</time>
      </trkpt>
      <trkpt lat="52.251332" lon="8.859275">
        <ele>216.685442</ele>
        <time>2026-07-17T12:32:28.054000Z</time>
      </trkpt>
      <trkpt lat="52.251056" lon="8.860057">
        <ele>213.469152</ele>
        <time>2026-07-17T12:33:30.958000Z</time>
      </trkpt>
      <trkpt lat="52.250858" lon="8.860333">
        <ele>211.954157</ele>
        <time>2026-07-17T12:34:00.389000Z</time>
      </trkpt>
      <trkpt lat="52.250766" lon="8.860516">
        <ele>211.110408</ele>
        <time>2026-07-17T12:34:16.650000Z</time>
      </trkpt>
      <trkpt lat="52.250642" lon="8.86088">
        <ele>209.626123</ele>
        <time>2026-07-17T12:34:45.070000Z</time>
      </trkpt>
      <trkpt lat="52.250584" lon="8.861745">
        <ele>206.875082</ele>
        <time>2026-07-17T12:35:43.453000Z</time>
      </trkpt>
      <trkpt lat="52.250343" lon="8.862787">
        <ele>204.875076</ele>
        <time>2026-07-17T12:36:56.615000Z</time>
      </trkpt>
      <trkpt lat="52.250231" lon="8.86343">
        <ele>203.674725</ele>
        <time>2026-07-17T12:37:40.437000Z</time>
      </trkpt>
      <trkpt lat="52.250048" lon="8.864198">
        <ele>202.194981</ele>
        <time>2026-07-17T12:38:33.382000Z</time>
      </trkpt>
      <trkpt lat="52.25003" lon="8.864418">
        <ele>202.17386</ele>
        <time>2026-07-17T12:38:47.436000Z</time>
      </trkpt>
      <trkpt lat="52.24995" lon="8.865491">
        <ele>204.853448</ele>
        <time>2026-07-17T12:39:55.378000Z</time>
      </trkpt>
      <trkpt lat="52.249877" lon="8.866007">
        <ele>206.166308</ele>
        <time>2026-07-17T12:40:32.872000Z</time>
      </trkpt>
      <trkpt lat="52.249686" lon="8.866744">
        <ele>208.150269</ele>
        <time>2026-07-17T12:41:33.576000Z</time>
      </trkpt>
      <trkpt lat="52.249592" lon="8.867327">
        <ele>210.184179</ele>
        <time>2026-07-17T12:42:20.934000Z</time>
      </trkpt>
      <trkpt lat="52.249549" lon="8.868031">
        <ele>214.263477</ele>
        <time>2026-07-17T12:43:18.578000Z</time>
      </trkpt>
      <trkpt lat="52.249454" lon="8.868324">
        <ele>216.175159</ele>
        <time>2026-07-17T12:43:45.519000Z</time>
      </trkpt>
      <trkpt lat="52.249385" lon="8.869712">
        <ele>224.204503</ele>
        <time>2026-07-17T12:45:36.894000Z</time>
      </trkpt>
      <trkpt lat="52.249357" lon="8.869914">
        <ele>225.398686</ele>
        <time>2026-07-17T12:45:53.759000Z</time>
      </trkpt>
      <trkpt lat="52.249274" lon="8.870544">
        <ele>228.771377</ele>
        <time>2026-07-17T12:46:50.386000Z</time>
      </trkpt>
      <trkpt lat="52.249266" lon="8.871147">
        <ele>231.84292</ele>
        <time>2026-07-17T12:47:40.474000Z</time>
      </trkpt>
      <trkpt lat="52.249246" lon="8.871301">
        <ele>232.644627</ele>
        <time>2026-07-17T12:47:52.783000Z</time>
      </trkpt>
      <trkpt lat="52.249359" lon="8.871481">
        <ele>233.957551</ele>
        <time>2026-07-17T12:48:12.816000Z</time>
      </trkpt>
      <trkpt lat="52.249614" lon="8.871679">
        <ele>236.306138</ele>
        <time>2026-07-17T12:48:48.201000Z</time>
      </trkpt>
      <trkpt lat="52.249624" lon="8.871717">
        <ele>236.516774</ele>
        <time>2026-07-17T12:48:51.315000Z</time>
      </trkpt>
      <trkpt lat="52.24966" lon="8.871854">
        <ele>237.276</ele>
        <time>2026-07-17T12:49:02.869000Z</time>
      </trkpt>
      <trkpt lat="52.249616" lon="8.87189">
        <ele>237.685346</ele>
        <time>2026-07-17T12:49:08.729000Z</time>
      </trkpt>
      <trkpt lat="52.249581" lon="8.871981">
        <ele>238.232628</ele>
        <time>2026-07-17T12:49:17.097000Z</time>
      </trkpt>
      <trkpt lat="52.249543" lon="8.872411">
        <ele>240.445116</ele>
        <time>2026-07-17T12:49:50.013000Z</time>
      </trkpt>
      <trkpt lat="52.249477" lon="8.872507">
        <ele>241.14872</ele>
        <time>2026-07-17T12:50:01.099000Z</time>
      </trkpt>
      <trkpt lat="52.249453" lon="8.872737">
        <ele>241.435851</ele>
        <time>2026-07-17T12:50:18.777000Z</time>
      </trkpt>
      <trkpt lat="52.249392" lon="8.872988">
        <ele>241.768193</ele>
        <time>2026-07-17T12:50:38.604000Z</time>
      </trkpt>
      <trkpt lat="52.249304" lon="8.873566">
        <ele>242.501176</ele>
        <time>2026-07-17T12:51:17.942000Z</time>
      </trkpt>
      <trkpt lat="52.249263" lon="8.87367">
        <ele>242.653404</ele>
        <time>2026-07-17T12:51:25.599000Z</time>
      </trkpt>
      <trkpt lat="52.249155" lon="8.874206">
        <ele>243.347843</ele>
        <time>2026-07-17T12:52:00.761000Z</time>
      </trkpt>
      <trkpt lat="52.249138" lon="8.874346">
        <ele>243.523491</ele>
        <time>2026-07-17T12:52:09.669000Z</time>
      </trkpt>
      <trkpt lat="52.24915" lon="8.874657">
        <ele>243.906986</ele>
        <time>2026-07-17T12:52:29.209000Z</time>
      </trkpt>
      <trkpt lat="52.248971" lon="8.875163">
        <ele>244.62618</ele>
        <time>2026-07-17T12:53:05.564000Z</time>
      </trkpt>
      <trkpt lat="52.248963" lon="8.875214">
        <ele>244.690972</ele>
        <time>2026-07-17T12:53:08.824000Z</time>
      </trkpt>
      <trkpt lat="52.248948" lon="8.875306">
        <ele>244.696115</ele>
        <time>2026-07-17T12:53:14.658000Z</time>
      </trkpt>
      <trkpt lat="52.248853" lon="8.875809">
        <ele>243.998898</ele>
        <time>2026-07-17T12:53:47.218000Z</time>
      </trkpt>
      <trkpt lat="52.248772" lon="8.876065">
        <ele>243.617214</ele>
        <time>2026-07-17T12:54:05.347000Z</time>
      </trkpt>
      <trkpt lat="52.248741" lon="8.876285">
        <ele>243.318199</ele>
        <time>2026-07-17T12:54:19.615000Z</time>
      </trkpt>
      <trkpt lat="52.248713" lon="8.876578">
        <ele>242.925413</ele>
        <time>2026-07-17T12:54:38.643000Z</time>
      </trkpt>
      <trkpt lat="52.248719" lon="8.876879">
        <ele>242.526518</ele>
        <time>2026-07-17T12:54:58.068000Z</time>
      </trkpt>
      <trkpt lat="52.248675" lon="8.877121">
        <ele>242.192145</ele>
        <time>2026-07-17T12:55:14.407000Z</time>
      </trkpt>
      <trkpt lat="52.248639" lon="8.878366">
        <ele>240.39432</ele>
        <time>2026-07-17T12:56:36.213000Z</time>
      </trkpt>
      <trkpt lat="52.248545" lon="8.87879">
        <ele>239.524181</ele>
        <time>2026-07-17T12:57:06.237000Z</time>
      </trkpt>
      <trkpt lat="52.248557" lon="8.878882">
        <ele>239.342674</ele>
        <time>2026-07-17T12:57:12.542000Z</time>
      </trkpt>
      <trkpt lat="52.248511" lon="8.879191">
        <ele>238.729054</ele>
        <time>2026-07-17T12:57:33.739000Z</time>
      </trkpt>
      <trkpt lat="52.248511" lon="8.879401">
        <ele>238.323837</ele>
        <time>2026-07-17T12:57:47.696000Z</time>
      </trkpt>
      <trkpt lat="52.248405" lon="8.879766">
        <ele>237.544313</ele>
        <time>2026-07-17T12:58:14.293000Z</time>
      </trkpt>
      <trkpt lat="52.24833" lon="8.88029">
        <ele>236.505935</ele>
        <time>2026-07-17T12:58:49.183000Z</time>
      </trkpt>
      <trkpt lat="52.248325" lon="8.880447">
        <ele>236.202576</ele>
        <time>2026-07-17T12:58:59.290000Z</time>
      </trkpt>
      <trkpt lat="52.248364" lon="8.880623">
        <ele>235.841405</ele>
        <time>2026-07-17T12:59:11.628000Z</time>
      </trkpt>
      <trkpt lat="52.248297" lon="8.881115">
        <ele>235.216417</ele>
        <time>2026-07-17T12:59:44.073000Z</time>
      </trkpt>
      <trkpt lat="52.248291" lon="8.881399">
        <ele>235.254013</ele>
        <time>2026-07-17T13:00:01.790000Z</time>
      </trkpt>
      <trkpt lat="52.248247" lon="8.881467">
        <ele>235.267103</ele>
        <time>2026-07-17T13:00:07.931000Z</time>
      </trkpt>
      <trkpt lat="52.24824" lon="8.881493">
        <ele>235.270861</ele>
        <time>2026-07-17T13:00:09.739000Z</time>
      </trkpt>
      <trkpt lat="52.248287" lon="8.881563">
        <ele>235.284605</ele>
        <time>2026-07-17T13:00:16.186000Z</time>
      </trkpt>
      <trkpt lat="52.248292" lon="8.881647">
        <ele>235.295771</ele>
        <time>2026-07-17T13:00:21.529000Z</time>
      </trkpt>
      <trkpt lat="52.248287" lon="8.881669">
        <ele>235.298876</ele>
        <time>2026-07-17T13:00:23.067000Z</time>
      </trkpt>
      <trkpt lat="52.248243" lon="8.881752">
        <ele>235.313401</ele>
        <time>2026-07-17T13:00:29.871000Z</time>
      </trkpt>
      <trkpt lat="52.248178" lon="8.881748">
        <ele>235.327457</ele>
        <time>2026-07-17T13:00:36.863000Z</time>
      </trkpt>
      <trkpt lat="52.248164" lon="8.881809">
        <ele>235.336076</ele>
        <time>2026-07-17T13:00:40.915000Z</time>
      </trkpt>
      <trkpt lat="52.248114" lon="8.88198">
        <ele>235.361147</ele>
        <time>2026-07-17T13:00:53.409000Z</time>
      </trkpt>
      <trkpt lat="52.248078" lon="8.882084">
        <ele>235.376953</ele>
        <time>2026-07-17T13:01:01.007000Z</time>
      </trkpt>
      <trkpt lat="52.248027" lon="8.882295">
        <ele>235.406965</ele>
        <time>2026-07-17T13:01:16.312000Z</time>
      </trkpt>
      <trkpt lat="52.247966" lon="8.882723">
        <ele>235.465104</ele>
        <time>2026-07-17T13:01:45.208000Z</time>
      </trkpt>
      <trkpt lat="52.247918" lon="8.882842">
        <ele>235.483958</ele>
        <time>2026-07-17T13:01:54.304000Z</time>
      </trkpt>
      <trkpt lat="52.247826" lon="8.883291">
        <ele>235.5466</ele>
        <time>2026-07-17T13:02:23.514000Z</time>
      </trkpt>
      <trkpt lat="52.247733" lon="8.88361">
        <ele>235.608442</ele>
        <time>2026-07-17T13:02:45.547000Z</time>
      </trkpt>
      <trkpt lat="52.247707" lon="8.883786">
        <ele>235.666653</ele>
        <time>2026-07-17T13:02:56.686000Z</time>
      </trkpt>
      <trkpt lat="52.247726" lon="8.88402">
        <ele>235.742547</ele>
        <time>2026-07-17T13:03:11.334000Z</time>
      </trkpt>
      <trkpt lat="52.247601" lon="8.884146">
        <ele>235.819684</ele>
        <time>2026-07-17T13:03:26.327000Z</time>
      </trkpt>
      <trkpt lat="52.247469" lon="8.884202">
        <ele>235.891303</ele>
        <time>2026-07-17T13:03:40.204000Z</time>
      </trkpt>
      <trkpt lat="52.247387" lon="8.88436">
        <ele>235.957898</ele>
        <time>2026-07-17T13:03:52.910000Z</time>
      </trkpt>
      <trkpt lat="52.247367" lon="8.884446">
        <ele>235.987476</ele>
        <time>2026-07-17T13:03:58.680000Z</time>
      </trkpt>
      <trkpt lat="52.247262" lon="8.8849">
        <ele>236.143514</ele>
        <time>2026-07-17T13:04:28.496000Z</time>
      </trkpt>
      <trkpt lat="52.247243" lon="8.885293">
        <ele>236.270265</ele>
        <time>2026-07-17T13:04:52.916000Z</time>
      </trkpt>
      <trkpt lat="52.247262" lon="8.885631">
        <ele>236.379396</ele>
        <time>2026-07-17T13:05:13.872000Z</time>
      </trkpt>
      <trkpt lat="52.247288" lon="8.885751">
        <ele>236.420323</ele>
        <time>2026-07-17T13:05:21.813000Z</time>
      </trkpt>
      <trkpt lat="52.247247" lon="8.886007">
        <ele>236.505402</ele>
        <time>2026-07-17T13:05:38.876000Z</time>
      </trkpt>
      <trkpt lat="52.247242" lon="8.886243">
        <ele>236.624486</ele>
        <time>2026-07-17T13:05:54.836000Z</time>
      </trkpt>
      <trkpt lat="52.247195" lon="8.88644">
        <ele>236.746802</ele>
        <time>2026-07-17T13:06:09.391000Z</time>
      </trkpt>
      <trkpt lat="52.246981" lon="8.887091">
        <ele>237.174273</ele>
        <time>2026-07-17T13:07:00.372000Z</time>
      </trkpt>
      <trkpt lat="52.246697" lon="8.888115">
        <ele>237.824631</ele>
        <time>2026-07-17T13:08:12.598000Z</time>
      </trkpt>
      <trkpt lat="52.246981" lon="8.887091">
        <ele>237.849834</ele>
        <time>2026-07-17T13:09:23.425000Z</time>
      </trkpt>
      <trkpt lat="52.247195" lon="8.88644">
        <ele>237.200236</ele>
        <time>2026-07-17T13:10:12.064000Z</time>
      </trkpt>
      <trkpt lat="52.247242" lon="8.886243">
        <ele>237.014361</ele>
        <time>2026-07-17T13:10:25.955000Z</time>
      </trkpt>
      <trkpt lat="52.247247" lon="8.886007">
        <ele>236.806759</ele>
        <time>2026-07-17T13:10:41.289000Z</time>
      </trkpt>
      <trkpt lat="52.247288" lon="8.885751">
        <ele>236.574126</ele>
        <time>2026-07-17T13:10:57.996000Z</time>
      </trkpt>
      <trkpt lat="52.247262" lon="8.885631">
        <ele>236.462218</ele>
        <time>2026-07-17T13:11:05.874000Z</time>
      </trkpt>
      <trkpt lat="52.247243" lon="8.885293">
        <ele>236.163819</ele>
        <time>2026-07-17T13:11:26.948000Z</time>
      </trkpt>
      <trkpt lat="52.247262" lon="8.8849">
        <ele>235.817241</ele>
        <time>2026-07-17T13:11:51.523000Z</time>
      </trkpt>
      <trkpt lat="52.247367" lon="8.884446">
        <ele>235.605851</ele>
        <time>2026-07-17T13:12:21.402000Z</time>
      </trkpt>
      <trkpt lat="52.247387" lon="8.88436">
        <ele>235.593624</ele>
        <time>2026-07-17T13:12:27.111000Z</time>
      </trkpt>
      <trkpt lat="52.247469" lon="8.884202">
        <ele>235.566094</ele>
        <time>2026-07-17T13:12:39.807000Z</time>
      </trkpt>
      <trkpt lat="52.247601" lon="8.884146">
        <ele>235.536489</ele>
        <time>2026-07-17T13:12:53.603000Z</time>
      </trkpt>
      <trkpt lat="52.247726" lon="8.88402">
        <ele>235.504602</ele>
        <time>2026-07-17T13:13:08.464000Z</time>
      </trkpt>
      <trkpt lat="52.247707" lon="8.883786">
        <ele>235.473229</ele>
        <time>2026-07-17T13:13:23.036000Z</time>
      </trkpt>
      <trkpt lat="52.247733" lon="8.88361">
        <ele>235.449166</ele>
        <time>2026-07-17T13:13:34.208000Z</time>
      </trkpt>
      <trkpt lat="52.247826" lon="8.883291">
        <ele>235.402207</ele>
        <time>2026-07-17T13:13:56.728000Z</time>
      </trkpt>
      <trkpt lat="52.247918" lon="8.882842">
        <ele>235.339278</ele>
        <time>2026-07-17T13:14:26.119000Z</time>
      </trkpt>
      <trkpt lat="52.247966" lon="8.882723">
        <ele>235.320338</ele>
        <time>2026-07-17T13:14:34.995000Z</time>
      </trkpt>
      <trkpt lat="52.248027" lon="8.882295">
        <ele>235.261932</ele>
        <time>2026-07-17T13:15:02.674000Z</time>
      </trkpt>
      <trkpt lat="52.248078" lon="8.882084">
        <ele>235.166054</ele>
        <time>2026-07-17T13:15:17.096000Z</time>
      </trkpt>
      <trkpt lat="52.248114" lon="8.88198">
        <ele>235.102638</ele>
        <time>2026-07-17T13:15:24.548000Z</time>
      </trkpt>
      <trkpt lat="52.248192" lon="8.881927">
        <ele>235.029395</ele>
        <time>2026-07-17T13:15:33.046000Z</time>
      </trkpt>
      <trkpt lat="52.24823" lon="8.881859">
        <ele>234.980526</ele>
        <time>2026-07-17T13:15:38.736000Z</time>
      </trkpt>
      <trkpt lat="52.248192" lon="8.881927">
        <ele>234.931657</ele>
        <time>2026-07-17T13:15:44.433000Z</time>
      </trkpt>
      <trkpt lat="52.248114" lon="8.88198">
        <ele>234.858414</ele>
        <time>2026-07-17T13:15:52.989000Z</time>
      </trkpt>
      <trkpt lat="52.248078" lon="8.882084">
        <ele>234.794998</ele>
        <time>2026-07-17T13:16:00.543000Z</time>
      </trkpt>
      <trkpt lat="52.248027" lon="8.882295">
        <ele>234.674586</ele>
        <time>2026-07-17T13:16:15.302000Z</time>
      </trkpt>
      <trkpt lat="52.247966" lon="8.882723">
        <ele>234.441327</ele>
        <time>2026-07-17T13:16:43.525000Z</time>
      </trkpt>
      <trkpt lat="52.247918" lon="8.882842">
        <ele>234.365684</ele>
        <time>2026-07-17T13:16:52.542000Z</time>
      </trkpt>
      <trkpt lat="52.247826" lon="8.883291">
        <ele>234.114359</ele>
        <time>2026-07-17T13:17:21.893000Z</time>
      </trkpt>
      <trkpt lat="52.247733" lon="8.88361">
        <ele>233.926814</ele>
        <time>2026-07-17T13:17:45.607000Z</time>
      </trkpt>
      <trkpt lat="52.247707" lon="8.883786">
        <ele>233.830711</ele>
        <time>2026-07-17T13:17:57.968000Z</time>
      </trkpt>
      <trkpt lat="52.247726" lon="8.88402">
        <ele>233.705414</ele>
        <time>2026-07-17T13:18:13.326000Z</time>
      </trkpt>
      <trkpt lat="52.247601" lon="8.884146">
        <ele>233.627541</ele>
        <time>2026-07-17T13:18:28.937000Z</time>
      </trkpt>
      <trkpt lat="52.247469" lon="8.884202">
        <ele>233.559612</ele>
        <time>2026-07-17T13:18:43.039000Z</time>
      </trkpt>
      <trkpt lat="52.247387" lon="8.88436">
        <ele>233.496448</ele>
        <time>2026-07-17T13:18:55.874000Z</time>
      </trkpt>
      <trkpt lat="52.247367" lon="8.884446">
        <ele>233.468393</ele>
        <time>2026-07-17T13:19:01.611000Z</time>
      </trkpt>
      <trkpt lat="52.247162" lon="8.884284">
        <ele>233.354962</ele>
        <time>2026-07-17T13:19:25.266000Z</time>
      </trkpt>
      <trkpt lat="52.247214" lon="8.884078">
        <ele>233.287011</ele>
        <time>2026-07-17T13:19:39.447000Z</time>
      </trkpt>
      <trkpt lat="52.247199" lon="8.884067">
        <ele>233.278822</ele>
        <time>2026-07-17T13:19:41.248000Z</time>
      </trkpt>
      <trkpt lat="52.247162" lon="8.884041">
        <ele>233.258759</ele>
        <time>2026-07-17T13:19:45.507000Z</time>
      </trkpt>
      <trkpt lat="52.247121" lon="8.88397">
        <ele>233.228996</ele>
        <time>2026-07-17T13:19:51.747000Z</time>
      </trkpt>
      <trkpt lat="52.247162" lon="8.884041">
        <ele>233.199233</ele>
        <time>2026-07-17T13:19:57.969000Z</time>
      </trkpt>
      <trkpt lat="52.247199" lon="8.884067">
        <ele>233.17917</ele>
        <time>2026-07-17T13:20:02.217000Z</time>
      </trkpt>
      <trkpt lat="52.247214" lon="8.884078">
        <ele>233.170981</ele>
        <time>2026-07-17T13:20:03.943000Z</time>
      </trkpt>
      <trkpt lat="52.247162" lon="8.884284">
        <ele>233.10303</ele>
        <time>2026-07-17T13:20:18.405000Z</time>
      </trkpt>
      <trkpt lat="52.247367" lon="8.884446">
        <ele>232.989599</ele>
        <time>2026-07-17T13:20:41.594000Z</time>
      </trkpt>
      <trkpt lat="52.247262" lon="8.8849">
        <ele>232.8416</ele>
        <time>2026-07-17T13:21:12.401000Z</time>
      </trkpt>
      <trkpt lat="52.247243" lon="8.885293">
        <ele>233.556074</ele>
        <time>2026-07-17T13:21:40.861000Z</time>
      </trkpt>
      <trkpt lat="52.247262" lon="8.885631">
        <ele>234.573367</ele>
        <time>2026-07-17T13:22:06.970000Z</time>
      </trkpt>
      <trkpt lat="52.247288" lon="8.885751">
        <ele>234.95488</ele>
        <time>2026-07-17T13:22:16.304000Z</time>
      </trkpt>
      <trkpt lat="52.247247" lon="8.886007">
        <ele>235.747963</ele>
        <time>2026-07-17T13:22:36.242000Z</time>
      </trkpt>
      <trkpt lat="52.247242" lon="8.886243">
        <ele>236.455711</ele>
        <time>2026-07-17T13:22:53.082000Z</time>
      </trkpt>
      <trkpt lat="52.247195" lon="8.88644">
        <ele>237.089391</ele>
        <time>2026-07-17T13:23:07.636000Z</time>
      </trkpt>
      <trkpt lat="52.246981" lon="8.887091">
        <ele>239.303977</ele>
        <time>2026-07-17T13:24:00.460000Z</time>
      </trkpt>
      <trkpt lat="52.246697" lon="8.888115">
        <ele>242.616851</ele>
        <time>2026-07-17T13:25:22.867000Z</time>
      </trkpt>
      <trkpt lat="52.246541" lon="8.888679">
        <ele>244.373942</ele>
        <time>2026-07-17T13:26:08.779000Z</time>
      </trkpt>
      <trkpt lat="52.246269" lon="8.889831">
        <ele>247.879419</ele>
        <time>2026-07-17T13:27:38.395000Z</time>
      </trkpt>
      <trkpt lat="52.24615" lon="8.890474">
        <ele>249.786577</ele>
        <time>2026-07-17T13:28:24.634000Z</time>
      </trkpt>
      <trkpt lat="52.246109" lon="8.890456">
        <ele>249.935013</ele>
        <time>2026-07-17T13:28:28.870000Z</time>
      </trkpt>
      <trkpt lat="52.24615" lon="8.890474">
        <ele>249.891532</ele>
        <time>2026-07-17T13:28:33.727000Z</time>
      </trkpt>
      <trkpt lat="52.246137" lon="8.890599">
        <ele>249.812026</ele>
        <time>2026-07-17T13:28:41.946000Z</time>
      </trkpt>
      <trkpt lat="52.246139" lon="8.890927">
        <ele>249.606338</ele>
        <time>2026-07-17T13:29:02.702000Z</time>
      </trkpt>
      <trkpt lat="52.246111" lon="8.891076">
        <ele>249.508603</ele>
        <time>2026-07-17T13:29:12.566000Z</time>
      </trkpt>
      <trkpt lat="52.245965" lon="8.891379">
        <ele>249.266819</ele>
        <time>2026-07-17T13:29:36.379000Z</time>
      </trkpt>
      <trkpt lat="52.245886" lon="8.89182">
        <ele>248.978688</ele>
        <time>2026-07-17T13:30:05.441000Z</time>
      </trkpt>
      <trkpt lat="52.245843" lon="8.892211">
        <ele>248.72958</ele>
        <time>2026-07-17T13:30:30.875000Z</time>
      </trkpt>
      <trkpt lat="52.245504" lon="8.893478">
        <ele>247.213659</ele>
        <time>2026-07-17T13:32:01.160000Z</time>
      </trkpt>
      <trkpt lat="52.245424" lon="8.894203">
        <ele>245.498239</ele>
        <time>2026-07-17T13:32:49.353000Z</time>
      </trkpt>
      <trkpt lat="52.245313" lon="8.894549">
        <ele>244.588653</ele>
        <time>2026-07-17T13:33:14.940000Z</time>
      </trkpt>
      <trkpt lat="52.245251" lon="8.894862">
        <ele>243.82261</ele>
        <time>2026-07-17T13:33:36.643000Z</time>
      </trkpt>
      <trkpt lat="52.245241" lon="8.895262">
        <ele>242.890396</ele>
        <time>2026-07-17T13:34:03.224000Z</time>
      </trkpt>
      <trkpt lat="52.245194" lon="8.895454">
        <ele>242.408898</ele>
        <time>2026-07-17T13:34:17Z</time>
      </trkpt>
      <trkpt lat="52.245106" lon="8.896066">
        <ele>240.828203</ele>
        <time>2026-07-17T13:34:59.039000Z</time>
      </trkpt>
      <trkpt lat="52.245142" lon="8.896559">
        <ele>239.244871</ele>
        <time>2026-07-17T13:35:32.630000Z</time>
      </trkpt>
      <trkpt lat="52.245137" lon="8.896805">
        <ele>238.459938</ele>
        <time>2026-07-17T13:35:49.365000Z</time>
      </trkpt>
      <trkpt lat="52.24507" lon="8.897754">
        <ele>235.413497</ele>
        <time>2026-07-17T13:36:54.780000Z</time>
      </trkpt>
      <trkpt lat="52.245106" lon="8.898041">
        <ele>234.479236</ele>
        <time>2026-07-17T13:37:15.077000Z</time>
      </trkpt>
      <trkpt lat="52.245107" lon="8.89847">
        <ele>233.111133</ele>
        <time>2026-07-17T13:37:44.571000Z</time>
      </trkpt>
      <trkpt lat="52.244983" lon="8.899159">
        <ele>231.557209</ele>
        <time>2026-07-17T13:38:32.882000Z</time>
      </trkpt>
      <trkpt lat="52.244974" lon="8.899324">
        <ele>231.391704</ele>
        <time>2026-07-17T13:38:43.590000Z</time>
      </trkpt>
      <trkpt lat="52.244972" lon="8.899374">
        <ele>231.341642</ele>
        <time>2026-07-17T13:38:46.898000Z</time>
      </trkpt>
      <trkpt lat="52.244908" lon="8.899751">
        <ele>230.950771</ele>
        <time>2026-07-17T13:39:11.914000Z</time>
      </trkpt>
      <trkpt lat="52.244894" lon="8.899902">
        <ele>230.798187</ele>
        <time>2026-07-17T13:39:21.640000Z</time>
      </trkpt>
      <trkpt lat="52.24489" lon="8.900277">
        <ele>230.423466</ele>
        <time>2026-07-17T13:39:45.158000Z</time>
      </trkpt>
      <trkpt lat="52.244895" lon="8.900707">
        <ele>229.993774</ele>
        <time>2026-07-17T13:40:11.756000Z</time>
      </trkpt>
      <trkpt lat="52.24489" lon="8.900884">
        <ele>229.816744</ele>
        <time>2026-07-17T13:40:22.628000Z</time>
      </trkpt>
      <trkpt lat="52.24492" lon="8.900901">
        <ele>229.764929</ele>
        <time>2026-07-17T13:40:25.989000Z</time>
      </trkpt>
      <trkpt lat="52.244961" lon="8.901011">
        <ele>229.636266</ele>
        <time>2026-07-17T13:40:33.974000Z</time>
      </trkpt>
      <trkpt lat="52.245023" lon="8.901266">
        <ele>229.362143</ele>
        <time>2026-07-17T13:40:51.319000Z</time>
      </trkpt>
      <trkpt lat="52.245109" lon="8.901789">
        <ele>228.561422</ele>
        <time>2026-07-17T13:41:26.470000Z</time>
      </trkpt>
      <trkpt lat="52.245961" lon="8.900523">
        <ele>223.121147</ele>
        <time>2026-07-17T13:43:28.218000Z</time>
      </trkpt>
      <trkpt lat="52.246063" lon="8.90049">
        <ele>222.630032</ele>
        <time>2026-07-17T13:43:40.505000Z</time>
      </trkpt>
      <trkpt lat="52.246087" lon="8.900584">
        <ele>222.335514</ele>
        <time>2026-07-17T13:43:47.937000Z</time>
      </trkpt>
      <trkpt lat="52.246118" lon="8.902129">
        <ele>213.248564</ele>
        <time>2026-07-17T13:45:42.584000Z</time>
      </trkpt>
      <trkpt lat="52.246198" lon="8.902558">
        <ele>209.646963</ele>
        <time>2026-07-17T13:46:17.190000Z</time>
      </trkpt>
      <trkpt lat="52.246276" lon="8.901973">
        <ele>204.838666</ele>
        <time>2026-07-17T13:47:03.596000Z</time>
      </trkpt>
      <trkpt lat="52.246306" lon="8.901801">
        <ele>203.402364</ele>
        <time>2026-07-17T13:47:17.703000Z</time>
      </trkpt>
      <trkpt lat="52.246362" lon="8.901686">
        <ele>202.222302</ele>
        <time>2026-07-17T13:47:29.179000Z</time>
      </trkpt>
      <trkpt lat="52.246429" lon="8.901684">
        <ele>201.343321</ele>
        <time>2026-07-17T13:47:37.975000Z</time>
      </trkpt>
      <trkpt lat="52.24655" lon="8.901772">
        <ele>199.605936</ele>
        <time>2026-07-17T13:47:55.222000Z</time>
      </trkpt>
      <trkpt lat="52.246519" lon="8.901922">
        <ele>198.334505</ele>
        <time>2026-07-17T13:48:07.665000Z</time>
      </trkpt>
      <trkpt lat="52.246579" lon="8.901941">
        <ele>197.532834</ele>
        <time>2026-07-17T13:48:15.799000Z</time>
      </trkpt>
      <trkpt lat="52.246608" lon="8.901905">
        <ele>197.055042</ele>
        <time>2026-07-17T13:48:20.457000Z</time>
      </trkpt>
      <trkpt lat="52.246663" lon="8.90172">
        <ele>195.899425</ele>
        <time>2026-07-17T13:48:36.909000Z</time>
      </trkpt>
      <trkpt lat="52.2467" lon="8.901677">
        <ele>195.50518</ele>
        <time>2026-07-17T13:48:42.685000Z</time>
      </trkpt>
      <trkpt lat="52.247117" lon="8.901561">
        <ele>191.832748</ele>
        <time>2026-07-17T13:49:38.142000Z</time>
      </trkpt>
      <trkpt lat="52.247585" lon="8.90142">
        <ele>187.701133</ele>
        <time>2026-07-17T13:50:38.884000Z</time>
      </trkpt>
      <trkpt lat="52.247606" lon="8.901809">
        <ele>185.625413</ele>
        <time>2026-07-17T13:51:06.797000Z</time>
      </trkpt>
      <trkpt lat="52.247859" lon="8.901565">
        <ele>183.074598</ele>
        <time>2026-07-17T13:51:38.168000Z</time>
      </trkpt>
      <trkpt lat="52.247606" lon="8.901809">
        <ele>182.19221</ele>
        <time>2026-07-17T13:52:10.952000Z</time>
      </trkpt>
      <trkpt lat="52.247585" lon="8.90142">
        <ele>184.852966</ele>
        <time>2026-07-17T13:52:41.674000Z</time>
      </trkpt>
      <trkpt lat="52.247117" lon="8.901561">
        <ele>190.149065</ele>
        <time>2026-07-17T13:53:57.522000Z</time>
      </trkpt>
      <trkpt lat="52.2467" lon="8.901677">
        <ele>194.856561</ele>
        <time>2026-07-17T13:55:10.380000Z</time>
      </trkpt>
      <trkpt lat="52.246663" lon="8.90172">
        <ele>195.361923</ele>
        <time>2026-07-17T13:55:17.701000Z</time>
      </trkpt>
      <trkpt lat="52.246608" lon="8.901905">
        <ele>196.763203</ele>
        <time>2026-07-17T13:55:38.356000Z</time>
      </trkpt>
      <trkpt lat="52.246579" lon="8.901941">
        <ele>197.168574</ele>
        <time>2026-07-17T13:55:43.900000Z</time>
      </trkpt>
      <trkpt lat="52.246519" lon="8.901922">
        <ele>197.84873</ele>
        <time>2026-07-17T13:55:53.943000Z</time>
      </trkpt>
      <trkpt lat="52.24655" lon="8.901772">
        <ele>198.927442</ele>
        <time>2026-07-17T13:56:08.324000Z</time>
      </trkpt>
      <trkpt lat="52.246429" lon="8.901684">
        <ele>200.40148</ele>
        <time>2026-07-17T13:56:28.239000Z</time>
      </trkpt>
      <trkpt lat="52.246362" lon="8.901686">
        <ele>201.147228</ele>
        <time>2026-07-17T13:56:38.313000Z</time>
      </trkpt>
      <trkpt lat="52.246306" lon="8.901801">
        <ele>201.526712</ele>
        <time>2026-07-17T13:56:50.570000Z</time>
      </trkpt>
      <trkpt lat="52.246276" lon="8.901973">
        <ele>201.881339</ele>
        <time>2026-07-17T13:57:05.501000Z</time>
      </trkpt>
      <trkpt lat="52.246198" lon="8.902558">
        <ele>203.068522</ele>
        <time>2026-07-17T13:57:52.396000Z</time>
      </trkpt>
      <trkpt lat="52.245973" lon="8.90336">
        <ele>204.81781</ele>
        <time>2026-07-17T13:58:54.312000Z</time>
      </trkpt>
      <trkpt lat="52.245839" lon="8.90404">
        <ele>206.234307</ele>
        <time>2026-07-17T13:59:39.700000Z</time>
      </trkpt>
      <trkpt lat="52.24573" lon="8.904682">
        <ele>206.676682</ele>
        <time>2026-07-17T14:00:24.501000Z</time>
      </trkpt>
      <trkpt lat="52.245677" lon="8.905008">
        <ele>206.064446</ele>
        <time>2026-07-17T14:00:48.068000Z</time>
      </trkpt>
      <trkpt lat="52.245589" lon="8.905629">
        <ele>204.907456</ele>
        <time>2026-07-17T14:01:31.425000Z</time>
      </trkpt>
      <trkpt lat="52.245536" lon="8.905826">
        <ele>204.516878</ele>
        <time>2026-07-17T14:01:45.623000Z</time>
      </trkpt>
      <trkpt lat="52.24539" lon="8.906064">
        <ele>203.905352</ele>
        <time>2026-07-17T14:02:07.149000Z</time>
      </trkpt>
      <trkpt lat="52.24525" lon="8.906158">
        <ele>203.456611</ele>
        <time>2026-07-17T14:02:22.594000Z</time>
      </trkpt>
      <trkpt lat="52.245161" lon="8.906148">
        <ele>203.192143</ele>
        <time>2026-07-17T14:02:31.707000Z</time>
      </trkpt>
      <trkpt lat="52.24525" lon="8.906158">
        <ele>202.927674</ele>
        <time>2026-07-17T14:02:40.960000Z</time>
      </trkpt>
      <trkpt lat="52.24539" lon="8.906064">
        <ele>202.478933</ele>
        <time>2026-07-17T14:02:56.288000Z</time>
      </trkpt>
      <trkpt lat="52.245536" lon="8.905826">
        <ele>201.867408</ele>
        <time>2026-07-17T14:03:17.260000Z</time>
      </trkpt>
      <trkpt lat="52.245589" lon="8.905629">
        <ele>200.778029</ele>
        <time>2026-07-17T14:03:30.532000Z</time>
      </trkpt>
      <trkpt lat="52.245677" lon="8.905008">
        <ele>196.810002</ele>
        <time>2026-07-17T14:04:11.266000Z</time>
      </trkpt>
      <trkpt lat="52.24573" lon="8.904682">
        <ele>194.710272</ele>
        <time>2026-07-17T14:04:33.543000Z</time>
      </trkpt>
      <trkpt lat="52.245798" lon="8.904754">
        <ele>193.886324</ele>
        <time>2026-07-17T14:04:42.582000Z</time>
      </trkpt>
      <trkpt lat="52.245802" lon="8.905277">
        <ele>190.630311</ele>
        <time>2026-07-17T14:05:20.447000Z</time>
      </trkpt>
      <trkpt lat="52.245906" lon="8.90563">
        <ele>188.191664</ele>
        <time>2026-07-17T14:05:51.152000Z</time>
      </trkpt>
      <trkpt lat="52.246134" lon="8.905962">
        <ele>185.085996</ele>
        <time>2026-07-17T14:06:35.063000Z</time>
      </trkpt>
      <trkpt lat="52.246162" lon="8.906917">
        <ele>175.165149</ele>
        <time>2026-07-17T14:08:07.069000Z</time>
      </trkpt>
      <trkpt lat="52.246486" lon="8.907256">
        <ele>167.677638</ele>
        <time>2026-07-17T14:09:05.933000Z</time>
      </trkpt>
      <trkpt lat="52.246856" lon="8.907367">
        <ele>160.357312</ele>
        <time>2026-07-17T14:10:00.537000Z</time>
      </trkpt>
      <trkpt lat="52.246921" lon="8.907312">
        <ele>158.932808</ele>
        <time>2026-07-17T14:10:11.296000Z</time>
      </trkpt>
      <trkpt lat="52.247103" lon="8.906667">
        <ele>150.471435</ele>
        <time>2026-07-17T14:11:10.274000Z</time>
      </trkpt>
      <trkpt lat="52.247169" lon="8.906549">
        <ele>148.567269</ele>
        <time>2026-07-17T14:11:22.978000Z</time>
      </trkpt>
      <trkpt lat="52.247517" lon="8.906399">
        <ele>141.831972</ele>
        <time>2026-07-17T14:12:09.815000Z</time>
      </trkpt>
      <trkpt lat="52.247653" lon="8.906386">
        <ele>139.283889</ele>
        <time>2026-07-17T14:12:27.816000Z</time>
      </trkpt>
      <trkpt lat="52.247799" lon="8.906839">
        <ele>133.421529</ele>
        <time>2026-07-17T14:13:10.112000Z</time>
      </trkpt>
      <trkpt lat="52.247951" lon="8.90737">
        <ele>126.709045</ele>
        <time>2026-07-17T14:14:01.044000Z</time>
      </trkpt>
      <trkpt lat="52.247966" lon="8.907566">
        <ele>124.447108</ele>
        <time>2026-07-17T14:14:18.729000Z</time>
      </trkpt>
      <trkpt lat="52.247934" lon="8.90776">
        <ele>122.146327</ele>
        <time>2026-07-17T14:14:36.663000Z</time>
      </trkpt>
      <trkpt lat="52.24787" lon="8.90829">
        <ele>115.960167</ele>
        <time>2026-07-17T14:15:25.168000Z</time>
      </trkpt>
      <trkpt lat="52.247982" lon="8.908453">
        <ele>113.140087</ele>
        <time>2026-07-17T14:15:48.209000Z</time>
      </trkpt>
      <trkpt lat="52.247866" lon="8.908451">
        <ele>110.951866</ele>
        <time>2026-07-17T14:16:06.587000Z</time>
      </trkpt>
      <trkpt lat="52.247842" lon="8.908479">
        <ele>110.395529</ele>
        <time>2026-07-17T14:16:11.241000Z</time>
      </trkpt>
      <trkpt lat="52.247826" lon="8.9086">
        <ele>108.965908</ele>
        <time>2026-07-17T14:16:23.312000Z</time>
      </trkpt>
      <trkpt lat="52.247851" lon="8.908842">
        <ele>106.131601</ele>
        <time>2026-07-17T14:16:47.020000Z</time>
      </trkpt>
      <trkpt lat="52.247788" lon="8.909062">
        <ele>103.326692</ele>
        <time>2026-07-17T14:17:10.208000Z</time>
      </trkpt>
      <trkpt lat="52.247758" lon="8.909392">
        <ele>99.47381</ele>
        <time>2026-07-17T14:17:41.584000Z</time>
      </trkpt>
      <trkpt lat="52.247634" lon="8.909739">
        <ele>94.833718</ele>
        <time>2026-07-17T14:18:18.186000Z</time>
      </trkpt>
      <trkpt lat="52.247577" lon="8.910046">
        <ele>91.128785</ele>
        <time>2026-07-17T14:18:46.844000Z</time>
      </trkpt>
      <trkpt lat="52.247515" lon="8.910153">
        <ele>89.427389</ele>
        <time>2026-07-17T14:19:00.050000Z</time>
      </trkpt>
      <trkpt lat="52.247457" lon="8.910295">
        <ele>87.456009</ele>
        <time>2026-07-17T14:19:14.314000Z</time>
      </trkpt>
      <trkpt lat="52.246826" lon="8.910894">
        <ele>77.23839</ele>
        <time>2026-07-17T14:20:45.984000Z</time>
      </trkpt>
      <trkpt lat="52.246745" lon="8.91104">
        <ele>76.081722</ele>
        <time>2026-07-17T14:21:00.155000Z</time>
      </trkpt>
      <trkpt lat="52.246697" lon="8.91119">
        <ele>75.088092</ele>
        <time>2026-07-17T14:21:12.174000Z</time>
      </trkpt>
      <trkpt lat="52.246663" lon="8.911206">
        <ele>74.748819</ele>
        <time>2026-07-17T14:21:16.103000Z</time>
      </trkpt>
      <trkpt lat="52.24654" lon="8.911142">
        <ele>73.511024</ele>
        <time>2026-07-17T14:21:30.998000Z</time>
      </trkpt>
      <trkpt lat="52.245925" lon="8.911078">
        <ele>67.602103</ele>
        <time>2026-07-17T14:22:43.004000Z</time>
      </trkpt>
      <trkpt lat="52.245529" lon="8.911062">
        <ele>63.803872</ele>
        <time>2026-07-17T14:23:28.640000Z</time>
      </trkpt>
      <trkpt lat="52.245452" lon="8.911398">
        <ele>62.231579</ele>
        <time>2026-07-17T14:23:53.817000Z</time>
      </trkpt>
      <trkpt lat="52.245468" lon="8.911546">
        <ele>61.589153</ele>
        <time>2026-07-17T14:24:04.379000Z</time>
      </trkpt>
      <trkpt lat="52.24528" lon="8.912025">
        <ele>59.157057</ele>
        <time>2026-07-17T14:24:45.017000Z</time>
      </trkpt>
      <trkpt lat="52.245418" lon="8.912251">
        <ele>57.792693</ele>
        <time>2026-07-17T14:25:07.764000Z</time>
      </trkpt>
      <trkpt lat="52.245433" lon="8.912359">
        <ele>57.319308</ele>
        <time>2026-07-17T14:25:15.637000Z</time>
      </trkpt>
      <trkpt lat="52.245334" lon="8.912557">
        <ele>56.226581</ele>
        <time>2026-07-17T14:25:33.862000Z</time>
      </trkpt>
      <trkpt lat="52.245049" lon="8.912403">
        <ele>54.1308</ele>
        <time>2026-07-17T14:26:08.221000Z</time>
      </trkpt>
      <trkpt lat="52.245044" lon="8.912429">
        <ele>54.014307</ele>
        <time>2026-07-17T14:26:10.156000Z</time>
      </trkpt>
      <trkpt lat="52.245061" lon="8.91261">
        <ele>53.231548</ele>
        <time>2026-07-17T14:26:22.741000Z</time>
      </trkpt>
      <trkpt lat="52.245081" lon="8.91284">
        <ele>52.238516</ele>
        <time>2026-07-17T14:26:38.515000Z</time>
      </trkpt>
      <trkpt lat="52.245078" lon="8.912922">
        <ele>51.887371</ele>
        <time>2026-07-17T14:26:44.079000Z</time>
      </trkpt>
      <trkpt lat="52.245075" lon="8.912979">
        <ele>51.642818</ele>
        <time>2026-07-17T14:26:47.909000Z</time>
      </trkpt>
      <trkpt lat="52.2451" lon="8.913024">
        <ele>51.383079</ele>
        <time>2026-07-17T14:26:51.877000Z</time>
      </trkpt>
      <trkpt lat="52.245117" lon="8.913098">
        <ele>51.080704</ele>
        <time>2026-07-17T14:26:57.176000Z</time>
      </trkpt>
      <trkpt lat="52.245143" lon="8.913203">
        <ele>50.887179</ele>
        <time>2026-07-17T14:27:04.668000Z</time>
      </trkpt>
      <trkpt lat="52.245074" lon="8.913283">
        <ele>50.651041</ele>
        <time>2026-07-17T14:27:13.851000Z</time>
      </trkpt>
      <trkpt lat="52.245052" lon="8.9134">
        <ele>50.441914</ele>
        <time>2026-07-17T14:27:22.050000Z</time>
      </trkpt>
      <trkpt lat="52.245006" lon="8.91344">
        <ele>50.296485</ele>
        <time>2026-07-17T14:27:27.722000Z</time>
      </trkpt>
      <trkpt lat="52.244946" lon="8.913489">
        <ele>50.109282</ele>
        <time>2026-07-17T14:27:34.986000Z</time>
      </trkpt>
      <trkpt lat="52.244902" lon="8.913525">
        <ele>49.971949</ele>
        <time>2026-07-17T14:27:40.328000Z</time>
      </trkpt>
      <trkpt lat="52.244821" lon="8.913464">
        <ele>49.723036</ele>
        <time>2026-07-17T14:27:50.080000Z</time>
      </trkpt>
      <trkpt lat="52.244762" lon="8.913483">
        <ele>49.55522</ele>
        <time>2026-07-17T14:27:56.509000Z</time>
      </trkpt>
      <trkpt lat="52.244397" lon="8.913806">
        <ele>48.396734</ele>
        <time>2026-07-17T14:28:40.695000Z</time>
      </trkpt>
      <trkpt lat="52.243962" lon="8.914298">
        <ele>46.92014</ele>
        <time>2026-07-17T14:29:35.924000Z</time>
      </trkpt>
      <trkpt lat="52.243824" lon="8.914494">
        <ele>46.40978</ele>
        <time>2026-07-17T14:29:54.625000Z</time>
      </trkpt>
      <trkpt lat="52.243799" lon="8.914552">
        <ele>46.288582</ele>
        <time>2026-07-17T14:29:59.054000Z</time>
      </trkpt>
      <trkpt lat="52.243783" lon="8.914592">
        <ele>46.206942</ele>
        <time>2026-07-17T14:30:02.043000Z</time>
      </trkpt>
      <trkpt lat="52.243718" lon="8.91476">
        <ele>46.145779</ele>
        <time>2026-07-17T14:30:14.366000Z</time>
      </trkpt>
      <trkpt lat="52.243707" lon="8.91481">
        <ele>46.171129</ele>
        <time>2026-07-17T14:30:17.671000Z</time>
      </trkpt>
      <trkpt lat="52.243698" lon="8.914852">
        <ele>46.19236</ele>
        <time>2026-07-17T14:30:20.376000Z</time>
      </trkpt>
      <trkpt lat="52.243689" lon="8.914916">
        <ele>46.223692</ele>
        <time>2026-07-17T14:30:24.403000Z</time>
      </trkpt>
      <trkpt lat="52.243562" lon="8.914939">
        <ele>46.323264</ele>
        <time>2026-07-17T14:30:37.240000Z</time>
      </trkpt>
      <trkpt lat="52.243496" lon="8.91501">
        <ele>46.384849</ele>
        <time>2026-07-17T14:30:45.228000Z</time>
      </trkpt>
      <trkpt lat="52.243258" lon="8.915441">
        <ele>46.661774</ele>
        <time>2026-07-17T14:31:21.520000Z</time>
      </trkpt>
      <trkpt lat="52.242647" lon="8.916817">
        <ele>47.472795</ele>
        <time>2026-07-17T14:33:10.865000Z</time>
      </trkpt>
      <trkpt lat="52.242258" lon="8.917692">
        <ele>48.752895</ele>
        <time>2026-07-17T14:34:21.005000Z</time>
      </trkpt>
      <trkpt lat="52.241356" lon="8.919565">
        <ele>51.933888</ele>
        <time>2026-07-17T14:36:58.307000Z</time>
      </trkpt>
      <trkpt lat="52.241314" lon="8.919659">
        <ele>52.147234</ele>
        <time>2026-07-17T14:37:05.955000Z</time>
      </trkpt>
      <trkpt lat="52.241245" lon="8.919814">
        <ele>52.498577</ele>
        <time>2026-07-17T14:37:18.516000Z</time>
      </trkpt>
      <trkpt lat="52.241229" lon="8.919998">
        <ele>52.839315</ele>
        <time>2026-07-17T14:37:30.799000Z</time>
      </trkpt>
      <trkpt lat="52.241289" lon="8.920198">
        <ele>53.247646</ele>
        <time>2026-07-17T14:37:45.626000Z</time>
      </trkpt>
      <trkpt lat="52.242109" lon="8.920814">
        <ele>55.950162</ele>
        <time>2026-07-17T14:39:28.503000Z</time>
      </trkpt>
      <trkpt lat="52.242922" lon="8.921197">
        <ele>56.406568</ele>
        <time>2026-07-17T14:41:01.122000Z</time>
      </trkpt>
      <trkpt lat="52.243142" lon="8.921247">
        <ele>56.406568</ele>
        <time>2026-07-17T14:41:24.872000Z</time>
      </trkpt>
      <trkpt lat="52.243484" lon="8.921306">
        <ele>56.406568</ele>
        <time>2026-07-17T14:42:01.471000Z</time>
      </trkpt>
      <trkpt lat="52.243586" lon="8.921203">
        <ele>56.406568</ele>
        <time>2026-07-17T14:42:13.632000Z</time>
      </trkpt>
      <trkpt lat="52.243723" lon="8.92121">
        <ele>56.406568</ele>
        <time>2026-07-17T14:42:27.496000Z</time>
      </trkpt>
    </trkseg>
  </trk>
</gpx>